{"type":"FeatureCollection","features":[{"type":"Feature","properties":{"Water_Clas":"Flood Water","Sensor_ID":"Sentinel-1","Sensor_Dat":"2021-08-31","Confidence":"To be evaluated","EventCode":"FL20210831MMR"},"geometry":{"type":"MultiPolygon","coordinates":[[[[96.66736,16.58208],[96.6679,16.58157],[96.66736,16.58165],[96.66745,16.58114],[96.66709,16.58114],[96.66682,16.58208],[96.66754,16.58234],[96.66745,16.58208],[96.66736,16.58208]]],[[[96.68209,16.59947],[96.68227,16.5987],[96.68147,16.59827],[96.68138,16.59922],[96.68066,16.59922],[96.68093,16.59999],[96.68138,16.59999],[96.68129,16.59956],[96.68209,16.59956],[96.68209,16.59947]]],[[[96.82082,16.82816],[96.82028,16.82902],[96.81983,16.83143],[96.81938,16.83177],[96.81857,16.83427],[96.81768,16.83547],[96.813,16.83719],[96.81184,16.83822],[96.81085,16.83857],[96.8104,16.83917],[96.80995,16.83917],[96.80995,16.83951],[96.80923,16.83968],[96.80869,16.84037],[96.80869,16.84089],[96.80851,16.84063],[96.80806,16.84089],[96.80851,16.84089],[96.80865,16.84132],[96.81081,16.83937],[96.81782,16.8356],[96.81916,16.83434],[96.82024,16.83272],[96.82042,16.83155],[96.82168,16.82886],[96.82213,16.82688],[96.82204,16.82491],[96.82141,16.82275],[96.81979,16.8197],[96.81845,16.81898],[96.81862,16.81808],[96.81809,16.81691],[96.81611,16.81529],[96.81521,16.81511],[96.81458,16.81565],[96.81431,16.81485],[96.81117,16.81485],[96.80901,16.81601],[96.80776,16.81736],[96.80677,16.8179],[96.80551,16.81979],[96.80569,16.82111],[96.80564,16.82017],[96.80591,16.82017],[96.806,16.81965],[96.80719,16.81929],[96.80759,16.81845],[96.80851,16.81819],[96.80977,16.8169],[96.81202,16.81587],[96.81327,16.81612],[96.8139,16.81681],[96.8139,16.81741],[96.81433,16.81741],[96.81534,16.81853],[96.81579,16.81862],[96.81563,16.81887],[96.81723,16.82068],[96.81741,16.82154],[96.81768,16.82154],[96.81839,16.82317],[96.8183,16.82352],[96.82028,16.82661],[96.82064,16.82816],[96.82082,16.82816]]],[[[96.78309,16.86539],[96.783,16.86513],[96.78327,16.86539],[96.78318,16.86513],[96.78381,16.86479],[96.78273,16.86462],[96.78147,16.86487],[96.78165,16.86539],[96.78255,16.86505],[96.78273,16.86556],[96.78309,16.86548],[96.78309,16.86539]]],[[[96.76988,16.86685],[96.7703,16.86641],[96.77033,16.86677],[96.76979,16.86702],[96.77123,16.86702],[96.7706,16.86651],[96.77078,16.86634],[96.77006,16.86616],[96.77006,16.86582],[96.76971,16.86582],[96.76997,16.86651],[96.76953,16.86685],[96.76988,16.86685]]],[[[96.77833,16.86805],[96.77824,16.86831],[96.77869,16.86814],[96.77896,16.8684],[96.77941,16.86814],[96.77995,16.86831],[96.7804,16.86788],[96.78004,16.86797],[96.77977,16.86762],[96.77923,16.86814],[96.7795,16.8678],[96.77932,16.86762],[96.77878,16.86797],[96.77824,16.8678],[96.77824,16.86805],[96.77833,16.86805]]],[[[96.7733,16.86943],[96.77348,16.869],[96.77321,16.86866],[96.77348,16.86848],[96.77321,16.86823],[96.77267,16.86857],[96.77294,16.869],[96.77258,16.86926],[96.77303,16.86943],[96.7733,16.86943]]],[[[96.76944,16.86977],[96.7689,16.86917],[96.76845,16.86917],[96.76863,16.86866],[96.76809,16.86866],[96.76845,16.8696],[96.76827,16.86986],[96.76863,16.8696],[96.76881,16.86986],[96.76962,16.86977],[96.76944,16.86977]]],[[[96.77743,16.87184],[96.77761,16.87141],[96.77806,16.87175],[96.77788,16.87115],[96.77743,16.87115],[96.77725,16.87158],[96.77707,16.87124],[96.77671,16.87132],[96.77662,16.87175],[96.77734,16.87184],[96.77743,16.87184]]],[[[96.7715,16.87192],[96.77159,16.87132],[96.77078,16.87132],[96.77123,16.87124],[96.77087,16.87055],[96.77105,16.86986],[96.77024,16.87012],[96.77069,16.87089],[96.77069,16.87115],[96.77024,16.87115],[96.77033,16.87149],[96.77141,16.87192],[96.7715,16.87192]]],[[[96.77429,16.87124],[96.77429,16.87098],[96.77456,16.87106],[96.77429,16.87149],[96.77465,16.87149],[96.77483,16.87192],[96.77492,16.87141],[96.77527,16.87141],[96.77474,16.87081],[96.77384,16.87081],[96.77402,16.87124],[96.77429,16.87124]]],[[[96.7706,16.8733],[96.7706,16.8727],[96.76979,16.8727],[96.77015,16.87313],[96.77006,16.87381],[96.77051,16.8739],[96.77042,16.87424],[96.77078,16.8745],[96.77069,16.8733],[96.7706,16.8733]]],[[[96.77572,16.87424],[96.77617,16.87356],[96.7759,16.87313],[96.77474,16.87304],[96.77465,16.87364],[96.7742,16.87356],[96.77393,16.87278],[96.77375,16.87321],[96.77411,16.87321],[96.77384,16.87338],[96.77411,16.87381],[96.77384,16.87416],[96.7742,16.87424],[96.77402,16.8745],[96.77429,16.87476],[96.77474,16.87467],[96.77465,16.87416],[96.7751,16.87416],[96.77518,16.8745],[96.77554,16.87424],[96.77536,16.87459],[96.77563,16.87485],[96.7759,16.87424],[96.77572,16.87424]]],[[[96.76081,16.87416],[96.76072,16.87502],[96.76099,16.87536],[96.76171,16.87502],[96.76342,16.87502],[96.76324,16.87338],[96.76297,16.87338],[96.76297,16.8727],[96.76333,16.8727],[96.76342,16.87227],[96.76288,16.87261],[96.76027,16.8727],[96.76045,16.8733],[96.75991,16.87356],[96.76045,16.87347],[96.76081,16.87407],[96.76081,16.87416]]],[[[96.76971,16.87407],[96.7689,16.8739],[96.76917,16.87373],[96.76872,16.87364],[96.7689,16.87321],[96.76791,16.87201],[96.76818,16.87356],[96.76859,16.87333],[96.76868,16.87413],[96.76967,16.87467],[96.76976,16.87521],[96.76908,16.87521],[96.76917,16.87545],[96.76953,16.87528],[96.77105,16.87571],[96.77069,16.87493],[96.77024,16.8751],[96.77015,16.87442],[96.76988,16.87442],[96.77006,16.87399],[96.76971,16.87399],[96.76971,16.87407]]],[[[96.76126,16.87665],[96.76162,16.87657],[96.76216,16.87553],[96.76162,16.87562],[96.76189,16.87588],[96.76099,16.87605],[96.76122,16.8762],[96.76104,16.87647],[96.76063,16.87571],[96.76018,16.87596],[96.76054,16.87605],[96.76054,16.87648],[96.76117,16.87665],[96.76126,16.87665]]],[[[96.76512,16.88172],[96.76539,16.88164],[96.76512,16.88129],[96.76566,16.88104],[96.76423,16.88078],[96.76458,16.88172],[96.76494,16.88172],[96.76512,16.88172]]],[[[96.7636,16.88164],[96.7636,16.88207],[96.76315,16.88224],[96.76342,16.88172],[96.76288,16.88155],[96.76279,16.88241],[96.76315,16.88275],[96.7636,16.88224],[96.7636,16.88284],[96.76387,16.88275],[96.76423,16.88318],[96.76414,16.88207],[96.76378,16.88207],[96.76369,16.88164],[96.7636,16.88164]]],[[[96.76342,16.8837],[96.76387,16.88327],[96.76351,16.88301],[96.76315,16.88318],[96.76261,16.88232],[96.76225,16.8825],[96.76189,16.88215],[96.76189,16.88318],[96.76261,16.88318],[96.76243,16.88336],[96.76288,16.8837],[96.76342,16.8837]]]]}}],"bbox":[96.66682,16.58114,96.82213,16.8837]}
