{"type":"FeatureCollection","features":[{"type":"Feature","properties":{"Water_Clas":"Flood Water","Sensor_ID":"Sentinel-1","Sensor_Dat":"2021-08-25","Confidence":"To be evaluated","EventCode":"FL20210831MMR"},"geometry":{"type":"MultiPolygon","coordinates":[[[[96.63717,16.56053],[96.63752,16.56008],[96.63815,16.56017],[96.63815,16.55918],[96.63752,16.55945],[96.63725,16.56017],[96.6369,16.56017],[96.63708,16.56053],[96.63717,16.56053]]],[[[96.63797,16.56143],[96.63824,16.56134],[96.63806,16.56044],[96.63743,16.56089],[96.63752,16.56143],[96.63797,16.56143]]],[[[96.63959,16.56377],[96.63959,16.56332],[96.6404,16.5635],[96.63995,16.56269],[96.63932,16.56278],[96.63905,16.56377],[96.63959,16.56377]]],[[[96.64318,16.56475],[96.64318,16.56413],[96.6439,16.56413],[96.64399,16.56341],[96.64444,16.56341],[96.64462,16.56278],[96.64417,16.56278],[96.64264,16.5617],[96.64247,16.56269],[96.64211,16.56287],[96.64264,16.56359],[96.64264,16.56475],[96.64309,16.56538],[96.64345,16.56538],[96.64345,16.56475],[96.64318,16.56475]]],[[[96.64444,16.57041],[96.64444,16.57014],[96.6448,16.57014],[96.64453,16.56925],[96.6439,16.56952],[96.64399,16.57041],[96.64444,16.57041]]],[[[96.66402,16.57886],[96.66456,16.5785],[96.66447,16.57805],[96.66331,16.57805],[96.66358,16.57886],[96.66402,16.57886]]],[[[96.6634,16.57967],[96.66358,16.57931],[96.66286,16.57904],[96.66223,16.57922],[96.6625,16.57967],[96.66313,16.57967],[96.6634,16.57967]]],[[[96.66995,16.58443],[96.66968,16.58344],[96.66888,16.58398],[96.66888,16.58434],[96.66923,16.58443],[96.66995,16.58443]]],[[[96.68343,16.60347],[96.68343,16.60311],[96.68415,16.60311],[96.68406,16.60248],[96.68298,16.60239],[96.68307,16.60347],[96.68343,16.60347]]],[[[96.68522,16.60482],[96.68558,16.60446],[96.68505,16.60383],[96.6846,16.60383],[96.68424,16.60437],[96.68478,16.60455],[96.68478,16.60482],[96.68522,16.60482]]],[[[96.71828,16.64776],[96.72008,16.64704],[96.71999,16.6465],[96.71936,16.6465],[96.71936,16.64695],[96.71846,16.64731],[96.71747,16.64713],[96.71738,16.64749],[96.71783,16.64749],[96.71783,16.64776],[96.71828,16.64776]]],[[[96.71837,16.65135],[96.71837,16.65108],[96.71927,16.65099],[96.71918,16.65018],[96.71855,16.65027],[96.71846,16.65072],[96.71792,16.65081],[96.71801,16.65135],[96.71837,16.65135]]],[[[96.7614,16.76939],[96.76176,16.76921],[96.76176,16.76804],[96.76122,16.76804],[96.76104,16.76858],[96.7605,16.76885],[96.76086,16.76939],[96.7614,16.76939]]],[[[96.76176,16.77083],[96.76176,16.76975],[96.76122,16.77011],[96.7614,16.77083],[96.76176,16.77083]]],[[[96.76212,16.77424],[96.76212,16.77334],[96.76185,16.77334],[96.76212,16.77307],[96.76203,16.77209],[96.76158,16.772],[96.76158,16.77137],[96.76122,16.77137],[96.76113,16.772],[96.76176,16.77244],[96.76149,16.77424],[96.76212,16.77433],[96.76212,16.77424]]],[[[96.7623,16.78269],[96.76248,16.78179],[96.76185,16.78179],[96.76176,16.78269],[96.7623,16.78269]]],[[[96.78817,16.78754],[96.78826,16.78691],[96.78781,16.78691],[96.78772,16.78781],[96.78826,16.78781],[96.78844,16.78826],[96.7888,16.78826],[96.7888,16.78772],[96.78826,16.78754],[96.78817,16.78754]]],[[[96.76329,16.79436],[96.76329,16.79203],[96.76284,16.79212],[96.76257,16.79266],[96.76302,16.79409],[96.76239,16.79409],[96.76239,16.79436],[96.76329,16.79436]]],[[[96.76086,16.79751],[96.76122,16.7967],[96.76185,16.79652],[96.76167,16.79571],[96.76203,16.79571],[96.76194,16.79526],[96.76113,16.79535],[96.76113,16.79643],[96.76068,16.79652],[96.76059,16.7976],[96.76113,16.79778],[96.76113,16.79751],[96.76086,16.79751]]],[[[96.76041,16.79787],[96.75987,16.79787],[96.75996,16.79877],[96.76059,16.79886],[96.76041,16.79832],[96.76041,16.79787]]],[[[96.76149,16.79912],[96.76149,16.79877],[96.76194,16.79877],[96.76203,16.79841],[96.76095,16.79823],[96.76113,16.79912],[96.76149,16.79912]]],[[[96.77065,16.80164],[96.77101,16.8011],[96.77164,16.80119],[96.77146,16.79957],[96.77173,16.79957],[96.77173,16.80002],[96.77353,16.79984],[96.77353,16.79823],[96.77281,16.79823],[96.77245,16.79733],[96.77182,16.79715],[96.77182,16.79688],[96.77227,16.79688],[96.77227,16.79634],[96.77173,16.79661],[96.77173,16.79634],[96.77092,16.79616],[96.77092,16.79571],[96.76976,16.7949],[96.76904,16.79481],[96.76859,16.79589],[96.7685,16.80038],[96.76922,16.80128],[96.76958,16.8011],[96.76931,16.80047],[96.77021,16.80047],[96.77003,16.8011],[96.77039,16.80164],[96.77065,16.80164]]],[[[96.76041,16.80173],[96.76041,16.80065],[96.76005,16.80065],[96.76032,16.80137],[96.75979,16.80137],[96.75979,16.80173],[96.76041,16.80173]]],[[[96.77218,16.80227],[96.77236,16.80155],[96.772,16.80128],[96.77119,16.80155],[96.77128,16.80218],[96.77164,16.80227],[96.77218,16.80227]]],[[[96.77092,16.80218],[96.77092,16.80173],[96.76976,16.80173],[96.76985,16.80209],[96.77083,16.80272],[96.77101,16.80218],[96.77092,16.80218]]],[[[96.76041,16.8038],[96.76167,16.80227],[96.76203,16.80101],[96.76122,16.80101],[96.76131,16.80182],[96.76086,16.80209],[96.76068,16.80326],[96.7597,16.80335],[96.7597,16.8038],[96.76041,16.8038]]],[[[96.75574,16.80389],[96.7561,16.8038],[96.7561,16.80281],[96.75583,16.80272],[96.75565,16.80191],[96.75529,16.80182],[96.75529,16.80146],[96.75565,16.80137],[96.75529,16.80083],[96.75475,16.80083],[96.75475,16.80119],[96.75448,16.80119],[96.7544,16.80074],[96.75413,16.80074],[96.75377,16.80173],[96.75269,16.80173],[96.75287,16.80245],[96.75323,16.80263],[96.75314,16.80353],[96.75413,16.80335],[96.7544,16.80299],[96.75538,16.80308],[96.75538,16.80389],[96.75574,16.80389]]],[[[96.75673,16.80389],[96.75691,16.80344],[96.75754,16.80371],[96.75781,16.80299],[96.75619,16.80326],[96.75637,16.80389],[96.75673,16.80389]]],[[[96.77335,16.80676],[96.77362,16.80667],[96.77362,16.80577],[96.77335,16.8055],[96.7729,16.80586],[96.7729,16.80622],[96.77335,16.80622],[96.77308,16.80676],[96.77335,16.80676]]],[[[96.75431,16.80685],[96.75493,16.80595],[96.75556,16.80595],[96.75565,16.80523],[96.75529,16.80496],[96.75431,16.80505],[96.75413,16.80433],[96.75359,16.80425],[96.7535,16.80532],[96.75386,16.80532],[96.75404,16.80685],[96.75431,16.80685]]],[[[96.75152,16.80874],[96.75188,16.80766],[96.75215,16.80766],[96.75188,16.80694],[96.75125,16.80694],[96.75125,16.8082],[96.75098,16.8082],[96.75098,16.80766],[96.75035,16.80793],[96.75089,16.80874],[96.75152,16.80874]]],[[[96.75341,16.80892],[96.75386,16.80847],[96.75431,16.80847],[96.75431,16.80802],[96.75323,16.80829],[96.75305,16.80892],[96.75341,16.80892]]],[[[96.75556,16.81071],[96.75583,16.80963],[96.75529,16.80963],[96.75529,16.81071],[96.75556,16.81071]]],[[[96.79715,16.81107],[96.79733,16.80999],[96.79913,16.80892],[96.79886,16.80775],[96.79976,16.80739],[96.79958,16.80613],[96.79922,16.80604],[96.79949,16.80505],[96.79859,16.8038],[96.7985,16.80263],[96.79805,16.80245],[96.79805,16.80218],[96.79922,16.80164],[96.79913,16.8011],[96.7985,16.80065],[96.79913,16.8002],[96.79913,16.79966],[96.79859,16.79877],[96.79814,16.79868],[96.79841,16.79823],[96.79841,16.79652],[96.79769,16.79508],[96.79715,16.79266],[96.79644,16.79284],[96.7959,16.79149],[96.79518,16.79131],[96.79446,16.78996],[96.79383,16.78736],[96.79356,16.78736],[96.79302,16.78646],[96.79329,16.78511],[96.79257,16.7852],[96.79212,16.78466],[96.79185,16.78331],[96.79069,16.78242],[96.79042,16.78107],[96.78979,16.78026],[96.78925,16.78017],[96.78925,16.77981],[96.78754,16.77855],[96.78611,16.77864],[96.78449,16.77828],[96.78233,16.77927],[96.78081,16.78089],[96.78018,16.7808],[96.77946,16.78278],[96.77901,16.78646],[96.77955,16.78664],[96.78,16.78655],[96.78,16.78628],[96.78116,16.78637],[96.78116,16.78727],[96.77937,16.787],[96.77856,16.78736],[96.77793,16.78817],[96.77793,16.7887],[96.77739,16.78888],[96.77712,16.78951],[96.77712,16.78996],[96.77802,16.78996],[96.77829,16.7905],[96.77955,16.7905],[96.77982,16.79158],[96.77919,16.79167],[96.77919,16.7914],[96.77703,16.79077],[96.7764,16.79005],[96.77685,16.7887],[96.77748,16.78817],[96.77838,16.78628],[96.77802,16.7817],[96.77865,16.78017],[96.77937,16.77882],[96.78404,16.77505],[96.7844,16.77361],[96.78278,16.77137],[96.78251,16.76849],[96.78152,16.76777],[96.78134,16.76661],[96.78045,16.76625],[96.77991,16.76544],[96.77847,16.76544],[96.77865,16.76508],[96.77919,16.76508],[96.7791,16.76463],[96.77865,16.76463],[96.77829,16.76409],[96.7773,16.76445],[96.77631,16.76436],[96.77497,16.7658],[96.77317,16.76571],[96.77308,16.76544],[96.77362,16.76517],[96.77488,16.76265],[96.77353,16.76274],[96.77326,16.76211],[96.77362,16.76158],[96.77308,16.76149],[96.7729,16.76113],[96.77308,16.76041],[96.77236,16.76041],[96.77281,16.7596],[96.77263,16.75879],[96.77317,16.75852],[96.77326,16.75771],[96.77254,16.75744],[96.77227,16.75798],[96.77155,16.75834],[96.77191,16.75879],[96.77164,16.75942],[96.77074,16.76032],[96.77021,16.76041],[96.76985,16.76095],[96.76985,16.76175],[96.76922,16.7622],[96.76958,16.76274],[96.76904,16.7649],[96.7694,16.76553],[96.76913,16.76598],[96.7694,16.76679],[96.76877,16.76759],[96.76877,16.76813],[96.76913,16.76849],[96.76931,16.76993],[96.76859,16.77029],[96.76859,16.77137],[96.76904,16.77298],[96.76976,16.77334],[96.76976,16.77361],[96.76913,16.77379],[96.76895,16.7746],[96.76886,16.77604],[96.7694,16.77685],[96.76886,16.77721],[96.76859,16.78547],[96.76895,16.79185],[96.76949,16.79409],[96.76976,16.79445],[96.77047,16.79436],[96.77039,16.79499],[96.77074,16.79517],[96.77101,16.79445],[96.77146,16.79445],[96.7711,16.79347],[96.77173,16.79373],[96.7729,16.79329],[96.77281,16.79257],[96.77317,16.79257],[96.7738,16.79311],[96.7738,16.79373],[96.77425,16.79427],[96.77416,16.7949],[96.77479,16.79481],[96.77551,16.79535],[96.77676,16.79544],[96.77676,16.79508],[96.77766,16.79535],[96.77721,16.79436],[96.77649,16.79445],[96.77685,16.79311],[96.77748,16.79311],[96.7773,16.794],[96.77775,16.79409],[96.77802,16.79284],[96.77829,16.79284],[96.77829,16.79329],[96.77883,16.79329],[96.7791,16.79418],[96.77955,16.79427],[96.77937,16.79329],[96.77964,16.79293],[96.7791,16.79284],[96.7791,16.79239],[96.77874,16.79239],[96.77874,16.79284],[96.77847,16.79284],[96.77856,16.79212],[96.78,16.79257],[96.77955,16.79203],[96.78,16.79194],[96.78036,16.79113],[96.78116,16.79095],[96.78108,16.7905],[96.78054,16.7905],[96.78009,16.78996],[96.78152,16.78996],[96.78143,16.78897],[96.78063,16.78942],[96.78081,16.7879],[96.78018,16.7879],[96.78018,16.78763],[96.78036,16.78736],[96.7809,16.78754],[96.7809,16.78781],[96.78134,16.78754],[96.78278,16.78754],[96.78269,16.78673],[96.78233,16.78673],[96.78233,16.78727],[96.7817,16.78727],[96.78224,16.78664],[96.78161,16.78664],[96.78152,16.78601],[96.7826,16.78628],[96.78287,16.78556],[96.78314,16.78556],[96.78314,16.78601],[96.78359,16.78637],[96.78413,16.78646],[96.78413,16.78709],[96.7844,16.78709],[96.78458,16.78619],[96.78422,16.78421],[96.78377,16.78403],[96.78386,16.78475],[96.78359,16.78475],[96.78332,16.78358],[96.78368,16.78358],[96.7835,16.78304],[96.78377,16.78304],[96.78377,16.78331],[96.78422,16.78331],[96.78422,16.78367],[96.7853,16.78376],[96.78539,16.78421],[96.78611,16.78439],[96.7862,16.78502],[96.78655,16.78502],[96.78638,16.78583],[96.787,16.78556],[96.78709,16.78592],[96.78817,16.78592],[96.78853,16.7861],[96.78826,16.78673],[96.78898,16.78655],[96.78907,16.78691],[96.78961,16.78691],[96.78961,16.78718],[96.78898,16.78718],[96.78898,16.78772],[96.78988,16.78799],[96.78988,16.78834],[96.7906,16.78834],[96.79114,16.78888],[96.79105,16.78942],[96.79168,16.78933],[96.79185,16.7905],[96.79239,16.79005],[96.79239,16.79068],[96.79293,16.79077],[96.79311,16.7914],[96.79392,16.79149],[96.79401,16.79266],[96.79455,16.79266],[96.79536,16.79409],[96.795,16.79481],[96.79509,16.79598],[96.79563,16.79616],[96.7959,16.79724],[96.79527,16.79778],[96.79518,16.79877],[96.79617,16.79939],[96.79635,16.80011],[96.7968,16.80011],[96.79653,16.80137],[96.79626,16.80137],[96.79626,16.80218],[96.79662,16.80218],[96.7968,16.80281],[96.79626,16.80272],[96.79626,16.80317],[96.79662,16.80317],[96.79671,16.80416],[96.79787,16.80398],[96.79823,16.80442],[96.79823,16.80568],[96.79751,16.80568],[96.79751,16.80595],[96.7976,16.8064],[96.79805,16.8064],[96.79859,16.80712],[96.79859,16.80748],[96.79796,16.80775],[96.79796,16.80829],[96.79724,16.80829],[96.79724,16.80865],[96.79841,16.80874],[96.79841,16.80901],[96.79778,16.80937],[96.79689,16.8091],[96.79689,16.80946],[96.79653,16.80955],[96.79698,16.81044],[96.79644,16.81071],[96.79644,16.81107],[96.79707,16.81107],[96.79715,16.81107]],[[96.79033,16.78727],[96.79024,16.78682],[96.79114,16.78691],[96.79105,16.78628],[96.79203,16.78673],[96.79203,16.787],[96.79141,16.787],[96.79132,16.78745],[96.79069,16.78727],[96.79033,16.78727]],[[96.78323,16.78394],[96.78323,16.78439],[96.78206,16.78511],[96.78206,16.78466],[96.78251,16.78439],[96.78215,16.78376],[96.78242,16.78394],[96.78323,16.78394]],[[96.77578,16.79311],[96.77631,16.7932],[96.7764,16.79382],[96.77569,16.79391],[96.77569,16.79436],[96.77497,16.79427],[96.77551,16.79311],[96.77578,16.79311]]],[[[96.77613,16.81296],[96.77649,16.81278],[96.77631,16.81179],[96.77542,16.81188],[96.77533,16.81152],[96.77488,16.81152],[96.77461,16.8126],[96.77578,16.81296],[96.77613,16.81296]]],[[[96.77146,16.80568],[96.77083,16.8055],[96.77065,16.80613],[96.76985,16.80622],[96.77047,16.80532],[96.77128,16.80523],[96.77146,16.80568],[96.772,16.80568],[96.77191,16.80496],[96.77155,16.80487],[96.77155,16.80425],[96.772,16.80425],[96.772,16.80353],[96.76859,16.80164],[96.76823,16.80272],[96.76751,16.80308],[96.76706,16.80425],[96.76688,16.80631],[96.76661,16.80631],[96.76679,16.80694],[96.76607,16.80694],[96.76625,16.80811],[96.76733,16.8091],[96.76787,16.81008],[96.77209,16.81251],[96.77245,16.8126],[96.77245,16.81224],[96.77272,16.81224],[96.77281,16.81287],[96.77425,16.81377],[96.7747,16.81377],[96.7747,16.8135],[96.77443,16.8135],[96.77407,16.81251],[96.77362,16.81251],[96.77362,16.81188],[96.77443,16.81215],[96.77443,16.81179],[96.7738,16.81161],[96.77434,16.81071],[96.77461,16.81071],[96.77434,16.81152],[96.77488,16.81143],[96.77488,16.8108],[96.77569,16.81071],[96.77703,16.81125],[96.77712,16.81188],[96.77757,16.81197],[96.77757,16.81116],[96.77694,16.81098],[96.77685,16.80999],[96.77604,16.80999],[96.7756,16.80963],[96.77452,16.81044],[96.77443,16.81017],[96.77317,16.81017],[96.77272,16.80928],[96.77218,16.80955],[96.77218,16.8091],[96.77155,16.80937],[96.77101,16.80883],[96.77039,16.80883],[96.77039,16.8082],[96.76985,16.80811],[96.76985,16.80766],[96.77065,16.80757],[96.77065,16.80622],[96.77092,16.80622],[96.7711,16.80703],[96.77272,16.80685],[96.77263,16.80613],[96.77209,16.80649],[96.77146,16.80604],[96.77146,16.80568]]],[[[96.75835,16.81431],[96.75853,16.81377],[96.7597,16.81359],[96.7597,16.81242],[96.75943,16.8126],[96.75943,16.81332],[96.75907,16.81332],[96.75907,16.81287],[96.75844,16.81305],[96.75826,16.81269],[96.75826,16.81242],[96.7597,16.81215],[96.7597,16.81134],[96.75898,16.81116],[96.75889,16.81188],[96.75862,16.81188],[96.75808,16.81116],[96.75862,16.81098],[96.75916,16.81026],[96.75925,16.80928],[96.75898,16.80874],[96.7597,16.80838],[96.75934,16.80766],[96.7597,16.80631],[96.75916,16.80631],[96.75916,16.80604],[96.76023,16.80595],[96.76005,16.80532],[96.76041,16.80532],[96.7605,16.8046],[96.76014,16.80416],[96.7597,16.80442],[96.7597,16.80496],[96.75871,16.80586],[96.75871,16.80622],[96.75799,16.80604],[96.75799,16.8064],[96.75844,16.8064],[96.75817,16.80712],[96.75718,16.80739],[96.75718,16.80775],[96.7579,16.80757],[96.7579,16.80793],[96.75853,16.80784],[96.75853,16.80811],[96.75889,16.80811],[96.75889,16.80838],[96.75799,16.80883],[96.75817,16.80946],[96.75862,16.80946],[96.75871,16.81026],[96.75844,16.80999],[96.75781,16.81026],[96.75799,16.80946],[96.75718,16.80937],[96.757,16.80981],[96.75709,16.81053],[96.75754,16.81071],[96.75799,16.8117],[96.75781,16.8126],[96.75736,16.81269],[96.75772,16.81377],[96.75808,16.81377],[96.75799,16.81431],[96.75835,16.81431]]],[[[96.79572,16.81493],[96.79545,16.81485],[96.79545,16.81431],[96.79473,16.8144],[96.79482,16.8152],[96.79509,16.81493],[96.79599,16.8152],[96.79599,16.81493],[96.79572,16.81493]]],[[[96.75745,16.81449],[96.75772,16.81476],[96.75682,16.81449],[96.75718,16.81547],[96.7579,16.81529],[96.75799,16.81493],[96.75781,16.81386],[96.75745,16.81413],[96.75745,16.81449]]],[[[96.79356,16.81601],[96.79419,16.81493],[96.79374,16.81493],[96.79338,16.81556],[96.79284,16.81556],[96.79284,16.81601],[96.79356,16.81601]]],[[[96.75305,16.81628],[96.7535,16.81538],[96.75206,16.81547],[96.75242,16.81628],[96.75305,16.81628]]],[[[96.75502,16.81673],[96.75511,16.81637],[96.75565,16.81637],[96.75592,16.81538],[96.75511,16.81592],[96.75484,16.8152],[96.75457,16.8152],[96.75457,16.81574],[96.75431,16.81583],[96.75431,16.8161],[96.75475,16.8161],[96.75457,16.81673],[96.75502,16.81673]]],[[[96.78072,16.81673],[96.78116,16.81529],[96.78063,16.8152],[96.78063,16.81458],[96.77928,16.81458],[96.77928,16.81404],[96.77874,16.81359],[96.7782,16.81359],[96.7782,16.81395],[96.77739,16.81395],[96.77712,16.81502],[96.77748,16.81493],[96.77748,16.81458],[96.77856,16.81476],[96.77865,16.81565],[96.77928,16.81538],[96.77937,16.81592],[96.77964,16.81592],[96.77964,16.81556],[96.78036,16.81574],[96.78036,16.81673],[96.78072,16.81673]]],[[[96.75727,16.81727],[96.75745,16.8161],[96.75673,16.81673],[96.75691,16.81727],[96.75727,16.81727]]],[[[96.78377,16.81799],[96.78422,16.81745],[96.7835,16.81745],[96.7835,16.81682],[96.78314,16.81718],[96.78242,16.81718],[96.78269,16.81781],[96.7835,16.81799],[96.78377,16.81799]]],[[[96.79383,16.81952],[96.79356,16.81925],[96.7941,16.81952],[96.7941,16.81898],[96.79464,16.8188],[96.79509,16.81817],[96.79608,16.81799],[96.79608,16.81727],[96.79635,16.81727],[96.79662,16.81826],[96.79689,16.81826],[96.79859,16.81619],[96.79832,16.81529],[96.79886,16.81538],[96.7994,16.81493],[96.79967,16.8144],[96.79949,16.81233],[96.79913,16.81188],[96.79913,16.81071],[96.79859,16.81008],[96.79796,16.81008],[96.79742,16.81134],[96.79698,16.81134],[96.79707,16.81206],[96.79742,16.81206],[96.79733,16.81287],[96.79814,16.8126],[96.79814,16.81323],[96.79886,16.8135],[96.79841,16.81413],[96.79814,16.81413],[96.79823,16.81359],[96.79787,16.81359],[96.79724,16.81476],[96.79662,16.81467],[96.79662,16.81511],[96.79787,16.81485],[96.79787,16.81529],[96.79715,16.81592],[96.79733,16.81709],[96.79671,16.81754],[96.79707,16.81655],[96.79635,16.81646],[96.79608,16.81583],[96.79527,16.81592],[96.79518,16.81646],[96.79464,16.81682],[96.79392,16.81664],[96.79401,16.81781],[96.79446,16.81781],[96.79446,16.81808],[96.79392,16.81808],[96.7941,16.81862],[96.79356,16.81817],[96.79329,16.81925],[96.79284,16.81943],[96.79284,16.8197],[96.79383,16.81979],[96.79383,16.81952]],[[96.79527,16.81754],[96.79455,16.81736],[96.79455,16.81709],[96.79599,16.81664],[96.79608,16.81718],[96.79572,16.81718],[96.79572,16.81754],[96.79527,16.81754]]],[[[96.78691,16.81961],[96.787,16.81862],[96.78781,16.8188],[96.78727,16.81799],[96.78673,16.81853],[96.78557,16.81844],[96.78539,16.81898],[96.78458,16.8188],[96.78476,16.81952],[96.78431,16.81979],[96.78539,16.8197],[96.78647,16.82006],[96.78647,16.81961],[96.78691,16.81961]]],[[[96.77326,16.81871],[96.77299,16.81871],[96.77317,16.81979],[96.7738,16.82015],[96.7738,16.81943],[96.77326,16.81898],[96.77326,16.81871]]],[[[96.76077,16.82068],[96.76077,16.82032],[96.76122,16.82006],[96.76266,16.81988],[96.76266,16.81934],[96.76185,16.81934],[96.76185,16.81907],[96.76248,16.81898],[96.76221,16.81772],[96.76122,16.81673],[96.75961,16.81386],[96.75916,16.81422],[96.75961,16.81493],[96.75916,16.81493],[96.75916,16.81529],[96.75961,16.81547],[96.75961,16.81511],[96.75996,16.81511],[96.75996,16.81574],[96.7597,16.81574],[96.75996,16.81646],[96.75961,16.81646],[96.75961,16.81619],[96.7588,16.81637],[96.75916,16.817],[96.75871,16.81835],[96.75943,16.81835],[96.75943,16.81862],[96.75862,16.81853],[96.75889,16.8188],[96.75862,16.82006],[96.75907,16.82006],[96.75907,16.82041],[96.75934,16.82041],[96.75934,16.82006],[96.75987,16.81997],[96.76014,16.82068],[96.76077,16.82068]]],[[[96.75637,16.82131],[96.75709,16.82024],[96.7561,16.82015],[96.75601,16.8197],[96.75574,16.8197],[96.7561,16.82185],[96.75646,16.82185],[96.75646,16.82131],[96.75637,16.82131]]],[[[96.8091,16.8223],[96.80928,16.82185],[96.81,16.82185],[96.81018,16.82122],[96.81072,16.82122],[96.81036,16.82015],[96.80991,16.82015],[96.80991,16.8205],[96.80946,16.8205],[96.80946,16.82095],[96.8091,16.82095],[96.80937,16.82149],[96.80901,16.82149],[96.80883,16.8223],[96.8091,16.8223]]],[[[96.79257,16.82293],[96.79338,16.82266],[96.79626,16.81871],[96.79545,16.8188],[96.79473,16.81988],[96.7941,16.82015],[96.79383,16.82122],[96.79338,16.82122],[96.7932,16.82239],[96.79257,16.82275],[96.79257,16.82293]]],[[[96.79257,16.82293],[96.79185,16.82293],[96.7915,16.82221],[96.79087,16.82239],[96.79114,16.82167],[96.79051,16.82185],[96.79051,16.82158],[96.7906,16.82131],[96.79123,16.82122],[96.79168,16.82149],[96.79168,16.82194],[96.79203,16.82194],[96.79185,16.82257],[96.79266,16.8223],[96.79302,16.82086],[96.79221,16.82095],[96.79221,16.8205],[96.79284,16.8205],[96.79284,16.82024],[96.79221,16.81997],[96.7923,16.81907],[96.79257,16.81907],[96.79284,16.81745],[96.79311,16.81745],[96.79356,16.81628],[96.79284,16.81646],[96.79284,16.81691],[96.79248,16.81691],[96.79257,16.81772],[96.79203,16.81754],[96.79221,16.81862],[96.7915,16.81853],[96.79168,16.81646],[96.79141,16.81646],[96.79141,16.81682],[96.79087,16.81682],[96.79069,16.81736],[96.78943,16.81763],[96.78961,16.81835],[96.78934,16.81844],[96.78916,16.81925],[96.7888,16.81925],[96.7888,16.81979],[96.78853,16.81979],[96.78853,16.82006],[96.78907,16.82006],[96.78889,16.82086],[96.78736,16.82041],[96.78727,16.81961],[96.78691,16.81961],[96.78682,16.82024],[96.78638,16.82032],[96.7915,16.82302],[96.79257,16.82302],[96.79257,16.82293]]],[[[96.80632,16.82482],[96.80641,16.82428],[96.80542,16.82383],[96.80605,16.82482],[96.80632,16.82482]]],[[[96.75808,16.825],[96.76014,16.82311],[96.76158,16.8223],[96.76212,16.82104],[96.76266,16.82068],[96.76257,16.82015],[96.76194,16.82015],[96.76176,16.82122],[96.76095,16.82149],[96.76077,16.82203],[96.75961,16.82275],[96.75907,16.82275],[96.75934,16.82194],[96.75871,16.82212],[96.75853,16.82068],[96.75817,16.82068],[96.75817,16.82185],[96.75862,16.8232],[96.75817,16.82455],[96.75781,16.82464],[96.75781,16.82509],[96.75808,16.82509],[96.75808,16.825]]],[[[96.80147,16.82598],[96.80237,16.82536],[96.80263,16.82455],[96.80308,16.82446],[96.80299,16.82392],[96.80362,16.82374],[96.80362,16.82293],[96.80416,16.82284],[96.80416,16.82212],[96.80371,16.82221],[96.80192,16.82536],[96.8012,16.82571],[96.8012,16.82598],[96.80147,16.82598]]],[[[96.76068,16.82455],[96.76446,16.82509],[96.76446,16.82536],[96.765,16.82536],[96.76661,16.82634],[96.76634,16.82554],[96.76589,16.82536],[96.76571,16.82455],[96.76482,16.82446],[96.76482,16.8241],[96.76535,16.82428],[96.76517,16.82374],[96.7641,16.82383],[96.76311,16.82347],[96.7632,16.8241],[96.76248,16.82437],[96.76239,16.82392],[96.76284,16.82392],[96.76275,16.82347],[96.76185,16.82356],[96.76068,16.82446],[96.76068,16.82455]]],[[[96.76517,16.82832],[96.76517,16.82787],[96.76491,16.82787],[96.76491,16.82859],[96.7658,16.82922],[96.76562,16.82841],[96.76526,16.82832],[96.76517,16.82832]]],[[[96.77146,16.82841],[96.7711,16.82841],[96.7711,16.82868],[96.77209,16.82949],[96.7738,16.83021],[96.7738,16.82994],[96.77317,16.82985],[96.77146,16.82868],[96.77146,16.82841]]],[[[96.7773,16.83272],[96.77757,16.83227],[96.77586,16.83155],[96.77586,16.832],[96.77667,16.83191],[96.77703,16.83272],[96.7773,16.83272]]],[[[96.80308,16.83272],[96.80317,16.83227],[96.80434,16.83254],[96.80434,16.83173],[96.80389,16.83173],[96.80353,16.83128],[96.80281,16.83128],[96.80281,16.83084],[96.80398,16.83101],[96.8038,16.8303],[96.80299,16.83048],[96.80281,16.82976],[96.80308,16.82949],[96.80246,16.82904],[96.80183,16.82913],[96.80183,16.82967],[96.80138,16.82967],[96.80111,16.83021],[96.80075,16.83021],[96.80066,16.82958],[96.80138,16.82949],[96.80165,16.8285],[96.80129,16.82841],[96.80111,16.82787],[96.8003,16.82796],[96.8003,16.8285],[96.80075,16.8285],[96.80075,16.82877],[96.80021,16.82877],[96.80021,16.8285],[96.79958,16.82868],[96.79976,16.82931],[96.80039,16.82931],[96.80003,16.8303],[96.80129,16.83146],[96.80129,16.83182],[96.8021,16.83173],[96.80192,16.83272],[96.8021,16.83236],[96.80263,16.83236],[96.80281,16.83272],[96.80308,16.83272]]],[[[96.77506,16.81574],[96.77515,16.81637],[96.77488,16.81637],[96.7747,16.81574],[96.77506,16.81574],[96.77506,16.81538],[96.77416,16.81467],[96.77263,16.81377],[96.772,16.81404],[96.77155,16.81314],[96.77083,16.81314],[96.77083,16.8135],[96.77047,16.81359],[96.77039,16.81242],[96.76949,16.81215],[96.76949,16.81188],[96.76886,16.81188],[96.76859,16.81125],[96.76751,16.8108],[96.76724,16.81035],[96.76553,16.80972],[96.765,16.80981],[96.76455,16.81044],[96.7641,16.81206],[96.76329,16.81332],[96.76329,16.81485],[96.76419,16.81709],[96.76607,16.81961],[96.76688,16.8197],[96.76679,16.81916],[96.76742,16.81925],[96.76778,16.81871],[96.76805,16.81871],[96.76805,16.81916],[96.7685,16.81916],[96.76832,16.81835],[96.76922,16.81808],[96.76976,16.81907],[96.76931,16.81898],[96.76922,16.81844],[96.76895,16.81844],[96.76904,16.81925],[96.76949,16.81925],[96.76958,16.81961],[96.77039,16.81961],[96.77039,16.82006],[96.77101,16.82006],[96.77101,16.82059],[96.77146,16.82059],[96.77155,16.82086],[96.77245,16.82059],[96.77182,16.81943],[96.77155,16.81943],[96.77155,16.81889],[96.77119,16.81889],[96.77074,16.81817],[96.76994,16.81826],[96.76985,16.8179],[96.76931,16.81781],[96.76913,16.81718],[96.76859,16.81745],[96.76823,16.81655],[96.76724,16.81664],[96.76724,16.81628],[96.76778,16.81628],[96.76724,16.81547],[96.76832,16.81574],[96.76832,16.81529],[96.76796,16.81529],[96.76796,16.81502],[96.76868,16.81493],[96.76931,16.81619],[96.7711,16.81646],[96.77173,16.81682],[96.77155,16.81736],[96.77191,16.81754],[96.77218,16.81664],[96.772,16.81583],[96.77227,16.81583],[96.77254,16.8161],[96.77245,16.81709],[96.77326,16.81655],[96.77299,16.81808],[96.77362,16.8179],[96.77425,16.81853],[96.77434,16.81934],[96.7747,16.81934],[96.77461,16.81988],[96.77488,16.81961],[96.77542,16.81988],[96.77524,16.82059],[96.7738,16.82068],[96.7738,16.82113],[96.77281,16.82104],[96.77272,16.82158],[96.77416,16.82158],[96.77488,16.82113],[96.77524,16.82149],[96.77506,16.82221],[96.77595,16.82221],[96.77712,16.82338],[96.77883,16.82329],[96.7791,16.82374],[96.77955,16.82374],[96.77955,16.82401],[96.77865,16.82446],[96.77865,16.82491],[96.77802,16.82518],[96.77793,16.82473],[96.77838,16.82428],[96.77703,16.82455],[96.77676,16.82374],[96.77595,16.82374],[96.77506,16.82293],[96.77245,16.82293],[96.77254,16.82347],[96.77515,16.82329],[96.77569,16.82419],[96.77604,16.82428],[96.77578,16.82509],[96.77676,16.82509],[96.77919,16.82625],[96.77901,16.82688],[96.77829,16.82706],[96.77829,16.82742],[96.77775,16.8276],[96.77595,16.82706],[96.77524,16.82751],[96.77506,16.82715],[96.77398,16.82679],[96.77398,16.82652],[96.77209,16.82589],[96.77173,16.82527],[96.76985,16.82545],[96.76985,16.82509],[96.7694,16.82509],[96.7694,16.82554],[96.76913,16.82554],[96.76859,16.82419],[96.76868,16.8232],[96.76805,16.82338],[96.76805,16.82293],[96.76769,16.82293],[96.76742,16.82221],[96.76715,16.82221],[96.76769,16.82158],[96.76778,16.82095],[96.76751,16.82122],[96.76697,16.82095],[96.76697,16.82131],[96.76661,16.82131],[96.76661,16.82077],[96.76607,16.8205],[96.76598,16.8197],[96.76517,16.81934],[96.76517,16.82015],[96.76562,16.82059],[96.76517,16.82212],[96.76526,16.82293],[96.76778,16.8267],[96.76985,16.82769],[96.77003,16.82706],[96.76985,16.8267],[96.76931,16.82679],[96.76931,16.82652],[96.77083,16.82652],[96.77146,16.8267],[96.77146,16.82697],[96.7703,16.82697],[96.77012,16.82751],[96.77182,16.82715],[96.772,16.82778],[96.77227,16.82778],[96.77254,16.82706],[96.77344,16.82679],[96.77344,16.82715],[96.77434,16.82742],[96.77443,16.82778],[96.77245,16.82805],[96.77236,16.82859],[96.77308,16.82922],[96.77389,16.82931],[96.77434,16.82913],[96.77452,16.82841],[96.77497,16.8285],[96.77461,16.8294],[96.77389,16.82958],[96.77416,16.82985],[96.77389,16.83039],[96.77667,16.83101],[96.77712,16.83137],[96.77811,16.83119],[96.77802,16.83164],[96.77856,16.83182],[96.77901,16.83254],[96.7809,16.83317],[96.78188,16.82796],[96.78296,16.82652],[96.78467,16.82311],[96.78485,16.82158],[96.78413,16.82158],[96.78323,16.82068],[96.7826,16.82122],[96.7826,16.82086],[96.78224,16.82077],[96.78251,16.82032],[96.78152,16.82059],[96.78179,16.81997],[96.78116,16.81961],[96.7809,16.81988],[96.78134,16.81997],[96.78125,16.82041],[96.77928,16.82086],[96.78009,16.82006],[96.78009,16.81916],[96.77973,16.81862],[96.77838,16.81763],[96.77856,16.81826],[96.7782,16.81844],[96.77784,16.81808],[96.7782,16.81772],[96.77811,16.81736],[96.77694,16.81655],[96.77685,16.81718],[96.77613,16.817],[96.77551,16.81619],[96.77631,16.81637],[96.77631,16.8161],[96.77551,16.81574],[96.77506,16.81574]],[[96.77425,16.81718],[96.77452,16.81835],[96.77398,16.81799],[96.77371,16.81718],[96.77425,16.81718]],[[96.77649,16.8188],[96.77658,16.81934],[96.77775,16.81889],[96.77802,16.8205],[96.77901,16.82059],[96.77901,16.82095],[96.77865,16.82104],[96.77901,16.82212],[96.77847,16.82212],[96.77829,16.82167],[96.77793,16.82203],[96.77658,16.82194],[96.77658,16.82122],[96.77694,16.82122],[96.77694,16.82077],[96.77658,16.82077],[96.77658,16.82113],[96.77604,16.82104],[96.77604,16.8205],[96.77676,16.82032],[96.77649,16.8197],[96.77613,16.8197],[96.77622,16.8188],[96.77649,16.8188]],[[96.77982,16.82473],[96.77991,16.82536],[96.77946,16.82536],[96.77946,16.82571],[96.77991,16.82571],[96.77982,16.82634],[96.77946,16.82634],[96.77946,16.8258],[96.77883,16.82571],[96.77892,16.82536],[96.77946,16.82527],[96.77946,16.82473],[96.77982,16.82473]]],[[[96.80425,16.83344],[96.80434,16.83317],[96.80515,16.83317],[96.80515,16.8329],[96.80434,16.83281],[96.80362,16.83317],[96.80362,16.83344],[96.80425,16.83344]]],[[[96.77829,16.83443],[96.77829,16.83389],[96.77883,16.83389],[96.77829,16.83326],[96.77784,16.83326],[96.77802,16.8338],[96.77757,16.83389],[96.77766,16.83443],[96.77829,16.83443]]],[[[96.80641,16.83524],[96.80677,16.83524],[96.80713,16.83425],[96.80596,16.83434],[96.80596,16.8347],[96.80641,16.83479],[96.80641,16.83524]]],[[[96.80641,16.83524],[96.80578,16.83533],[96.80542,16.83605],[96.80596,16.83631],[96.80596,16.83587],[96.8065,16.83587],[96.80641,16.8356],[96.80641,16.83524]]],[[[96.78116,16.8364],[96.7817,16.83623],[96.7817,16.83596],[96.78108,16.83488],[96.77892,16.83317],[96.77892,16.8338],[96.77937,16.83389],[96.77955,16.83461],[96.78054,16.83479],[96.7809,16.8364],[96.78116,16.8364]]],[[[96.80641,16.8373],[96.80767,16.83712],[96.80767,16.83685],[96.80614,16.83658],[96.80605,16.8373],[96.80641,16.8373]]],[[[96.75475,16.83739],[96.75475,16.83685],[96.75529,16.83685],[96.7552,16.83631],[96.7544,16.8364],[96.75448,16.83739],[96.75475,16.83739]]],[[[96.78224,16.83874],[96.78251,16.83811],[96.78108,16.83802],[96.78108,16.83838],[96.78072,16.83838],[96.78072,16.83874],[96.78116,16.83874],[96.78116,16.83838],[96.78197,16.83874],[96.78224,16.83874]]],[[[96.78772,16.83919],[96.78763,16.8382],[96.78736,16.8382],[96.78745,16.83883],[96.78673,16.83874],[96.78673,16.83901],[96.78736,16.83919],[96.78772,16.83919]]],[[[96.78584,16.83928],[96.78584,16.83892],[96.78647,16.83892],[96.78647,16.83865],[96.78548,16.83829],[96.78575,16.83856],[96.78548,16.83955],[96.78664,16.83964],[96.78664,16.83937],[96.7862,16.83928],[96.78584,16.83928]]],[[[96.78503,16.83955],[96.78503,16.83784],[96.78467,16.83793],[96.78485,16.83856],[96.78449,16.83856],[96.78458,16.8391],[96.78431,16.83919],[96.78359,16.83892],[96.78341,16.83847],[96.78278,16.83838],[96.78251,16.83865],[96.78269,16.83919],[96.78422,16.83946],[96.78476,16.83991],[96.78521,16.83991],[96.78521,16.83955],[96.78503,16.83955]]],[[[96.80767,16.84215],[96.8091,16.84063],[96.81153,16.8391],[96.81153,16.83874],[96.81818,16.83533],[96.82015,16.8329],[96.82123,16.82922],[96.82159,16.82904],[96.82213,16.82652],[96.82123,16.82248],[96.81952,16.81952],[96.81889,16.81934],[96.81862,16.81961],[96.81827,16.81889],[96.81862,16.81853],[96.81845,16.81754],[96.81611,16.81529],[96.81503,16.8152],[96.81476,16.81556],[96.81485,16.81628],[96.81431,16.81682],[96.8144,16.81493],[96.81198,16.81476],[96.81045,16.81511],[96.80623,16.81862],[96.80551,16.81979],[96.80551,16.82032],[96.80587,16.82041],[96.8074,16.8188],[96.80883,16.81817],[96.80928,16.81745],[96.80964,16.81745],[96.80937,16.81691],[96.8109,16.81682],[96.81207,16.81601],[96.81314,16.81628],[96.81359,16.817],[96.8135,16.81754],[96.81494,16.8179],[96.81638,16.81934],[96.81674,16.82059],[96.81719,16.82059],[96.81728,16.82131],[96.81773,16.8214],[96.81773,16.82212],[96.81827,16.82302],[96.81818,16.82365],[96.81907,16.82419],[96.81925,16.82545],[96.81988,16.82571],[96.81988,16.82616],[96.82033,16.82643],[96.82069,16.82796],[96.82006,16.82967],[96.82024,16.83057],[96.81961,16.83164],[96.81898,16.83182],[96.81907,16.83272],[96.81871,16.83398],[96.81764,16.83524],[96.81692,16.83506],[96.81701,16.8356],[96.81323,16.83685],[96.81198,16.83793],[96.81099,16.83811],[96.81018,16.83883],[96.80991,16.83883],[96.80982,16.8382],[96.80946,16.8382],[96.80946,16.83937],[96.80847,16.83919],[96.80865,16.83847],[96.80793,16.83847],[96.80793,16.83892],[96.80722,16.83856],[96.8074,16.83937],[96.80838,16.83937],[96.80749,16.84027],[96.80731,16.84108],[96.80677,16.84081],[96.80668,16.84018],[96.80632,16.83991],[96.8065,16.83937],[96.80605,16.83937],[96.80605,16.83883],[96.80569,16.83856],[96.80587,16.83775],[96.80533,16.83784],[96.80488,16.83739],[96.80506,16.83883],[96.80623,16.84036],[96.80641,16.84135],[96.80731,16.84215],[96.80767,16.84215]]],[[[96.78889,16.84341],[96.78889,16.84314],[96.78934,16.84314],[96.78925,16.84278],[96.78853,16.84269],[96.78853,16.84233],[96.78898,16.84233],[96.78898,16.84197],[96.78853,16.84197],[96.78889,16.84126],[96.78817,16.84117],[96.78781,16.84323],[96.78817,16.84323],[96.78817,16.84269],[96.78844,16.84269],[96.78844,16.84341],[96.78889,16.84341]]],[[[96.75817,16.84467],[96.75862,16.84341],[96.75826,16.84323],[96.75835,16.84269],[96.75754,16.8426],[96.75817,16.84323],[96.7579,16.8435],[96.75817,16.84413],[96.7579,16.84413],[96.75781,16.84467],[96.75817,16.84467]]],[[[96.79168,16.84485],[96.79177,16.84413],[96.79132,16.8435],[96.79087,16.84341],[96.79105,16.84476],[96.79141,16.84485],[96.79168,16.84485]]],[[[96.79105,16.84835],[96.79141,16.8479],[96.79105,16.84781],[96.7906,16.84683],[96.79105,16.84611],[96.79078,16.84584],[96.79087,16.84503],[96.79006,16.84368],[96.79015,16.84305],[96.79051,16.84305],[96.79015,16.84251],[96.79015,16.84296],[96.78961,16.84287],[96.7897,16.84404],[96.78916,16.84395],[96.78916,16.8435],[96.78871,16.8435],[96.78844,16.84431],[96.78907,16.84422],[96.78961,16.84503],[96.78934,16.84593],[96.7897,16.84593],[96.7897,16.84548],[96.79006,16.84557],[96.78979,16.84584],[96.78979,16.84665],[96.79015,16.84683],[96.78988,16.84817],[96.79078,16.84835],[96.79105,16.84835]]],[[[96.79096,16.85096],[96.79123,16.85006],[96.79177,16.85006],[96.79159,16.84943],[96.79087,16.84943],[96.79087,16.84979],[96.79051,16.84979],[96.79042,16.85078],[96.79069,16.85096],[96.79096,16.85096]]],[[[96.79194,16.85419],[96.79203,16.85383],[96.79293,16.85383],[96.79392,16.85239],[96.7959,16.85132],[96.79617,16.85087],[96.79464,16.84817],[96.79437,16.84817],[96.79347,16.84683],[96.79302,16.84683],[96.7932,16.84772],[96.79284,16.84871],[96.7923,16.84844],[96.7923,16.84898],[96.79266,16.84907],[96.79212,16.85114],[96.79248,16.85266],[96.79114,16.85311],[96.79132,16.85383],[96.79105,16.8541],[96.79185,16.85419],[96.79194,16.85419]]],[[[96.78638,16.86165],[96.78664,16.86021],[96.787,16.86021],[96.787,16.85985],[96.78844,16.86012],[96.78844,16.85985],[96.78799,16.85985],[96.78808,16.85886],[96.78853,16.85886],[96.78898,16.85796],[96.78997,16.8576],[96.78997,16.85698],[96.79033,16.85689],[96.79015,16.85626],[96.78853,16.85769],[96.78799,16.8576],[96.78754,16.85877],[96.7862,16.85868],[96.78629,16.85922],[96.78691,16.85895],[96.78664,16.85958],[96.78611,16.85958],[96.7862,16.86066],[96.78584,16.86093],[96.78611,16.8612],[96.78593,16.86192],[96.78647,16.86192],[96.78647,16.86165],[96.78638,16.86165]]],[[[96.78575,16.86344],[96.78602,16.86326],[96.78593,16.86264],[96.78557,16.86264],[96.78557,16.86299],[96.78503,16.86291],[96.78503,16.86344],[96.78575,16.86344]]],[[[96.78305,16.8656],[96.78368,16.86533],[96.78386,16.86461],[96.7817,16.86461],[96.7817,16.86524],[96.78278,16.86524],[96.78278,16.8656],[96.78305,16.8656]]],[[[96.77892,16.86668],[96.77928,16.86542],[96.77883,16.86542],[96.77883,16.86605],[96.7782,16.86614],[96.77838,16.86668],[96.77892,16.86668]]],[[[96.78404,16.86829],[96.78395,16.86758],[96.78467,16.86704],[96.78512,16.86596],[96.78539,16.86398],[96.78503,16.86398],[96.7844,16.86659],[96.78368,16.86677],[96.78368,16.86722],[96.78296,16.86749],[96.78296,16.86776],[96.78368,16.86776],[96.7835,16.86829],[96.78404,16.86829]]],[[[96.77919,16.86847],[96.77919,16.86821],[96.78036,16.86812],[96.78036,16.86767],[96.77955,16.86758],[96.78018,16.86596],[96.77991,16.86596],[96.77973,16.8665],[96.77928,16.8665],[96.77928,16.86722],[96.77874,16.86803],[96.77847,16.86803],[96.77793,16.86695],[96.77739,16.86749],[96.77739,16.86776],[96.7782,16.86794],[96.7782,16.86829],[96.77892,16.86847],[96.77919,16.86847]]],[[[96.77344,16.86919],[96.77344,16.86847],[96.77281,16.86829],[96.77263,16.86919],[96.77299,16.86946],[96.77353,16.86946],[96.77353,16.86919],[96.77344,16.86919]]],[[[96.7703,16.86991],[96.7703,16.86946],[96.76949,16.86964],[96.76913,16.8691],[96.7685,16.8691],[96.76841,16.86991],[96.76904,16.86991],[96.7703,16.86991]]],[[[96.77335,16.87099],[96.77371,16.8709],[96.77371,16.87036],[96.77227,16.87009],[96.77236,16.87081],[96.77272,16.87099],[96.77335,16.87099]]],[[[96.76491,16.87171],[96.76562,16.87144],[96.76535,16.87108],[96.76571,16.87108],[96.76571,16.87045],[96.76526,16.87045],[96.76509,16.87135],[96.76446,16.87144],[96.76455,16.87171],[96.76491,16.87171]]],[[[96.77488,16.87081],[96.77389,16.87081],[96.77479,16.87189],[96.77515,16.87189],[96.77488,16.87108],[96.77488,16.87081]]],[[[96.77739,16.87279],[96.77748,16.87135],[96.77595,16.87135],[96.77604,16.87198],[96.77685,16.87198],[96.77712,16.87279],[96.77739,16.87279]]],[[[96.77245,16.87351],[96.77236,16.87288],[96.77137,16.87216],[96.77137,16.87189],[96.77209,16.87171],[96.77209,16.87135],[96.77119,16.87135],[96.7711,16.87045],[96.77039,16.87],[96.77039,16.87171],[96.77083,16.8718],[96.77092,16.87252],[96.77146,16.87297],[96.77137,16.87395],[96.77281,16.8744],[96.77263,16.87351],[96.77245,16.87351]]],[[[96.76509,16.87449],[96.76571,16.87431],[96.76544,16.87324],[96.76526,16.87386],[96.76437,16.87359],[96.76491,16.87449],[96.76509,16.87449]]],[[[96.77074,16.87458],[96.77083,16.87359],[96.77012,16.87288],[96.76994,16.87395],[96.7703,16.87395],[96.77047,16.87458],[96.77074,16.87458]]],[[[96.77003,16.87467],[96.77003,16.87404],[96.76949,16.87413],[96.76877,16.87377],[96.76868,16.87243],[96.76787,16.87207],[96.76823,16.87377],[96.76859,16.87333],[96.76868,16.87413],[96.76967,16.87467],[96.77003,16.87467]]],[[[96.77569,16.87485],[96.77569,16.87422],[96.77604,16.87386],[96.77595,16.87315],[96.77407,16.87279],[96.77407,16.87324],[96.7738,16.87324],[96.77371,16.87261],[96.77326,16.87261],[96.77326,16.87413],[96.7729,16.87422],[96.7729,16.87458],[96.77443,16.87485],[96.77524,16.87431],[96.77524,16.87485],[96.77569,16.87485]]],[[[96.76131,16.8753],[96.76329,16.87512],[96.76338,16.87422],[96.76302,16.87297],[96.76329,16.87243],[96.76023,16.87279],[96.76086,16.8753],[96.76131,16.8753]]],[[[96.76482,16.87692],[96.7658,16.87647],[96.76553,16.87584],[96.76446,16.87638],[96.76455,16.87692],[96.76482,16.87692]],[[96.80012,16.83407],[96.80039,16.83281],[96.80129,16.83299],[96.80039,16.83407],[96.80012,16.83407]]],[[[96.76778,16.88042],[96.76832,16.87952],[96.76697,16.87943],[96.76697,16.87988],[96.76733,16.87988],[96.76751,16.88042],[96.76778,16.88042]]],[[[96.76535,16.88159],[96.76544,16.88087],[96.76401,16.88078],[96.76419,16.88186],[96.76455,16.88159],[96.76544,16.88186],[96.76544,16.88159],[96.76535,16.88159]]],[[[96.76311,16.88222],[96.76311,16.88186],[96.76356,16.88186],[96.76347,16.88114],[96.76275,16.88186],[96.76293,16.88258],[96.7632,16.88258],[96.7632,16.88222],[96.76311,16.88222]]],[[[96.75943,16.88267],[96.76158,16.88204],[96.76167,16.8806],[96.76059,16.88051],[96.76059,16.87952],[96.76014,16.87961],[96.76014,16.88105],[96.76068,16.88096],[96.76077,16.88159],[96.75996,16.88177],[96.75916,16.8815],[96.7588,16.88186],[96.75916,16.88267],[96.75943,16.88267]]],[[[96.7809,16.88393],[96.78099,16.88348],[96.78161,16.88357],[96.78152,16.88267],[96.78063,16.88276],[96.78063,16.88393],[96.7809,16.88393]]]]}}],"bbox":[96.6369,16.55918,96.82213,16.88393]}
