{"type":"FeatureCollection","features":[{"type":"Feature","properties":{"SensorDate":"2024-09-23","EventCode":"FL20240912NGA","Sensor_ID":"Sentinel-1"},"geometry":{"type":"MultiPolygon","coordinates":[[[[95.87979,19.93609],[95.88936,19.92581],[95.88974,19.92068],[95.89971,19.9233],[95.90474,19.91692],[95.90359,19.91198],[95.90356,19.90355],[95.90725,19.89746],[95.91004,19.89546],[95.90903,19.89108],[95.91005,19.88794],[95.90987,19.88368],[95.91184,19.88138],[95.91879,19.87898],[95.92015,19.8762],[95.9208,19.86884],[95.92469,19.86629],[95.92615,19.86239],[95.92871,19.8592],[95.93259,19.85789],[95.94061,19.85861],[95.94438,19.85762],[95.94361,19.85394],[95.94734,19.84889],[95.95166,19.84862],[95.95601,19.84517],[95.95706,19.84255],[95.95682,19.8368],[95.96159,19.83088],[95.96192,19.82744],[95.96412,19.82693],[95.97501,19.81743],[95.98321,19.81245],[95.9964,19.8022],[95.99699,19.79994],[95.99743,19.77724],[95.99702,19.70271],[96.00082,19.70023],[96.01114,19.69047],[96.01318,19.68651],[96.01676,19.68466],[96.01827,19.68121],[96.01751,19.6714],[96.02046,19.66676],[96.02238,19.66551],[96.02677,19.66621],[96.02855,19.66516],[96.03173,19.65792],[96.03457,19.65714],[96.03871,19.65324],[96.04161,19.6536],[96.04835,19.65798],[96.05083,19.65486],[96.05458,19.65517],[96.05612,19.65752],[96.06504,19.65591],[96.066,19.6544],[96.07276,19.64992],[96.0744,19.6497],[96.07683,19.65199],[96.07921,19.65227],[96.08038,19.64881],[96.08033,19.6442],[96.08219,19.6383],[96.09721,19.63369],[96.09709,19.63466],[96.10004,19.63457],[96.09978,19.63664],[96.10164,19.63752],[96.10128,19.64047],[96.10245,19.64057],[96.10205,19.64392],[96.10398,19.64361],[96.10567,19.64564],[96.11036,19.64571],[96.11133,19.64728],[96.11386,19.64728],[96.11367,19.65118],[96.11459,19.65131],[96.11496,19.65302],[96.11896,19.65215],[96.12305,19.66246],[96.13216,19.6564],[96.14518,19.66907],[96.14785,19.66911],[96.15548,19.67229],[96.15659,19.6692],[96.16627,19.6712],[96.16777,19.67456],[96.17196,19.67475],[96.17367,19.67835],[96.18672,19.68003],[96.19249,19.67313],[96.19928,19.67007],[96.20729,19.67136],[96.21151,19.67523],[96.21536,19.67304],[96.23072,19.6772],[96.24214,19.67647],[96.248,19.67413],[96.25044,19.6719],[96.26335,19.67077],[96.27304,19.66403],[96.27807,19.64103],[96.28547,19.6436],[96.28792,19.64699],[96.28816,19.64995],[96.28425,19.654],[96.28406,19.65716],[96.28579,19.6598],[96.28844,19.65772],[96.29195,19.65316],[96.29494,19.65074],[96.29849,19.6492],[96.31525,19.6553],[96.32212,19.65296],[96.33659,19.65416],[96.33938,19.6523],[96.34093,19.64947],[96.34483,19.64594],[96.34635,19.6413],[96.3512,19.63922],[96.35388,19.63604],[96.36128,19.63217],[96.3733,19.61831],[96.37761,19.61533],[96.38692,19.61131],[96.38794,19.60767],[96.39045,19.60462],[96.39364,19.59633],[96.39631,19.59296],[96.39781,19.5894],[96.39934,19.58955],[96.40072,19.59102],[96.40728,19.59377],[96.41278,19.59226],[96.42254,19.58323],[96.42867,19.58006],[96.43168,19.57693],[96.43926,19.57241],[96.44429,19.56667],[96.47506,19.55951],[96.48131,19.55169],[96.48522,19.54271],[96.47975,19.53724],[96.46451,19.53372],[96.45043,19.53441],[96.44811,19.53045],[96.44852,19.52819],[96.45436,19.52005],[96.47078,19.51103],[96.47604,19.50994],[96.48385,19.50218],[96.48787,19.49727],[96.48787,19.48296],[96.48314,19.48044],[96.47044,19.47648],[96.46559,19.47693],[96.46477,19.47814],[96.45294,19.47798],[96.45085,19.47965],[96.44551,19.48183],[96.44148,19.47786],[96.43914,19.47669],[96.43583,19.47694],[96.43343,19.47882],[96.42974,19.4794],[96.39695,19.4792],[96.39161,19.47386],[96.39753,19.4671],[96.4016,19.45927],[96.41215,19.45418],[96.41434,19.44988],[96.41836,19.44519],[96.42777,19.44234],[96.4342,19.44435],[96.44023,19.44469],[96.44027,19.44228],[96.43826,19.43938],[96.43468,19.43759],[96.43155,19.4329],[96.42865,19.42575],[96.42261,19.42217],[96.41613,19.42373],[96.41656,19.41529],[96.40786,19.41122],[96.40987,19.40608],[96.41792,19.39311],[96.42487,19.3823],[96.42754,19.37964],[96.43891,19.37794],[96.44063,19.37473],[96.44593,19.37352],[96.453,19.36303],[96.45664,19.36491],[96.45748,19.36339],[96.45725,19.35892],[96.44921,19.35422],[96.45003,19.35086],[96.45301,19.35065],[96.46105,19.35311],[96.4615,19.34931],[96.45917,19.34128],[96.45502,19.33679],[96.45711,19.33645],[96.45807,19.33449],[96.45901,19.33449],[96.46316,19.33899],[96.4653,19.33567],[96.46463,19.3283],[96.46284,19.32003],[96.46038,19.31466],[96.45658,19.31176],[96.45191,19.30282],[96.46105,19.30282],[96.46821,19.29611],[96.47066,19.28919],[96.47066,19.28181],[96.47424,19.27488],[96.47745,19.27268],[96.47885,19.26997],[96.4793,19.26819],[96.47558,19.26415],[96.4805,19.25924],[96.48027,19.25477],[96.4843,19.2503],[96.49264,19.22081],[96.49504,19.21489],[96.49469,19.20989],[96.4966,19.20686],[96.50153,19.206],[96.50438,19.20424],[96.50442,19.19727],[96.50575,19.19442],[96.51616,19.19592],[96.52186,19.19346],[96.53421,19.18516],[96.54389,19.18147],[96.54788,19.17775],[96.55435,19.17351],[96.55284,19.17207],[96.54282,19.16896],[96.53904,19.16697],[96.53527,19.16355],[96.53057,19.15745],[96.52526,19.15759],[96.5077,19.14781],[96.50354,19.14689],[96.4925,19.14682],[96.4919,19.1449],[96.49402,19.13213],[96.49536,19.13045],[96.51317,19.13297],[96.51315,19.12739],[96.51686,19.11231],[96.51031,19.1029],[96.51031,19.09013],[96.51888,19.08459],[96.52795,19.07602],[96.5298,19.07266],[96.54014,19.06409],[96.54223,19.05804],[96.54727,19.05603],[96.55186,19.0531],[96.55366,19.05025],[96.5722,19.03787],[96.56623,19.03489],[96.55996,19.02354],[96.57041,19.01756],[96.5716,19.00681],[96.57131,19.00323],[96.5734,18.99307],[96.56868,18.98836],[96.56474,18.98202],[96.56474,18.97844],[96.5719,18.97844],[96.57513,18.97978],[96.57937,18.97963],[96.58206,18.97724],[96.58361,18.97329],[96.58283,18.96712],[96.58743,18.965],[96.58685,18.96136],[96.59152,18.95978],[96.59072,18.95783],[96.58445,18.95275],[96.58385,18.94618],[96.58266,18.9426],[96.58415,18.93722],[96.58893,18.93752],[96.59281,18.93901],[96.59639,18.94797],[96.59968,18.95156],[96.60177,18.94947],[96.60265,18.94623],[96.6055,18.94485],[96.60816,18.93865],[96.61133,18.94349],[96.61163,18.94678],[96.61282,18.94767],[96.61437,18.94446],[96.61492,18.94583],[96.61637,18.94583],[96.61799,18.94427],[96.6185,18.93513],[96.62258,18.93257],[96.62626,18.93867],[96.62268,18.94499],[96.63042,18.94474],[96.63582,18.94976],[96.6409,18.94857],[96.64125,18.94605],[96.64382,18.94502],[96.65476,18.94345],[96.65671,18.94244],[96.65762,18.94051],[96.66867,18.93304],[96.67166,18.92677],[96.67456,18.92449],[96.67429,18.91494],[96.67015,18.91346],[96.66748,18.91482],[96.66389,18.91482],[96.66327,18.90983],[96.66058,18.90831],[96.65907,18.91151],[96.66007,18.91369],[96.65902,18.91404],[96.65762,18.91721],[96.65464,18.91631],[96.65331,18.91455],[96.64774,18.91455],[96.64538,18.91691],[96.64239,18.91542],[96.64119,18.91273],[96.64857,18.90974],[96.64983,18.90579],[96.6391,18.90496],[96.63706,18.8942],[96.63454,18.89639],[96.63433,18.90198],[96.62586,18.90751],[96.62536,18.91075],[96.62775,18.91303],[96.62566,18.91601],[96.62238,18.91661],[96.62039,18.91403],[96.61634,18.91526],[96.61596,18.91183],[96.61222,18.91183],[96.60685,18.89839],[96.60326,18.89541],[96.6032,18.88212],[96.59851,18.87743],[96.595,18.86962],[96.60476,18.86064],[96.6032,18.85282],[96.61062,18.84071],[96.62898,18.83095],[96.62976,18.82626],[96.6243,18.81493],[96.62508,18.81102],[96.6407,18.80868],[96.65125,18.80556],[96.65477,18.79735],[96.63562,18.79188],[96.62664,18.79071],[96.61258,18.78954],[96.59656,18.78954],[96.57895,18.7937],[96.57351,18.79032],[96.57312,18.78485],[96.57742,18.76961],[96.58018,18.75283],[96.5833,18.74852],[96.58399,18.74423],[96.58559,18.74182],[96.5848,18.73478],[96.58769,18.73476],[96.58967,18.73286],[96.59234,18.72822],[96.59561,18.72601],[96.59572,18.71913],[96.59969,18.71204],[96.60328,18.70944],[96.60998,18.70907],[96.61085,18.70563],[96.61362,18.70652],[96.61508,18.70359],[96.62121,18.70059],[96.62678,18.69451],[96.63142,18.67837],[96.63928,18.66941],[96.64373,18.66305],[96.64497,18.65684],[96.64797,18.65295],[96.64958,18.6469],[96.65263,18.64551],[96.65402,18.6469],[96.65644,18.6467],[96.65846,18.64993],[96.66485,18.64732],[96.66646,18.64525],[96.67125,18.63598],[96.66984,18.62157],[96.67371,18.61735],[96.67828,18.60961],[96.68039,18.60786],[96.67969,18.60258],[96.68736,18.59912],[96.68992,18.60151],[96.69459,18.59857],[96.69586,18.59874],[96.69606,18.59994],[96.69933,18.60147],[96.70349,18.60162],[96.70516,18.6059],[96.7054,18.6114],[96.70651,18.61414],[96.71144,18.61789],[96.71163,18.61961],[96.71857,18.62575],[96.72275,18.62728],[96.72386,18.62951],[96.7284,18.63103],[96.73536,18.63048],[96.74692,18.62767],[96.75196,18.6249],[96.75988,18.62039],[96.76434,18.61402],[96.76927,18.60936],[96.78058,18.60153],[96.78726,18.60575],[96.79359,18.60575],[96.79682,18.60727],[96.80364,18.60654],[96.80974,18.60188],[96.81054,18.59919],[96.81533,18.599],[96.81691,18.60367],[96.8205,18.60761],[96.82692,18.6089],[96.8324,18.61437],[96.84447,18.61482],[96.85264,18.62247],[96.85372,18.6285],[96.86191,18.63583],[96.86872,18.63356],[96.87885,18.63491],[96.885,18.63453],[96.89508,18.64208],[96.89984,18.63929],[96.90243,18.64006],[96.90413,18.64358],[96.91124,18.65134],[96.91576,18.64815],[96.91745,18.64897],[96.93701,18.6499],[96.94778,18.64109],[96.94265,18.63774],[96.94055,18.63106],[96.94371,18.62368],[96.94793,18.6177],[96.95566,18.61172],[96.95672,18.60821],[96.97282,18.6013],[96.97275,18.59391],[96.97448,18.59176],[96.97436,18.58667],[96.97652,18.5845],[96.97298,18.57683],[96.97393,18.57172],[96.96806,18.56876],[96.96648,18.55793],[96.96983,18.55478],[96.97318,18.55321],[96.97686,18.5563],[96.97743,18.55491],[96.98045,18.55882],[96.98294,18.55205],[96.97692,18.53746],[96.97869,18.53411],[96.97987,18.5284],[96.97908,18.52073],[96.97948,18.51364],[96.97593,18.50754],[96.97731,18.50045],[96.97554,18.49671],[96.97121,18.49435],[96.96865,18.49179],[96.97121,18.48785],[96.97475,18.4853],[96.97554,18.47309],[96.97495,18.46758],[96.97357,18.46443],[96.96983,18.46089],[96.97042,18.45085],[96.96373,18.4473],[96.96019,18.43766],[96.95605,18.43057],[96.96038,18.43068],[96.96036,18.4293],[96.96271,18.42895],[96.9653,18.42506],[96.96589,18.42073],[96.96491,18.4166],[96.96629,18.41168],[96.97175,18.40967],[96.97496,18.40954],[96.98184,18.40616],[96.98341,18.40124],[96.98361,18.39731],[96.98794,18.39514],[96.98873,18.3912],[96.98459,18.38845],[96.98459,18.38628],[96.98656,18.38038],[96.98617,18.37605],[96.98971,18.37644],[96.99603,18.37452],[96.99719,18.37624],[97.00035,18.37406],[97.00356,18.3734],[97.00824,18.36981],[97.01235,18.3731],[97.01766,18.37447],[97.02224,18.36907],[97.03302,18.37428],[97.03341,18.37014],[97.03182,18.36661],[97.03682,18.36921],[97.03538,18.35735],[97.03833,18.35026],[97.04365,18.3477],[97.0466,18.34534],[97.05888,18.3461],[97.06268,18.34126],[97.06241,18.33914],[97.05176,18.33586],[97.04793,18.33368],[97.0452,18.32985],[97.04411,18.32466],[97.04766,18.31974],[97.04711,18.31565],[97.04821,18.30636],[97.05203,18.30363],[97.05531,18.29243],[97.06056,18.29453],[97.06868,18.29605],[97.07134,18.2925],[97.07582,18.29304],[97.07683,18.29129],[97.08303,18.3055],[97.08478,18.3209],[97.08757,18.3272],[97.09453,18.32487],[97.10122,18.33175],[97.10676,18.32916],[97.10746,18.33014],[97.1094,18.32685],[97.10995,18.32084],[97.11787,18.30909],[97.12033,18.29598],[97.12497,18.2886],[97.12934,18.28396],[97.13344,18.27603],[97.13371,18.27112],[97.1288,18.26511],[97.13098,18.25964],[97.13289,18.25636],[97.14007,18.25029],[97.14082,18.24298],[97.13727,18.23697],[97.13699,18.2315],[97.12962,18.22659],[97.12688,18.22085],[97.12453,18.21001],[97.12754,18.21123],[97.12809,18.2123],[97.13323,18.20777],[97.13159,18.20033],[97.13524,18.19602],[97.14221,18.19459],[97.14522,18.19216],[97.14731,18.19227],[97.15065,18.18479],[97.15639,18.18178],[97.16103,18.17632],[97.1695,18.17413],[97.1736,18.17413],[97.19354,18.15556],[97.19054,18.14599],[97.19573,18.13288],[97.19253,18.12123],[97.18137,18.12072],[97.1783,18.1175],[97.17742,18.11294],[97.1777,18.10638],[97.17387,18.09354],[97.17278,18.07387],[97.16896,18.06841],[97.16267,18.06185],[97.16076,18.05611],[97.1654,18.04737],[97.16458,18.04464],[97.1512,18.04054],[97.14164,18.02743],[97.14382,18.01814],[97.14027,18.01049],[97.13399,18.00667],[97.12716,18.00093],[97.12333,17.99273],[97.1176,17.98973],[97.11568,17.95995],[97.11623,17.94711],[97.12251,17.93127],[97.14273,17.9178],[97.14017,17.90606],[97.14595,17.89819],[97.14884,17.88926],[97.15408,17.8785],[97.1629,17.87392],[97.16537,17.85934],[97.16458,17.84648],[97.16091,17.84255],[97.15881,17.8352],[97.1639,17.83516],[97.17767,17.83772],[97.18477,17.83262],[97.19479,17.80623],[97.19243,17.79973],[97.19282,17.78674],[97.19007,17.78084],[97.18259,17.77375],[97.18022,17.76903],[97.18219,17.76115],[97.17885,17.75741],[97.16625,17.75682],[97.1692,17.74639],[97.16428,17.74422],[97.16034,17.74403],[97.15562,17.73615],[97.15582,17.72493],[97.16625,17.71686],[97.16802,17.70899],[97.16093,17.70623],[97.17609,17.68419],[97.17845,17.67828],[97.17097,17.66549],[97.18416,17.65486],[97.19177,17.64446],[97.19065,17.6417],[97.1944,17.6336],[97.20503,17.62632],[97.20129,17.62435],[97.20227,17.62021],[97.19951,17.60821],[97.2003,17.60545],[97.20196,17.60574],[97.20463,17.60377],[97.20325,17.60171],[97.20385,17.59817],[97.19853,17.59541],[97.19991,17.59187],[97.20168,17.5899],[97.20247,17.57868],[97.19971,17.57022],[97.19715,17.571],[97.19558,17.56667],[97.19656,17.56136],[97.19341,17.55722],[97.19723,17.5574],[97.19721,17.55647],[97.20002,17.55605],[97.20373,17.55359],[97.20561,17.55386],[97.20699,17.54896],[97.21231,17.55427],[97.2162,17.55082],[97.21699,17.54922],[97.21845,17.54836],[97.22182,17.54826],[97.22137,17.54548],[97.21889,17.54323],[97.21912,17.54183],[97.22497,17.53798],[97.22981,17.5438],[97.23506,17.54459],[97.23873,17.5438],[97.24004,17.55142],[97.239,17.5564],[97.23558,17.56296],[97.23585,17.5711],[97.23453,17.5774],[97.23532,17.5795],[97.24346,17.57792],[97.25133,17.57766],[97.2571,17.58685],[97.26078,17.59971],[97.2629,17.59831],[97.26627,17.59875],[97.26874,17.59789],[97.2748,17.60689],[97.27659,17.607],[97.27861,17.60529],[97.28096,17.60122],[97.28634,17.59598],[97.29477,17.59749],[97.30453,17.5944],[97.31025,17.59045],[97.31215,17.5852],[97.31362,17.58392],[97.31574,17.58392],[97.31777,17.58821],[97.31632,17.60095],[97.31924,17.60738],[97.33002,17.61488],[97.3308,17.61649],[97.32924,17.62259],[97.32969,17.63191],[97.33262,17.63855],[97.33576,17.64894],[97.33801,17.65141],[97.3426,17.65248],[97.34369,17.66625],[97.34231,17.67775],[97.34668,17.67867],[97.3499,17.67775],[97.35742,17.67295],[97.36093,17.67522],[97.36461,17.67545],[97.36392,17.70419],[97.36852,17.71385],[97.37596,17.71409],[97.38136,17.71195],[97.38956,17.7049],[97.39248,17.69976],[97.3944,17.69837],[97.39709,17.69784],[97.39803,17.7015],[97.39286,17.7104],[97.39516,17.71586],[97.40099,17.71776],[97.40278,17.71615],[97.40805,17.7017],[97.41059,17.7002],[97.41325,17.68719],[97.4152,17.6831],[97.41882,17.68158],[97.42002,17.67969],[97.43287,17.6752],[97.4336,17.67447],[97.43243,17.67298],[97.43226,17.66942],[97.43314,17.66676],[97.43851,17.66394],[97.45857,17.65771],[97.46044,17.65603],[97.45778,17.65266],[97.44859,17.64836],[97.44801,17.64548],[97.46185,17.63418],[97.46263,17.62918],[97.46066,17.6253],[97.46774,17.62242],[97.47023,17.6168],[97.47757,17.60954],[97.49239,17.60168],[97.49646,17.59793],[97.49777,17.5953],[97.49869,17.59167],[97.49611,17.58708],[97.48517,17.57802],[97.48451,17.57476],[97.479,17.57063],[97.47919,17.56992],[97.47408,17.56268],[97.47716,17.55986],[97.47755,17.55786],[97.4824,17.55073],[97.48752,17.54811],[97.48844,17.54636],[97.49211,17.54536],[97.5005,17.53999],[97.50234,17.53536],[97.50168,17.53223],[97.5001,17.53223],[97.49422,17.52716],[97.48806,17.52431],[97.48593,17.51934],[97.48711,17.51626],[97.48908,17.51682],[97.49688,17.51125],[97.49872,17.50205],[97.5014,17.49782],[97.50127,17.49581],[97.50232,17.49381],[97.50363,17.49369],[97.50573,17.49507],[97.50796,17.49845],[97.51006,17.4992],[97.5119,17.4987],[97.51334,17.49708],[97.51334,17.4952],[97.50966,17.48869],[97.51005,17.48681],[97.51294,17.48506],[97.51176,17.48131],[97.50939,17.47868],[97.50388,17.47604],[97.50427,17.46716],[97.51445,17.46627],[97.5218,17.46029],[97.52663,17.4596],[97.52732,17.45569],[97.5263,17.45366],[97.52814,17.45204],[97.5284,17.44929],[97.5267,17.44741],[97.52643,17.44516],[97.53054,17.44788],[97.53215,17.44489],[97.53168,17.43828],[97.53308,17.43269],[97.54181,17.43845],[97.54755,17.44029],[97.5487,17.44558],[97.55054,17.44903],[97.55778,17.4512],[97.56342,17.45225],[97.57101,17.44926],[97.57537,17.45294],[97.58319,17.44811],[97.59101,17.4465],[97.59227,17.43885],[97.60132,17.42222],[97.60446,17.41459],[97.60538,17.40908],[97.60879,17.40358],[97.60918,17.40045],[97.61259,17.3957],[97.61521,17.38544],[97.62006,17.38194],[97.6257,17.37569],[97.62779,17.37256],[97.62851,17.36806],[97.63212,17.36431],[97.63185,17.35955],[97.63395,17.3558],[97.63867,17.3508],[97.64103,17.34179],[97.63906,17.33403],[97.63919,17.33128],[97.64312,17.32803],[97.6481,17.32903],[97.65257,17.3328],[97.66088,17.34559],[97.66226,17.3534],[97.66686,17.36375],[97.67284,17.38697],[97.67629,17.39019],[97.69192,17.39433],[97.71077,17.39111],[97.72549,17.38996],[97.73331,17.39157],[97.75055,17.3987],[97.75975,17.40675],[97.76122,17.41301],[97.75497,17.4284],[97.75497,17.44393],[97.75663,17.46169],[97.76468,17.47723],[97.76607,17.48139],[97.76659,17.48911],[97.76355,17.4954],[97.75596,17.50376],[97.74997,17.50525],[97.74803,17.50886],[97.75081,17.51469],[97.75025,17.52134],[97.74808,17.52766],[97.74256,17.53435],[97.73912,17.54191],[97.73558,17.55294],[97.72601,17.56605],[97.72033,17.57987],[97.71456,17.59081],[97.71661,17.59923],[97.71341,17.60931],[97.70965,17.62824],[97.70862,17.63777],[97.70901,17.64556],[97.70823,17.64927],[97.70305,17.65484],[97.70059,17.66201],[97.70098,17.66548],[97.70422,17.67006],[97.705,17.67352],[97.70501,17.68256],[97.70592,17.69035],[97.70735,17.69382],[97.70553,17.69976],[97.70126,17.7078],[97.68986,17.73748],[97.68636,17.74787],[97.68558,17.75295],[97.68818,17.7605],[97.69155,17.76657],[97.69233,17.77152],[97.69169,17.77411],[97.67626,17.79761],[97.67341,17.80503],[97.67005,17.81889],[97.66966,17.8299],[97.67148,17.84122],[97.67537,17.845],[97.67939,17.84488],[97.68419,17.84149],[97.69349,17.83188],[97.70185,17.81787],[97.70614,17.81684],[97.7114,17.81909],[97.71789,17.81912],[97.72011,17.81761],[97.71931,17.80629],[97.72523,17.79943],[97.73246,17.7985],[97.73591,17.79525],[97.74271,17.78256],[97.74619,17.77289],[97.74878,17.76999],[97.75331,17.76978],[97.7576,17.77061],[97.76017,17.76957],[97.76573,17.76073],[97.77201,17.75481],[97.77374,17.75214],[97.77314,17.74957],[97.76422,17.74533],[97.76301,17.74273],[97.76403,17.73445],[97.76539,17.73073],[97.76456,17.72559],[97.77438,17.71003],[97.78656,17.69783],[97.79285,17.69004],[97.7946,17.68212],[97.79645,17.67886],[97.80148,17.67666],[97.80493,17.67248],[97.81955,17.66239],[97.82351,17.65401],[97.84156,17.63753],[97.84833,17.6288],[97.87633,17.60882],[97.88076,17.60172],[97.88628,17.59988],[97.9031,17.58676],[97.9063,17.58316],[97.90719,17.57487],[97.90965,17.5715],[97.91017,17.56509],[97.91165,17.56136],[97.92036,17.55637],[97.92263,17.54802],[97.92352,17.54068],[97.92487,17.5387],[97.92866,17.53941],[97.93234,17.53873],[97.93492,17.53594],[97.93677,17.53198],[97.94937,17.53156],[97.9642,17.52683],[97.96629,17.5231],[97.96691,17.52007],[97.96558,17.51703],[97.96915,17.51238],[97.96965,17.50911],[97.98127,17.50962],[97.98518,17.51161],[97.98885,17.51151],[97.99278,17.50919],[98.0054,17.49104],[98.01768,17.47708],[98.03365,17.45633],[98.03832,17.45145],[98.04506,17.44645],[98.04838,17.44436],[98.05413,17.44333],[98.05695,17.44124],[98.05721,17.43716],[98.04744,17.43246],[98.04574,17.42977],[98.04721,17.42791],[98.05759,17.42229],[98.06225,17.41787],[98.06496,17.41088],[98.0706,17.40752],[98.07195,17.40309],[98.07846,17.39541],[98.07957,17.39098],[98.08166,17.38923],[98.0841,17.39029],[98.08678,17.39485],[98.08947,17.39439],[98.09461,17.39055],[98.10281,17.38953],[98.10772,17.38732],[98.11019,17.38524],[98.10978,17.38339],[98.10771,17.38115],[98.11008,17.37574],[98.11354,17.3747],[98.1163,17.37484],[98.11866,17.37313],[98.11922,17.37115],[98.1126,17.36519],[98.11026,17.36189],[98.10944,17.35832],[98.10641,17.35541],[98.10531,17.35224],[98.10493,17.34314],[98.1062,17.33549],[98.1101,17.32401],[98.11288,17.32072],[98.11495,17.3206],[98.11881,17.32285],[98.1217,17.32298],[98.12613,17.32022],[98.1317,17.30888],[98.13613,17.30612],[98.13684,17.30058],[98.13519,17.2957],[98.1352,17.29332],[98.13866,17.29188],[98.14598,17.29256],[98.15084,17.28611],[98.16108,17.28059],[98.16275,17.27716],[98.16566,17.274],[98.16608,17.2711],[98.16457,17.26648],[98.1656,17.26517],[98.171,17.26387],[98.17349,17.26044],[98.17626,17.25926],[98.18386,17.25915],[98.18663,17.25678],[98.19617,17.25535],[98.20032,17.25259],[98.20489,17.24877],[98.20795,17.24165],[98.20907,17.234],[98.2124,17.22979],[98.2218,17.22532],[98.22513,17.2219],[98.22955,17.22244],[98.23699,17.22932],[98.24016,17.23093],[98.24376,17.2277],[98.24513,17.22471],[98.24138,17.22073],[98.23026,17.21571],[98.22665,17.20917],[98.22693,17.20507],[98.23029,17.20469],[98.23979,17.21227],[98.24435,17.21202],[98.24557,17.21023],[98.24264,17.20061],[98.24479,17.19767],[98.24949,17.19871],[98.25043,17.19768],[98.24801,17.18701],[98.24976,17.18458],[98.25297,17.18535],[98.25873,17.18844],[98.26249,17.18845],[98.26343,17.18602],[98.25969,17.18101],[98.25956,17.17794],[98.26144,17.17704],[98.26426,17.17795],[98.26667,17.1768],[98.27311,17.17643],[98.27781,17.17503],[98.27955,17.1726],[98.27929,17.16952],[98.27675,17.16695],[98.27045,17.16489],[98.26778,17.16271],[98.26792,17.15899],[98.27088,17.15413],[98.27263,17.15247],[98.27853,17.15312],[98.28549,17.15647],[98.29099,17.15455],[98.29677,17.14957],[98.29759,17.14598],[98.29652,17.14342],[98.28538,17.14596],[98.28485,17.14352],[98.28647,17.13587],[98.28595,17.13203],[98.27993,17.12125],[98.28155,17.11626],[98.28612,17.11294],[98.29135,17.11397],[98.29362,17.11654],[98.294,17.12602],[98.29601,17.12833],[98.2991,17.12783],[98.29991,17.12437],[98.29912,17.11552],[98.2998,17.11091],[98.30209,17.10951],[98.3143,17.11467],[98.32167,17.11302],[98.32181,17.11123],[98.31726,17.10648],[98.31634,17.0979],[98.31393,17.09687],[98.30856,17.10172],[98.30522,17.09685],[98.30281,17.0948],[98.30093,17.09428],[98.30053,17.09249],[98.30335,17.09083],[98.30473,17.09125],[98.30573,17.08989],[98.30382,17.08735],[98.30086,17.08584],[98.29811,17.08779],[98.29483,17.08685],[98.29426,17.0854],[98.29126,17.08562],[98.2895,17.08386],[98.28867,17.08067],[98.272,17.07454],[98.26512,17.0738],[98.26059,17.07513],[98.25508,17.08018],[98.23972,17.08298],[98.23735,17.08149],[98.23562,17.07858],[98.23146,17.07647],[98.22543,17.07776],[98.2228,17.07483],[98.21562,17.0738],[98.20541,17.07414],[98.19536,17.06758],[98.19145,17.06777],[98.18673,17.0645],[98.18438,17.06186],[98.18507,17.05786],[98.18198,17.04859],[98.18209,17.0437],[98.16944,17.03248],[98.16342,17.01941],[98.16302,17.01049],[98.1708,16.97209],[98.19271,16.97209],[98.19271,16.96412],[98.19637,16.95183],[98.1957,16.94287],[98.20201,16.93523],[98.20201,16.92992],[98.20765,16.92029],[98.20799,16.91365],[98.2041,16.91118],[98.2059,16.90861],[98.20599,16.89805],[98.20732,16.89307],[98.20334,16.87846],[98.20599,16.87281],[98.21363,16.86518],[98.21164,16.86053],[98.20899,16.85694],[98.21795,16.85389],[98.23355,16.85057],[98.24816,16.85389],[98.24783,16.84924],[98.25215,16.84227],[98.25547,16.83961],[98.26377,16.83994],[98.27373,16.83031],[98.28236,16.825],[98.28535,16.81471],[98.29,16.80939],[98.29123,16.80304],[98.28672,16.79551],[98.28615,16.79109],[98.28415,16.78568],[98.2717,16.7757],[98.27052,16.76765],[98.2708,16.76457],[98.27019,16.76408],[98.27871,16.7576],[98.28834,16.74731],[98.29498,16.74565],[98.29232,16.74066],[98.28734,16.73602],[98.28959,16.72775],[98.29501,16.72224],[98.30466,16.71896],[98.30544,16.71712],[98.30281,16.70899],[98.29878,16.70146],[98.30693,16.6975],[98.31457,16.68787],[98.32453,16.67924],[98.3232,16.65899],[98.32117,16.65696],[98.32168,16.65518],[98.32055,16.65222],[98.32619,16.64604],[98.33582,16.64703],[98.34511,16.63807],[98.36039,16.63508],[98.3564,16.62977],[98.35773,16.62014],[98.36006,16.61217],[98.35628,16.60799],[98.36072,16.59358],[98.374,16.5959],[98.38429,16.59026],[98.39425,16.58793],[98.39558,16.58561],[98.40654,16.57864],[98.41086,16.57299],[98.41318,16.57199],[98.41009,16.56552],[98.4155,16.56071],[98.41617,16.55406],[98.42248,16.55008],[98.42712,16.55307],[98.43576,16.54742],[98.43642,16.54145],[98.43111,16.53448],[98.43035,16.53055],[98.43509,16.51422],[98.43128,16.50951],[98.43247,16.50435],[98.43251,16.49992],[98.42983,16.49732],[98.43742,16.4684],[98.44406,16.46442],[98.44207,16.45877],[98.43823,16.45454],[98.44019,16.45049],[98.43982,16.4479],[98.4497,16.44217],[98.44111,16.43642],[98.44029,16.4372],[98.42845,16.42789],[98.42679,16.42059],[98.42377,16.41918],[98.4245,16.41464],[98.4277,16.40932],[98.43017,16.40024],[98.43669,16.39823],[98.43729,16.39104],[98.44478,16.38624],[98.43673,16.37905],[98.43579,16.37255],[98.43351,16.36592],[98.43353,16.3626],[98.4355,16.35707],[98.43513,16.35522],[98.43132,16.35041],[98.43291,16.34303],[98.43279,16.3368],[98.43459,16.3338],[98.43968,16.33051],[98.44088,16.32601],[98.44088,16.32272],[98.44538,16.32152],[98.44837,16.31942],[98.44957,16.31522],[98.45557,16.30773],[98.45377,16.29455],[98.45587,16.28556],[98.45916,16.27897],[98.45074,16.27482],[98.45227,16.26428],[98.45467,16.26219],[98.46246,16.26248],[98.46066,16.25679],[98.45838,16.25329],[98.45976,16.25198],[98.45978,16.24903],[98.45789,16.24422],[98.46545,16.2451],[98.46515,16.23851],[98.46755,16.23462],[98.46725,16.22982],[98.46935,16.22473],[98.47205,16.22503],[98.48343,16.23462],[98.49482,16.22473],[98.50171,16.22533],[98.5089,16.22293],[98.5116,16.21874],[98.5101,16.21124],[98.51729,16.19147],[98.52299,16.19267],[98.52898,16.18068],[98.54067,16.17259],[98.54486,16.17079],[98.54307,16.1636],[98.54233,16.15623],[98.54283,16.15491],[98.54053,16.14326],[98.54348,16.14183],[98.55199,16.11924],[98.55257,16.11455],[98.55111,16.1119],[98.54653,16.11165],[98.54247,16.10705],[98.54007,16.10256],[98.54094,16.09629],[98.53944,16.09399],[98.54127,16.08848],[98.54576,16.08488],[98.54996,16.07829],[98.54906,16.07439],[98.54654,16.06966],[98.53827,16.0636],[98.53917,16.05911],[98.54195,16.05826],[98.54696,16.05461],[98.54936,16.04802],[98.55146,16.04892],[98.56262,16.04209],[98.56597,16.03005],[98.58645,16.01414],[98.59702,16.00462],[98.60607,15.98643],[98.6087,15.97756],[98.60954,15.97047],[98.60815,15.96632],[98.60606,15.96404],[98.60105,15.9611],[98.59479,15.95481],[98.5923,15.94761],[98.59453,15.94346],[98.59175,15.9349],[98.58716,15.92741],[98.58467,15.91269],[98.5887,15.90627],[98.58906,15.89279],[98.59435,15.88302],[98.59547,15.8758],[98.59978,15.87352],[98.60089,15.87138],[98.60395,15.87446],[98.60813,15.87553],[98.61035,15.87433],[98.59187,15.83418],[98.56745,15.76675],[98.5473,15.68307],[98.54981,15.67356],[98.56596,15.63637],[98.5532,15.59995],[98.57529,15.51799],[98.58629,15.4701],[98.58078,15.38039],[98.56138,15.33605],[98.5568,15.33511],[98.55042,15.33658],[98.54917,15.33604],[98.54737,15.33778],[98.54723,15.34206],[98.54833,15.34541],[98.54486,15.35076],[98.54569,15.3541],[98.54804,15.35822],[98.54623,15.36303],[98.54249,15.3629],[98.53735,15.36905],[98.52957,15.37172],[98.52638,15.37252],[98.52333,15.37158],[98.52194,15.37385],[98.51056,15.37438],[98.50597,15.38267],[98.49947,15.38787],[98.49613,15.38787],[98.49321,15.39175],[98.48891,15.39161],[98.48377,15.39027],[98.48128,15.38772],[98.48073,15.38371],[98.47143,15.37794],[98.46644,15.37232],[98.45688,15.36615],[98.45202,15.36655],[98.43967,15.36333],[98.43371,15.3581],[98.43233,15.35837],[98.43093,15.36372],[98.42399,15.36384],[98.4196,15.36299],[98.41613,15.36433],[98.41503,15.3583],[98.41115,15.35308],[98.40977,15.34277],[98.41089,15.3389],[98.40923,15.33167],[98.41479,15.32619],[98.4148,15.32204],[98.41078,15.31976],[98.40148,15.32162],[98.3965,15.31275],[98.38721,15.30485],[98.39498,15.30713],[98.40261,15.30741],[98.40664,15.30474],[98.41414,15.29324],[98.41151,15.28762],[98.41457,15.282],[98.41417,15.27277],[98.41765,15.26649],[98.41585,15.26153],[98.41068,15.26259],[98.40656,15.2599],[98.40129,15.25379],[98.39889,15.25665],[98.39754,15.26007],[98.39802,15.26211],[98.3936,15.26451],[98.39101,15.26719],[98.38918,15.27052],[98.3865,15.26931],[98.38045,15.27143],[98.37699,15.27605],[98.3742,15.28345],[98.36979,15.28234],[98.36672,15.28289],[98.36142,15.28611],[98.36045,15.28981],[98.35373,15.29202],[98.35363,15.29813],[98.34979,15.29646],[98.34385,15.29534],[98.33368,15.29745],[98.32974,15.29976],[98.32561,15.29984],[98.32091,15.30224],[98.31975,15.30418],[98.31418,15.30676],[98.30567,15.31331],[98.30548,15.31174],[98.30414,15.31081],[98.3002,15.3134],[98.29761,15.31247],[98.29589,15.30876],[98.3006,15.3034],[98.2938,15.29682],[98.29832,15.29359],[98.2989,15.2873],[98.3039,15.28018],[98.29988,15.27925],[98.2996,15.27592],[98.29583,15.27259],[98.28163,15.27182],[98.27915,15.26821],[98.28136,15.26294],[98.27533,15.25589],[98.27304,15.25025],[98.27391,15.24803],[98.26644,15.24228],[98.26348,15.23857],[98.25906,15.23949],[98.25571,15.23791],[98.25139,15.23799],[98.24727,15.23919],[98.23628,15.2373],[98.23283,15.23544],[98.22996,15.23071],[98.23054,15.22655],[98.23276,15.22359],[98.23104,15.22146],[98.22893,15.22063],[98.22183,15.22329],[98.21278,15.23669],[98.21115,15.23641],[98.20799,15.23418],[98.20252,15.23556],[98.20319,15.24933],[98.20519,15.25506],[98.20498,15.26141],[98.20188,15.26885],[98.195,15.28045],[98.18358,15.294],[98.18507,15.29756],[98.18422,15.30859],[98.18048,15.31174],[98.17913,15.31418],[98.16816,15.32308],[98.15688,15.3305],[98.14798,15.33109],[98.14307,15.32918],[98.13941,15.33013],[98.13722,15.33349],[98.13403,15.33524],[98.13344,15.34148],[98.13407,15.34818],[98.12368,15.36334],[98.12283,15.36592],[98.11948,15.36738],[98.11667,15.37487],[98.1155,15.38376],[98.11199,15.39032],[98.10544,15.3971],[98.10123,15.39827],[98.09047,15.42097],[98.08087,15.42939],[98.07245,15.43314],[98.0673,15.43875],[98.07128,15.44437],[98.068,15.44952],[98.06733,15.45659],[98.05989,15.46209],[98.05989,15.46546],[98.05744,15.47663],[98.05466,15.47783],[98.04905,15.48743],[98.04717,15.49819],[98.04413,15.50381],[98.03922,15.50779],[98.03809,15.51345],[98.03324,15.51591],[98.02188,15.52471],[98.00833,15.53891],[98.00201,15.56044],[97.99195,15.57354],[97.99072,15.57626],[97.98869,15.57711],[97.98456,15.58108],[97.97783,15.59099],[97.97335,15.59273],[97.96775,15.59161],[97.95802,15.60092],[97.95217,15.60326],[97.94819,15.60888],[97.94655,15.61707],[97.94749,15.63158],[97.94936,15.64047],[97.94772,15.64556],[97.94411,15.64894],[97.9378,15.64634],[97.93223,15.64782],[97.92672,15.63795],[97.92229,15.63712],[97.91611,15.64779],[97.91255,15.64929],[97.91293,15.65734],[97.91049,15.66502],[97.90637,15.66483],[97.90319,15.66614],[97.90106,15.67435],[97.89735,15.6755],[97.88992,15.67229],[97.88661,15.67294],[97.88276,15.67107],[97.8778,15.67066],[97.87609,15.67356],[97.86781,15.67868],[97.87043,15.68336],[97.86912,15.68692],[97.86987,15.69104],[97.86444,15.69852],[97.86332,15.70302],[97.86631,15.70807],[97.8708,15.70901],[97.87211,15.72754],[97.87923,15.73297],[97.88391,15.73297],[97.88503,15.7354],[97.88426,15.7398],[97.88136,15.7451],[97.86863,15.76348],[97.8704,15.76788],[97.86981,15.77991],[97.86732,15.78631],[97.86525,15.78909],[97.86181,15.79107],[97.85836,15.79781],[97.85925,15.80162],[97.86552,15.80197],[97.86532,15.81032],[97.8627,15.81602],[97.86022,15.8253],[97.85857,15.82781],[97.85313,15.83085],[97.85065,15.83482],[97.85065,15.8449],[97.84989,15.84795],[97.84105,15.85121],[97.84039,15.85575],[97.83372,15.86559],[97.83694,15.86941],[97.84252,15.87322],[97.84193,15.88202],[97.8379,15.89501],[97.83196,15.90726],[97.83342,15.91401],[97.83724,15.92017],[97.84369,15.92281],[97.85014,15.93022],[97.84815,15.93578],[97.84319,15.94293],[97.83982,15.95114],[97.83603,15.96174],[97.83465,15.9701],[97.83589,15.97435],[97.83355,15.97475],[97.83812,15.97856],[97.84775,15.99189],[97.8485,15.99847],[97.84663,16.00145],[97.84428,16.01172],[97.85103,16.01582],[97.86027,16.01764],[97.86687,16.0229],[97.86599,16.0349],[97.86,16.04405],[97.85484,16.04575],[97.84956,16.05309],[97.85074,16.07099],[97.84963,16.07604],[97.84457,16.07627],[97.84587,16.08064],[97.84517,16.08166],[97.83775,16.08523],[97.83627,16.09176],[97.82843,16.10056],[97.82374,16.1015],[97.82198,16.10649],[97.81787,16.11148],[97.81311,16.12477],[97.81049,16.12401],[97.80821,16.1244],[97.80376,16.12712],[97.80414,16.13428],[97.80738,16.14196],[97.80635,16.14712],[97.80775,16.15177],[97.80717,16.15525],[97.79615,16.16426],[97.79469,16.1683],[97.79616,16.17467],[97.7921,16.18162],[97.79094,16.1851],[97.7869,16.18721],[97.78862,16.19496],[97.78568,16.19922],[97.78786,16.20224],[97.78797,16.20429],[97.7863,16.21437],[97.78166,16.21901],[97.77097,16.24212],[97.77389,16.24672],[97.77112,16.25059],[97.76983,16.25512],[97.76945,16.26612],[97.76677,16.27119],[97.75581,16.27708],[97.75016,16.28295],[97.74777,16.29131],[97.74558,16.29493],[97.74476,16.30915],[97.74041,16.31436],[97.73201,16.32741],[97.73027,16.32915],[97.72592,16.3303],[97.7207,16.33349],[97.71288,16.34769],[97.70824,16.34914],[97.70158,16.35755],[97.69987,16.36097],[97.68663,16.35846],[97.68165,16.35582],[97.67462,16.34967],[97.66759,16.3482],[97.65938,16.35406],[97.65235,16.35787],[97.64972,16.36256],[97.65059,16.36724],[97.65206,16.37017],[97.65206,16.3734],[97.65118,16.37603],[97.64649,16.37633],[97.64679,16.38512],[97.64356,16.38834],[97.63858,16.38893],[97.63624,16.39215],[97.63038,16.39332],[97.62945,16.39273],[97.62814,16.39889],[97.61624,16.41582],[97.61466,16.41952],[97.61121,16.43355],[97.61163,16.43919],[97.61497,16.44507],[97.61822,16.44622],[97.62101,16.4491],[97.62324,16.45543],[97.62184,16.46715],[97.62004,16.47306],[97.61772,16.48626],[97.61734,16.49336],[97.61906,16.5003],[97.62081,16.50244],[97.62472,16.50302],[97.63323,16.49944],[97.6385,16.49883],[97.64368,16.5002],[97.64675,16.50241],[97.65312,16.50953],[97.65805,16.51748],[97.66114,16.52099],[97.65945,16.52221],[97.65952,16.52613],[97.66237,16.53513],[97.66496,16.54879],[97.6746,16.5564],[97.68291,16.55966],[97.69164,16.56121],[97.70712,16.55976],[97.73459,16.56188],[97.74058,16.56061],[97.74396,16.55768],[97.74601,16.54828],[97.74949,16.54001],[97.75586,16.53366],[97.76176,16.52603],[97.76424,16.52405],[97.77347,16.52032],[97.78434,16.51416],[97.79026,16.51179],[97.79769,16.51041],[97.81075,16.51137],[97.81509,16.5133],[97.81982,16.51718],[97.82205,16.51805],[97.8224,16.51991],[97.82692,16.52424],[97.8284,16.52713],[97.84183,16.53875],[97.84551,16.54488],[97.84207,16.54433],[97.83986,16.5412],[97.8316,16.53601],[97.82105,16.53379],[97.81745,16.53232],[97.80188,16.52112],[97.79655,16.51578],[97.79321,16.51478],[97.78746,16.51705],[97.78147,16.52153],[97.77057,16.53332],[97.75644,16.54585],[97.74845,16.56049],[97.74554,16.56265],[97.74016,16.56478],[97.7311,16.5658],[97.72382,16.56782],[97.70997,16.57338],[97.70112,16.57419],[97.69784,16.57342],[97.69043,16.5694],[97.67758,16.56893],[97.67122,16.56478],[97.66241,16.55748],[97.6602,16.56171],[97.65964,16.56539],[97.6578,16.56879],[97.65375,16.58225],[97.65281,16.601],[97.64984,16.60258],[97.6483,16.6063],[97.64273,16.61473],[97.63682,16.62007],[97.63194,16.62189],[97.63092,16.62394],[97.62676,16.62826],[97.62384,16.63309],[97.62233,16.63812],[97.6216,16.64485],[97.61913,16.65175],[97.61823,16.65336],[97.61578,16.655],[97.60852,16.65146],[97.61466,16.63941],[97.61598,16.63431],[97.61463,16.62687],[97.60863,16.6174],[97.6101,16.61381],[97.61118,16.60585],[97.60627,16.59133],[97.6062,16.58114],[97.60428,16.57758],[97.60407,16.57486],[97.60425,16.56352],[97.60509,16.55834],[97.60746,16.55346],[97.61263,16.53763],[97.61798,16.52821],[97.61787,16.5239],[97.61483,16.51976],[97.60458,16.52308],[97.59814,16.52889],[97.58836,16.52885],[97.5821,16.53135],[97.57267,16.53667],[97.5656,16.53846],[97.56281,16.53848],[97.55461,16.53604],[97.53932,16.53546],[97.524,16.52982],[97.51665,16.52927],[97.50808,16.53308],[97.5041,16.53585],[97.49199,16.53807],[97.48443,16.5405],[97.47824,16.54019],[97.46926,16.53756],[97.46643,16.53761],[97.45967,16.53855],[97.44809,16.54244],[97.43804,16.54425],[97.43211,16.54376],[97.41586,16.53289],[97.40467,16.5292],[97.37833,16.50888],[97.36977,16.5055],[97.35982,16.50752],[97.35678,16.5109],[97.35177,16.52108],[97.34876,16.52958],[97.34775,16.54655],[97.34592,16.55373],[97.34287,16.56154],[97.33507,16.57353],[97.3305,16.58514],[97.32802,16.59714],[97.32441,16.60894],[97.32326,16.63768],[97.32536,16.6472],[97.32513,16.66292],[97.31893,16.6644],[97.31677,16.65908],[97.31393,16.65511],[97.30929,16.65127],[97.3048,16.64894],[97.30114,16.64828],[97.29283,16.65127],[97.28336,16.65642],[97.27681,16.66108],[97.27519,16.66577],[97.27065,16.66964],[97.26062,16.67348],[97.25578,16.67839],[97.2391,16.71616],[97.23503,16.73119],[97.23566,16.74216],[97.23261,16.75003],[97.2313,16.7549],[97.23178,16.75763],[97.231,16.75909],[97.23635,16.7714],[97.24784,16.78021],[97.24898,16.78132],[97.2498,16.78436],[97.24852,16.78607],[97.24552,16.78593],[97.2285,16.77933],[97.2234,16.77905],[97.21885,16.7803],[97.21511,16.78321],[97.21162,16.78764],[97.20685,16.79149],[97.20284,16.79605],[97.20083,16.80206],[97.19798,16.80548],[97.19625,16.81221],[97.19784,16.83141],[97.20002,16.84131],[97.20372,16.84737],[97.20813,16.84972],[97.20969,16.85141],[97.21229,16.85743],[97.20939,16.85885],[97.20454,16.85531],[97.19757,16.85476],[97.19347,16.85292],[97.19065,16.85056],[97.18817,16.84284],[97.18656,16.84124],[97.18387,16.84121],[97.1812,16.84226],[97.17364,16.84752],[97.17245,16.8498],[97.17104,16.85472],[97.18055,16.87733],[97.17951,16.87839],[97.17004,16.87947],[97.16841,16.88158],[97.16733,16.88623],[97.16383,16.89346],[97.16407,16.89654],[97.1689,16.90293],[97.16919,16.90469],[97.16762,16.90633],[97.16347,16.90697],[97.16124,16.90848],[97.1578,16.91397],[97.16528,16.93369],[97.16716,16.94568],[97.16775,16.96221],[97.17219,16.97986],[97.16991,16.98068],[97.16835,16.98246],[97.16691,16.99468],[97.165,17.00087],[97.15346,17.01931],[97.15263,17.02597],[97.15406,17.04227],[97.14775,17.05437],[97.14136,17.06061],[97.13957,17.06527],[97.13866,17.07133],[97.13997,17.08817],[97.1454,17.10125],[97.14998,17.10649],[97.15581,17.10902],[97.16966,17.11258],[97.16612,17.12764],[97.15345,17.1285],[97.14505,17.12796],[97.14059,17.12266],[97.13698,17.1223],[97.13474,17.12045],[97.13306,17.11683],[97.13146,17.10163],[97.12794,17.08798],[97.12468,17.08357],[97.11736,17.07639],[97.11534,17.07291],[97.11376,17.06804],[97.11445,17.05872],[97.11185,17.05341],[97.1092,17.04238],[97.10232,17.02361],[97.10423,17.01882],[97.11036,17.01411],[97.11358,17.01295],[97.11694,17.01046],[97.1139,17.00361],[97.10942,16.99866],[97.10466,16.99638],[97.09914,16.99286],[97.09648,16.98991],[97.092,16.98757],[97.08822,16.9878],[97.08377,16.9909],[97.08264,16.99253],[97.07464,16.99728],[97.0695,16.99809],[97.06481,17.00175],[97.06344,17.00454],[97.06326,17.0087],[97.06213,17.01138],[97.06114,17.01201],[97.05826,17.01063],[97.05612,17.01109],[97.0546,17.01379],[97.05506,17.01923],[97.0543,17.03142],[97.05487,17.03412],[97.05616,17.03576],[97.05577,17.03742],[97.05331,17.03996],[97.0492,17.05186],[97.0494,17.07215],[97.04865,17.07435],[97.05225,17.07775],[97.05378,17.07795],[97.05138,17.08224],[97.05363,17.08283],[97.0552,17.08477],[97.06401,17.08495],[97.06446,17.08694],[97.06132,17.0891],[97.05662,17.08912],[97.05237,17.09057],[97.04773,17.08975],[97.0438,17.09107],[97.04048,17.08957],[97.04037,17.08819],[97.03692,17.08383],[97.03386,17.08214],[97.0306,17.08157],[97.02835,17.08233],[97.02425,17.08585],[97.02051,17.09121],[97.01902,17.09608],[97.01121,17.09731],[97.00951,17.09296],[97.00695,17.09228],[97.00526,17.09738],[97.00591,17.10132],[97.0022,17.10595],[97.0005,17.107],[96.99511,17.11824],[96.99621,17.12503],[96.99301,17.12506],[96.99072,17.12927],[96.98668,17.12826],[96.98517,17.11529],[96.98648,17.11483],[96.98713,17.11162],[96.98524,17.10832],[96.98278,17.10846],[96.98201,17.1057],[96.98376,17.10079],[96.986,17.09884],[96.98754,17.09276],[96.98996,17.08922],[96.99035,17.08419],[96.98919,17.07984],[96.98488,17.07612],[96.98199,17.07696],[96.98052,17.0793],[96.97961,17.07939],[96.97862,17.07786],[96.98236,17.07035],[96.98515,17.06715],[96.98865,17.0654],[96.99653,17.05485],[96.99735,17.04909],[96.99893,17.04738],[96.99821,17.04579],[96.99863,17.04484],[96.99693,17.04471],[96.99503,17.04197],[96.99151,17.0425],[96.99048,17.03903],[96.98979,17.04017],[96.98973,17.0436],[96.98822,17.04376],[96.98588,17.04585],[96.9858,17.04416],[96.9838,17.04564],[96.98276,17.04406],[96.98172,17.04653],[96.97999,17.04764],[96.9817,17.0509],[96.98188,17.05296],[96.98406,17.05353],[96.98171,17.05608],[96.98289,17.05829],[96.98198,17.05889],[96.9801,17.05886],[96.97913,17.05612],[96.97471,17.0498],[96.97357,17.05009],[96.97297,17.05174],[96.97476,17.05301],[96.97501,17.0544],[96.97386,17.05495],[96.97276,17.05366],[96.97195,17.05419],[96.97229,17.05619],[96.97316,17.05568],[96.97387,17.05658],[96.97246,17.05836],[96.97411,17.06141],[96.97406,17.06847],[96.97231,17.06987],[96.97091,17.06728],[96.96957,17.06668],[96.96821,17.07034],[96.96878,17.07762],[96.97065,17.08023],[96.96956,17.08438],[96.97022,17.08845],[96.96694,17.09067],[96.96443,17.09066],[96.96303,17.08952],[96.96281,17.0854],[96.96198,17.08489],[96.95829,17.08562],[96.95732,17.08673],[96.95785,17.09186],[96.95613,17.09134],[96.95211,17.09311],[96.95103,17.09962],[96.95107,17.10589],[96.95307,17.10898],[96.95495,17.10849],[96.95569,17.1102],[96.95725,17.1106],[96.9577,17.1115],[96.95637,17.11465],[96.96168,17.12609],[96.96246,17.12964],[96.96387,17.13094],[96.96487,17.13081],[96.96561,17.13294],[96.96588,17.13542],[96.96425,17.13716],[96.96715,17.14756],[96.96569,17.16569],[96.96662,17.16644],[96.96723,17.16903],[96.96643,17.17017],[96.96755,17.17285],[96.96588,17.17425],[96.96251,17.18051],[96.96324,17.18418],[96.96155,17.18596],[96.96111,17.1887],[96.95924,17.19],[96.95812,17.1925],[96.95519,17.19365],[96.9558,17.19666],[96.95796,17.19652],[96.9506,17.20497],[96.94381,17.21461],[96.94084,17.21627],[96.93953,17.22013],[96.93695,17.22377],[96.9355,17.22871],[96.92997,17.23575],[96.93636,17.23665],[96.93962,17.23865],[96.94185,17.2383],[96.94282,17.23716],[96.94488,17.23656],[97.00731,17.23716],[97.03225,17.23874],[97.03041,17.26],[97.0354,17.27259],[97.03618,17.28992],[97.04143,17.2928],[97.05036,17.2949],[97.05429,17.29543],[97.05587,17.28965],[97.05665,17.28152],[97.06033,17.27784],[97.06978,17.28493],[97.07319,17.27994],[97.07739,17.27706],[97.08684,17.27443],[97.09392,17.26682],[97.1039,17.26236],[97.11466,17.25947],[97.12069,17.26183],[97.12384,17.2684],[97.12453,17.26931],[97.12598,17.26791],[97.12883,17.27271],[97.12524,17.28565],[97.1224,17.28734],[97.12287,17.29926],[97.13091,17.30306],[97.13224,17.30776],[97.13172,17.31957],[97.13618,17.32692],[97.13775,17.33138],[97.12962,17.33453],[97.12542,17.34372],[97.12069,17.34661],[97.12096,17.35212],[97.11807,17.35815],[97.11387,17.35815],[97.11335,17.36104],[97.11413,17.36524],[97.11833,17.37731],[97.12831,17.38807],[97.13802,17.38755],[97.143,17.38598],[97.14799,17.38046],[97.14851,17.3865],[97.15219,17.39332],[97.15849,17.39175],[97.16767,17.39385],[97.16426,17.4075],[97.16662,17.40881],[97.16636,17.41065],[97.1682,17.41826],[97.17214,17.42193],[97.1724,17.43007],[97.16951,17.434],[97.17082,17.44319],[97.1745,17.44555],[97.17948,17.45054],[97.19103,17.45001],[97.19733,17.44765],[97.20389,17.44791],[97.20888,17.45343],[97.21623,17.45369],[97.21597,17.45736],[97.21045,17.4592],[97.19969,17.47075],[97.20022,17.47915],[97.19444,17.47731],[97.18788,17.48046],[97.18421,17.47967],[97.18053,17.47547],[97.17817,17.47521],[97.17791,17.48335],[97.17319,17.48545],[97.17161,17.49227],[97.16872,17.49489],[97.14458,17.50198],[97.13474,17.49989],[97.13117,17.49438],[97.12841,17.48817],[97.12289,17.48863],[97.11852,17.48357],[97.11438,17.48426],[97.1087,17.48079],[97.10449,17.48052],[97.09998,17.48182],[97.09863,17.48743],[97.09779,17.49851],[97.09181,17.50696],[97.09138,17.5108],[97.09116,17.52006],[97.09418,17.52281],[97.09934,17.52461],[97.09986,17.52592],[97.09912,17.52686],[97.09875,17.53071],[97.09645,17.5337],[97.09668,17.53691],[97.08863,17.54128],[97.07057,17.54474],[97.06771,17.54657],[97.06472,17.55071],[97.06449,17.55623],[97.05024,17.56474],[97.03322,17.56565],[97.02632,17.56887],[97.0192,17.56979],[97.01828,17.57416],[97.01322,17.58359],[97.01207,17.5852],[97.00908,17.58681],[97.00333,17.59738],[97.00172,17.59738],[97.00011,17.60037],[96.99786,17.60036],[96.99722,17.60519],[96.99428,17.60857],[96.99436,17.61095],[96.99206,17.61164],[96.9854,17.61049],[96.98011,17.60865],[96.97482,17.60934],[96.96981,17.60682],[96.96792,17.60957],[96.96126,17.61509],[96.95344,17.61693],[96.94887,17.62032],[96.94838,17.62429],[96.94516,17.62498],[96.93964,17.62383],[96.93757,17.62107],[96.93866,17.61806],[96.93766,17.61677],[96.93907,17.61384],[96.93868,17.61223],[96.93481,17.61808],[96.93274,17.61716],[96.93114,17.61463],[96.92263,17.61348],[96.92056,17.61233],[96.91849,17.60957],[96.9155,17.6098],[96.90953,17.60849],[96.90814,17.61661],[96.904,17.6213],[96.89803,17.61946],[96.89205,17.61555],[96.89067,17.61739],[96.88791,17.61716],[96.88791,17.61164],[96.88415,17.60749],[96.87874,17.60714],[96.8763,17.6036],[96.87515,17.59902],[96.87945,17.58846],[96.87387,17.5794],[96.87755,17.57149],[96.87748,17.56489],[96.86829,17.54499],[96.86851,17.53469],[96.87218,17.52965],[96.8749,17.52818],[96.87403,17.50996],[96.87449,17.50488],[96.87482,17.50258],[96.87894,17.49407],[96.87711,17.47484],[96.87734,17.46202],[96.87533,17.45485],[96.87562,17.44941],[96.874,17.43617],[96.88025,17.42731],[96.88806,17.41325],[96.89275,17.39814],[96.89549,17.38367],[96.8899,17.38372],[96.89216,17.37991],[96.89343,17.37527],[96.89224,17.36914],[96.88937,17.3674],[96.87804,17.36638],[96.86785,17.35865],[96.86355,17.35408],[96.84151,17.35244],[96.83604,17.35517],[96.83097,17.37119],[96.82706,17.38681],[96.81847,17.39267],[96.81182,17.3872],[96.80766,17.37755],[96.78343,17.37428],[96.78134,17.36875],[96.77739,17.3654],[96.77178,17.36296],[96.76734,17.36273],[96.76016,17.36606],[96.75241,17.36546],[96.73841,17.35622],[96.73186,17.35324],[96.71785,17.35414],[96.70355,17.3589],[96.68449,17.36039],[96.64158,17.3744],[96.63697,17.37109],[96.63235,17.3747],[96.62473,17.36974],[96.61894,17.37172],[96.61438,17.36884],[96.60732,17.37065],[96.60685,17.36839],[96.60673,17.3735],[96.60494,17.37767],[96.60077,17.38334],[96.57956,17.37654],[96.57768,17.38016],[96.57675,17.38919],[96.57581,17.39055],[96.5711,17.391],[96.56922,17.39371],[96.56781,17.39417],[96.5664,17.39688],[96.56734,17.40185],[96.57017,17.40682],[96.57017,17.41224],[96.56782,17.41585],[96.5664,17.41631],[96.56889,17.42207],[96.57157,17.42505],[96.57276,17.44948],[96.57514,17.45216],[96.57604,17.45692],[96.57537,17.466],[96.57631,17.48588],[96.58055,17.48904],[96.58244,17.49175],[96.58244,17.49943],[96.58757,17.50743],[96.59172,17.50788],[96.59799,17.51445],[96.60576,17.52521],[96.60375,17.52934],[96.61084,17.53022],[96.61412,17.52759],[96.61495,17.53059],[96.62069,17.52879],[96.62248,17.53148],[96.61517,17.53425],[96.61416,17.53677],[96.61631,17.53836],[96.60936,17.54131],[96.61054,17.54641],[96.60665,17.5479],[96.60555,17.55364],[96.60602,17.55545],[96.60837,17.5568],[96.60885,17.55816],[96.61215,17.56087],[96.61215,17.57306],[96.61688,17.58978],[96.60887,17.59204],[96.60793,17.59295],[96.60369,17.5934],[96.58908,17.59928],[96.57071,17.60381],[96.57082,17.59917],[96.5623,17.59872],[96.55917,17.59783],[96.55738,17.59312],[96.55536,17.59245],[96.55446,17.5882],[96.55178,17.59021],[96.54809,17.59523],[96.54783,17.59684],[96.54017,17.597],[96.53679,17.60065],[96.53501,17.60327],[96.53114,17.61556],[96.53019,17.61466],[96.52266,17.61331],[96.52171,17.61059],[96.51841,17.60924],[96.51747,17.61195],[96.5153,17.6082],[96.51105,17.61335],[96.50388,17.61492],[96.50298,17.61246],[96.50051,17.61105],[96.49761,17.61671],[96.49514,17.61828],[96.48641,17.61828],[96.48036,17.61716],[96.47117,17.61895],[96.46517,17.61873],[96.4647,17.62189],[96.46329,17.6246],[96.46416,17.6292],[96.46176,17.63262],[96.45684,17.6474],[96.4602,17.66241],[96.46482,17.6692],[96.46139,17.66887],[96.46092,17.67068],[96.45856,17.67204],[96.45809,17.67339],[96.45526,17.67339],[96.45149,17.67475],[96.44774,17.68333],[96.4479,17.68753],[96.4427,17.68971],[96.44239,17.69973],[96.44017,17.70095],[96.43876,17.70411],[96.43593,17.70727],[96.43498,17.71044],[96.43357,17.71134],[96.43121,17.70953],[96.4298,17.70501],[96.42697,17.70501],[96.4265,17.70817],[96.42461,17.70953],[96.42225,17.71676],[96.42084,17.71766],[96.42084,17.71992],[96.42225,17.72082],[96.4213,17.72579],[96.41753,17.72895],[96.41187,17.73211],[96.40271,17.7339],[96.40053,17.73608],[96.4023,17.74329],[96.40046,17.7455],[96.39801,17.74498],[96.39431,17.7512],[96.39398,17.75859],[96.39633,17.76582],[96.39616,17.77086],[96.40218,17.77127],[96.40523,17.77371],[96.40204,17.77842],[96.40204,17.78211],[96.40893,17.78934],[96.40854,17.79311],[96.40241,17.79807],[96.39958,17.80304],[96.39863,17.80349],[96.39782,17.81318],[96.39271,17.81754],[96.39439,17.82309],[96.39414,17.82485],[96.39107,17.82517],[96.38824,17.82652],[96.38685,17.82818],[96.38347,17.8288],[96.37927,17.8351],[96.37305,17.83669],[96.37473,17.84005],[96.37172,17.8464],[96.36841,17.84684],[96.36794,17.8491],[96.36888,17.85086],[96.36633,17.85198],[96.36566,17.85601],[96.35617,17.864],[96.34811,17.8631],[96.34481,17.8649],[96.34622,17.8658],[96.34669,17.86806],[96.34103,17.87032],[96.33895,17.86996],[96.33777,17.87214],[96.34147,17.87914],[96.33724,17.88116],[96.3376,17.89096],[96.33451,17.89406],[96.33346,17.8938],[96.33299,17.89245],[96.33063,17.892],[96.32968,17.89335],[96.32732,17.8938],[96.32685,17.89515],[96.32024,17.89786],[96.32494,17.90357],[96.32819,17.9091],[96.32477,17.91864],[96.32664,17.92134],[96.32685,17.92571],[96.32352,17.92738],[96.32331,17.92863],[96.32498,17.933],[96.32823,17.93495],[96.32884,17.94292],[96.32233,17.94748],[96.29307,17.94878],[96.29469,17.9439],[96.28544,17.93623],[96.28336,17.93966],[96.28003,17.94236],[96.27771,17.94299],[96.2777,17.94932],[96.27582,17.94977],[96.27582,17.94887],[96.2744,17.94886],[96.27345,17.95022],[96.27062,17.95067],[96.26968,17.9475],[96.26544,17.94614],[96.26449,17.94885],[96.25646,17.9502],[96.2541,17.95336],[96.25221,17.95426],[96.25174,17.952],[96.24985,17.95109],[96.24513,17.95199],[96.24383,17.9553],[96.24153,17.95651],[96.24031,17.96109],[96.23473,17.96146],[96.23331,17.96507],[96.23236,17.96507],[96.23236,17.96598],[96.22858,17.96959],[96.22386,17.96958],[96.22291,17.97093],[96.21772,17.97048],[96.21725,17.97138],[96.21583,17.97047],[96.213,17.97047],[96.21205,17.97544],[96.2078,17.97543],[96.20685,17.97633],[96.20637,17.98085],[96.20306,17.9822],[96.20259,17.98581],[96.20117,17.98581],[96.20117,17.98672],[96.20022,17.98671],[96.19737,17.99028],[96.19886,17.99267],[96.19976,17.99655],[96.19767,18.00073],[96.19647,18.00939],[96.19438,18.01387],[96.19617,18.0291],[96.19498,18.03299],[96.19139,18.03717],[96.18811,18.05061],[96.19169,18.05359],[96.18572,18.06046],[96.18811,18.06524],[96.18851,18.07195],[96.19168,18.07433],[96.19251,18.07949],[96.19638,18.0816],[96.19568,18.08548],[96.19709,18.08759],[96.19603,18.09147],[96.19321,18.09217],[96.18969,18.09182],[96.18617,18.09287],[96.17736,18.09217],[96.17525,18.09851],[96.17032,18.1045],[96.16996,18.11331],[96.16503,18.11859],[96.15763,18.12176],[96.15411,18.11683],[96.14953,18.11507],[96.14742,18.11859],[96.14566,18.11824],[96.14495,18.11471],[96.14213,18.11542],[96.13967,18.11401],[96.13121,18.11436],[96.12699,18.11965],[96.12767,18.12405],[96.13195,18.12303],[96.13053,18.12439],[96.12958,18.1271],[96.12786,18.12726],[96.12495,18.12944],[96.11748,18.13691],[96.11846,18.14227],[96.11423,18.14861],[96.10839,18.14942],[96.10822,18.15072],[96.11082,18.15543],[96.10963,18.16667],[96.1087,18.16771],[96.10461,18.16927],[96.10238,18.16923],[96.09962,18.17248],[96.10424,18.17994],[96.10308,18.18159],[96.09686,18.18271],[96.09604,18.18401],[96.09799,18.19213],[96.09523,18.1931],[96.09426,18.19895],[96.08597,18.20431],[96.08191,18.20821],[96.08061,18.21292],[96.08403,18.22299],[96.0798,18.22656],[96.07953,18.23158],[96.07762,18.23239],[96.07379,18.23224],[96.06502,18.24507],[96.06711,18.25145],[96.065,18.25436],[96.06406,18.25436],[96.0586,18.25942],[96.05361,18.2724],[96.05219,18.27376],[96.04728,18.2755],[96.04548,18.2791],[96.04318,18.28841],[96.04456,18.29542],[96.04125,18.29587],[96.03935,18.29767],[96.03652,18.29857],[96.03604,18.29992],[96.03036,18.30081],[96.02704,18.30351],[96.02101,18.30581],[96.01988,18.31231],[96.01679,18.3201],[96.02076,18.32611],[96.0176,18.32839],[96.01524,18.33483],[96.01087,18.336],[96.00965,18.33773],[96.00737,18.33813],[96.00549,18.34585],[96.00469,18.34502],[96.0028,18.34591],[96.00259,18.3469],[96.00055,18.34723],[95.9973,18.3495],[95.99357,18.35372],[95.99454,18.36135],[95.9986,18.36736],[95.99925,18.37321],[96.00315,18.37857],[96.00337,18.38041],[95.99909,18.38312],[95.99494,18.39092],[95.99369,18.387],[95.99085,18.38699],[95.98982,18.38846],[95.98886,18.3875],[95.98561,18.3888],[95.98439,18.3915],[95.97901,18.39193],[95.97806,18.39283],[95.97474,18.39192],[95.97213,18.3888],[95.97034,18.38799],[95.96547,18.38961],[95.96109,18.39497],[95.95767,18.40309],[95.9554,18.40585],[95.94095,18.41105],[95.93916,18.41365],[95.93429,18.41495],[95.91967,18.42843],[95.91837,18.43168],[95.91951,18.43898],[95.91896,18.44642],[95.91334,18.45311],[95.91253,18.45831],[95.90944,18.46643],[95.91042,18.47341],[95.90684,18.47666],[95.89791,18.49177],[95.90388,18.49606],[95.90624,18.49652],[95.90822,18.50489],[95.91378,18.50739],[95.92381,18.51919],[95.93314,18.52371],[95.93918,18.52532],[95.9406,18.52229],[95.94423,18.51805],[95.94927,18.51684],[95.95353,18.51745],[95.95637,18.517],[95.95826,18.51837],[95.95917,18.52876],[95.96236,18.53326],[95.96582,18.53608],[95.9669,18.54106],[95.96344,18.54495],[95.96409,18.55058],[95.96193,18.55542],[95.95673,18.55621],[95.955,18.56206],[95.95651,18.56704],[95.95283,18.57072],[95.95261,18.5757],[95.94872,18.58176],[95.94547,18.58241],[95.93659,18.59086],[95.94027,18.59779],[95.94332,18.59873],[95.94655,18.61035],[95.94991,18.61095],[95.95283,18.61966],[95.96279,18.6359],[95.95781,18.64434],[95.95846,18.65257],[95.95768,18.65465],[95.95641,18.65343],[95.95262,18.65342],[95.94958,18.65192],[95.94547,18.65734],[95.93247,18.6634],[95.93161,18.67163],[95.92858,18.67423],[95.92706,18.68202],[95.92295,18.68311],[95.91927,18.69177],[95.91911,18.69669],[95.91692,18.69758],[95.91515,18.70216],[95.90454,18.71862],[95.90389,18.7236],[95.90151,18.72728],[95.8974,18.73074],[95.89869,18.73767],[95.89523,18.73941],[95.8935,18.74525],[95.8896,18.75088],[95.88505,18.76258],[95.88051,18.76907],[95.88137,18.77297],[95.87964,18.7773],[95.87379,18.78445],[95.87013,18.78733],[95.86966,18.78642],[95.86729,18.78551],[95.8592,18.79271],[95.85636,18.79315],[95.85541,18.79225],[95.85209,18.79223],[95.84924,18.79403],[95.84905,18.79276],[95.84489,18.79618],[95.83656,18.81018],[95.83789,18.81368],[95.83622,18.82002],[95.83706,18.82185],[95.84249,18.82111],[95.84344,18.81976],[95.84582,18.81886],[95.84629,18.81977],[95.84882,18.82018],[95.85022,18.82368],[95.84956,18.82668],[95.84572,18.83118],[95.84463,18.84053],[95.83889,18.84102],[95.83889,18.84585],[95.84192,18.8446],[95.84822,18.84835],[95.85424,18.84916],[95.85089,18.85152],[95.85006,18.85519],[95.85056,18.86052],[95.84989,18.86585],[95.86034,18.86725],[95.86271,18.86816],[95.86366,18.86952],[95.86698,18.86998],[95.86743,18.87495],[95.86458,18.87675],[95.8641,18.87901],[95.8603,18.87945],[95.85982,18.88035],[95.85744,18.88079],[95.85457,18.88801],[95.85172,18.88935],[95.85124,18.89116],[95.85029,18.89116],[95.85028,18.89206],[95.85217,18.89342],[95.85544,18.90743],[95.85781,18.90835],[95.85827,18.91422],[95.85732,18.91422],[95.85589,18.91602],[95.85682,18.92009],[95.85348,18.92505],[95.85394,18.92956],[95.85298,18.93001],[95.85053,18.94988],[95.85148,18.95079],[95.85097,18.95937],[95.84953,18.96388],[95.85095,18.96569],[95.85141,18.96931],[95.85425,18.97157],[95.85568,18.97068],[95.85948,18.97024],[95.8609,18.97115],[95.8604,18.97792],[95.86514,18.97839],[95.86561,18.9811],[95.86465,18.9829],[95.8646,18.99736],[95.86125,18.99645],[95.85438,18.99944],[95.85365,19.00319],[95.84938,19.00318],[95.84556,19.00678],[95.83706,19.01945],[95.83586,19.02512],[95.83616,19.03199],[95.84154,19.04543],[95.84333,19.0529],[95.85583,19.05289],[95.86202,19.05111],[95.8625,19.0502],[95.85916,19.06037],[95.86244,19.06544],[95.86322,19.06876],[95.85957,19.06962],[95.85719,19.07097],[95.85576,19.07322],[95.85433,19.07366],[95.84661,19.08515],[95.84363,19.098],[95.84512,19.10905],[95.8502,19.13264],[95.84184,19.1416],[95.83404,19.15761],[95.83261,19.15806],[95.83118,19.15986],[95.82708,19.15955],[95.82525,19.17382],[95.8257,19.17875],[95.82256,19.1895],[95.82323,19.19779],[95.82502,19.20227],[95.82906,19.20765],[95.83193,19.20774],[95.83219,19.21258],[95.83622,19.22221],[95.83798,19.22025],[95.84139,19.22043],[95.8414,19.21952],[95.84317,19.22445],[95.84675,19.22691],[95.85551,19.22742],[95.85325,19.23206],[95.8472,19.24035],[95.84541,19.24438],[95.84698,19.24797],[95.85101,19.25088],[95.85213,19.25603],[95.85773,19.25917],[95.85034,19.27821],[95.84922,19.28336],[95.85919,19.29096],[95.85638,19.29859],[95.85862,19.30621],[95.85526,19.31069],[95.85526,19.31494],[95.85638,19.31942],[95.85526,19.3239],[95.84563,19.33869],[95.84205,19.34675],[95.83354,19.35549],[95.82794,19.35907],[95.82233,19.3687],[95.82009,19.37587],[95.81449,19.38483],[95.81472,19.38864],[95.81928,19.3929],[95.81975,19.39606],[95.82165,19.39652],[95.81965,19.40253],[95.81315,19.41037],[95.81301,19.4141],[95.81449,19.41933],[95.81225,19.42336],[95.81225,19.42874],[95.81405,19.43322],[95.80912,19.43792],[95.80329,19.44554],[95.80128,19.45069],[95.79725,19.45383],[95.79487,19.45963],[95.78329,19.46395],[95.77889,19.47077],[95.77092,19.47248],[95.76021,19.48174],[95.75917,19.48572],[95.75679,19.48961],[95.75168,19.49088],[95.74613,19.4908],[95.73868,19.50485],[95.73514,19.51607],[95.73012,19.52197],[95.73218,19.52463],[95.7372,19.52728],[95.74281,19.53644],[95.73927,19.54116],[95.72982,19.54913],[95.72746,19.55533],[95.72303,19.56153],[95.72569,19.56595],[95.72717,19.57245],[95.72698,19.57514],[95.73396,19.57717],[95.73484,19.57865],[95.72768,19.58638],[95.72529,19.58797],[95.72835,19.59104],[95.72704,19.59457],[95.7291,19.5982],[95.73484,19.59842],[95.73055,19.60374],[95.72864,19.61053],[95.72864,19.61554],[95.72569,19.6185],[95.71815,19.62072],[95.71616,19.62433],[95.71654,19.62529],[95.71268,19.6283],[95.71285,19.63035],[95.71654,19.63739],[95.71821,19.64485],[95.7208,19.64298],[95.72578,19.64831],[95.73159,19.64536],[95.73691,19.6492],[95.73897,19.65392],[95.7437,19.65864],[95.74665,19.65982],[95.74753,19.67311],[95.74993,19.67844],[95.7517,19.68028],[95.75412,19.68202],[95.75684,19.68015],[95.75946,19.68023],[95.762,19.67927],[95.76495,19.67998],[95.76659,19.67944],[95.76726,19.68182],[95.7639,19.68666],[95.76997,19.69554],[95.76908,19.70115],[95.76982,19.70548],[95.77528,19.70912],[95.77558,19.71473],[95.7803,19.71886],[95.78059,19.72299],[95.77794,19.72683],[95.77823,19.72978],[95.77396,19.73326],[95.77233,19.74218],[95.76766,19.74368],[95.76497,19.74318],[95.76207,19.75115],[95.76355,19.75841],[95.76711,19.75938],[95.77233,19.7593],[95.77532,19.76945],[95.77369,19.77177],[95.78709,19.7779],[95.78679,19.78557],[95.78437,19.79188],[95.79152,19.79797],[95.78886,19.80151],[95.79034,19.80771],[95.79034,19.81096],[95.79753,19.81908],[95.79966,19.8187],[95.80657,19.81332],[95.81041,19.81627],[95.81749,19.81657],[95.81781,19.8266],[95.82192,19.83811],[95.82001,19.84333],[95.81657,19.84442],[95.81307,19.84856],[95.80984,19.85003],[95.80774,19.85318],[95.80808,19.85667],[95.80534,19.8582],[95.80729,19.86083],[95.80886,19.86145],[95.8098,19.86362],[95.80846,19.86628],[95.81103,19.87428],[95.81053,19.87834],[95.80696,19.88481],[95.80679,19.88857],[95.80493,19.88991],[95.80335,19.89466],[95.79927,19.90098],[95.79605,19.90316],[95.79255,19.90349],[95.78759,19.90859],[95.78855,19.91184],[95.78837,19.91577],[95.7901,19.91898],[95.79188,19.92553],[95.79127,19.93142],[95.79635,19.93894],[95.79649,19.94059],[95.79862,19.94008],[95.80096,19.93804],[95.8043,19.93731],[95.80972,19.93694],[95.81171,19.93851],[95.81537,19.93893],[95.81922,19.93754],[95.82203,19.93132],[95.82793,19.93172],[95.83462,19.92817],[95.83659,19.92817],[95.84433,19.9342],[95.84915,19.93598],[95.85877,19.93785],[95.86416,19.93553],[95.86815,19.93718],[95.87042,19.94066],[95.87979,19.93609]]],[[[96.14645,22.79745],[96.14914,22.79298],[96.15249,22.79432],[96.15606,22.79466],[96.15772,22.79279],[96.15831,22.78381],[96.15943,22.78157],[96.16367,22.78157],[96.16636,22.77911],[96.17575,22.77822],[96.17799,22.77576],[96.17777,22.77352],[96.18559,22.76569],[96.1885,22.76726],[96.19633,22.76726],[96.19991,22.76591],[96.20036,22.76256],[96.19946,22.75719],[96.2027,22.75572],[96.20334,22.75293],[96.20652,22.74846],[96.20438,22.74578],[96.20505,22.74109],[96.20416,22.73751],[96.20841,22.73102],[96.2167,22.72607],[96.21557,22.72029],[96.21758,22.7176],[96.22183,22.71492],[96.22384,22.71134],[96.22227,22.70396],[96.21713,22.69456],[96.21825,22.69278],[96.22496,22.69345],[96.22872,22.69584],[96.23078,22.69876],[96.24173,22.70038],[96.24173,22.6968],[96.23779,22.69358],[96.23435,22.69322],[96.23547,22.68562],[96.23748,22.68182],[96.23721,22.67804],[96.23323,22.67533],[96.23569,22.6675],[96.23638,22.65968],[96.23759,22.65542],[96.2348,22.65184],[96.2399,22.6393],[96.25001,22.63239],[96.25432,22.62531],[96.25878,22.62152],[96.25694,22.61583],[96.25694,22.61293],[96.26298,22.61069],[96.26499,22.60532],[96.26746,22.60376],[96.26851,22.60639],[96.27206,22.60622],[96.27238,22.60264],[96.27081,22.59861],[96.27193,22.59571],[96.27797,22.59302],[96.27931,22.58542],[96.28477,22.58514],[96.28714,22.57938],[96.29534,22.57652],[96.29765,22.57312],[96.29787,22.56998],[96.29631,22.5673],[96.29653,22.56104],[96.29854,22.55768],[96.29787,22.54963],[96.30247,22.54381],[96.30211,22.54308],[96.30041,22.54303],[96.29702,22.54504],[96.29228,22.54404],[96.28937,22.53353],[96.2896,22.52883],[96.30018,22.5222],[96.30101,22.5168],[96.3066,22.51876],[96.31419,22.5147],[96.31375,22.51787],[96.31487,22.521],[96.32236,22.52042],[96.32454,22.51784],[96.31867,22.51384],[96.32717,22.50557],[96.33145,22.50396],[96.33523,22.49036],[96.3359,22.48052],[96.33365,22.46723],[96.33208,22.4679],[96.33075,22.46745],[96.32855,22.46263],[96.3201,22.45367],[96.3209,22.42782],[96.32448,22.37533],[96.32932,22.36809],[96.3376,22.36659],[96.3562,22.36821],[96.35759,22.36733],[96.35669,22.35784],[96.35778,22.34891],[96.3548,22.34206],[96.35394,22.31045],[96.35245,22.29494],[96.34887,22.28242],[96.34708,22.25945],[96.34738,22.24872],[96.35596,22.24071],[96.36279,22.23937],[96.36965,22.2343],[96.36756,22.22536],[96.36756,22.21432],[96.36935,22.2015],[96.36219,22.19434],[96.36637,22.1845],[96.37442,22.17496],[96.37912,22.16047],[96.37098,22.1355],[96.36845,22.13231],[96.36901,22.10607],[96.36693,22.10112],[96.36564,22.09387],[96.36511,22.07118],[96.36283,22.06264],[96.35888,22.05521],[96.35955,22.05091],[96.35866,22.04509],[96.35172,22.04129],[96.3477,22.03525],[96.34568,22.02921],[96.34546,22.02317],[96.33539,22.01244],[96.33361,22.00327],[96.32265,21.99499],[96.30923,21.99007],[96.3052,21.99153],[96.28734,21.98024],[96.28509,21.97437],[96.28558,21.97063],[96.28999,21.96905],[96.2929,21.96547],[96.28954,21.95652],[96.29156,21.95406],[96.28977,21.95205],[96.29074,21.94664],[96.29178,21.94579],[96.29133,21.94064],[96.2882,21.93639],[96.28527,21.93631],[96.27806,21.92605],[96.27227,21.91748],[96.27288,21.91222],[96.26751,21.90625],[96.26565,21.89976],[96.26483,21.88627],[96.26244,21.8815],[96.26735,21.87604],[96.26314,21.8701],[96.26165,21.86951],[96.25181,21.87666],[96.24207,21.87396],[96.24358,21.8707],[96.24574,21.86122],[96.25804,21.85093],[96.25849,21.84399],[96.261,21.83478],[96.25989,21.82953],[96.26117,21.82655],[96.26072,21.82006],[96.25737,21.81045],[96.26417,21.80322],[96.2667,21.79421],[96.27429,21.78184],[96.27257,21.78124],[96.2801,21.77093],[96.28804,21.76798],[96.30007,21.76708],[96.31345,21.75845],[96.31595,21.75414],[96.31368,21.74461],[96.31867,21.73939],[96.32911,21.73077],[96.33274,21.72033],[96.34001,21.71806],[96.34772,21.70353],[96.35317,21.69945],[96.35612,21.70058],[96.36179,21.69922],[96.36837,21.694],[96.37336,21.69196],[96.37813,21.68742],[96.38403,21.68606],[96.38902,21.68856],[96.39379,21.68515],[96.39946,21.68561],[96.40377,21.68629],[96.41262,21.68969],[96.41807,21.68969],[96.42669,21.68515],[96.43418,21.68311],[96.44031,21.67721],[96.45211,21.67245],[96.46482,21.66859],[96.47526,21.67562],[96.48297,21.68561],[96.48683,21.68901],[96.4891,21.70013],[96.49386,21.70376],[96.50067,21.7142],[96.50181,21.72078],[96.50408,21.7235],[96.50289,21.72793],[96.50362,21.72963],[96.50216,21.73185],[96.50362,21.73485],[96.50313,21.74267],[96.50196,21.74614],[96.49816,21.75086],[96.49708,21.75755],[96.49428,21.76434],[96.49727,21.77456],[96.50067,21.78183],[96.50029,21.79182],[96.50294,21.79476],[96.52042,21.79612],[96.53222,21.80157],[96.53744,21.80611],[96.54265,21.80611],[96.54447,21.80838],[96.54901,21.8086],[96.55355,21.81133],[96.55695,21.81065],[96.57533,21.81269],[96.58169,21.81745],[96.58464,21.81587],[96.59553,21.81632],[96.60529,21.82199],[96.61323,21.8322],[96.61593,21.83703],[96.6152,21.85308],[96.61643,21.85811],[96.61947,21.86312],[96.62019,21.86823],[96.62221,21.87119],[96.62833,21.87103],[96.63519,21.87547],[96.64205,21.87547],[96.65577,21.87385],[96.67957,21.87829],[96.68496,21.88601],[96.69167,21.88878],[96.70539,21.89282],[96.70583,21.89897],[96.71548,21.90452],[96.72153,21.90653],[96.73282,21.90734],[96.74089,21.91218],[96.74232,21.91926],[96.7534,21.92388],[96.76348,21.93195],[96.76481,21.94674],[96.76232,21.9556],[96.76098,21.95871],[96.75705,21.96288],[96.75574,21.96856],[96.75574,21.97722],[96.75762,21.98307],[96.75275,21.987],[96.74415,21.99208],[96.73829,22.00029],[96.73634,22.01044],[96.7379,22.01747],[96.74454,22.02372],[96.75001,22.02372],[96.75648,22.01808],[96.7552,22.01685],[96.75406,22.00879],[96.75844,22.00155],[96.75891,21.99827],[96.76259,21.99634],[96.76893,21.9951],[96.77108,21.99376],[96.77634,21.98641],[96.78141,21.98207],[96.78152,21.97723],[96.79616,21.95909],[96.80315,21.94462],[96.80512,21.94188],[96.8165,21.93187],[96.81666,21.92669],[96.81584,21.92447],[96.81239,21.92023],[96.81189,21.91807],[96.81253,21.91737],[96.81706,21.91697],[96.81912,21.91574],[96.82133,21.90885],[96.82944,21.89633],[96.83218,21.89387],[96.83951,21.89133],[96.84289,21.88833],[96.84583,21.88436],[96.84814,21.87704],[96.85497,21.87212],[96.85696,21.86922],[96.85757,21.86577],[96.85921,21.86341],[96.85924,21.85974],[96.852,21.85568],[96.84829,21.85608],[96.84722,21.85062],[96.84369,21.84633],[96.84893,21.83832],[96.85888,21.82944],[96.86514,21.82614],[96.87473,21.82416],[96.87568,21.82303],[96.87525,21.81909],[96.88114,21.80573],[96.88053,21.80217],[96.87816,21.79714],[96.87865,21.79325],[96.88166,21.79074],[96.88141,21.78566],[96.88296,21.78329],[96.88921,21.78178],[96.89167,21.77851],[96.89175,21.77613],[96.88954,21.77023],[96.88944,21.7672],[96.89137,21.75771],[96.89538,21.74667],[96.89598,21.74285],[96.89334,21.73705],[96.89324,21.7351],[96.8915,21.73428],[96.86987,21.73578],[96.86363,21.73973],[96.84921,21.74135],[96.84646,21.74289],[96.84363,21.74605],[96.83982,21.74809],[96.83927,21.75041],[96.83587,21.75508],[96.82826,21.76177],[96.82063,21.7662],[96.81252,21.76726],[96.80957,21.77275],[96.80701,21.77435],[96.80634,21.77078],[96.80731,21.76592],[96.807,21.75437],[96.8053,21.75046],[96.80682,21.74713],[96.80672,21.74475],[96.80367,21.74225],[96.80059,21.74417],[96.79749,21.74047],[96.79545,21.74218],[96.79326,21.74109],[96.78927,21.74106],[96.78483,21.73454],[96.78193,21.73441],[96.77646,21.73016],[96.77418,21.72539],[96.76637,21.71583],[96.76104,21.7147],[96.75534,21.71617],[96.75366,21.71778],[96.74961,21.71721],[96.74385,21.71252],[96.74144,21.70915],[96.74066,21.7045],[96.73788,21.70459],[96.734,21.71147],[96.73305,21.7147],[96.72235,21.72424],[96.71956,21.7254],[96.71435,21.7232],[96.70402,21.72571],[96.70265,21.72279],[96.7021,21.719],[96.69767,21.71368],[96.68306,21.71145],[96.67624,21.70217],[96.67578,21.69645],[96.66176,21.68496],[96.65794,21.68032],[96.65357,21.67295],[96.6421,21.66749],[96.63091,21.65875],[96.63237,21.65022],[96.63439,21.64483],[96.63314,21.64094],[96.62845,21.641],[96.62217,21.63554],[96.61643,21.62926],[96.61443,21.62449],[96.61201,21.62246],[96.60524,21.62352],[96.60032,21.61909],[96.59703,21.61712],[96.59345,21.61623],[96.58088,21.59527],[96.57083,21.59348],[96.56019,21.58865],[96.55621,21.59091],[96.55281,21.59594],[96.54462,21.59895],[96.5367,21.59622],[96.52967,21.58549],[96.52577,21.58529],[96.51949,21.58311],[96.50785,21.5769],[96.4831,21.57208],[96.47108,21.56658],[96.46902,21.56376],[96.46705,21.55662],[96.46566,21.55628],[96.45178,21.55564],[96.44341,21.55989],[96.43542,21.56135],[96.41782,21.55635],[96.41067,21.55089],[96.40812,21.55055],[96.39905,21.55275],[96.39627,21.55208],[96.39016,21.54771],[96.38401,21.54696],[96.37761,21.5446],[96.37599,21.54469],[96.36926,21.54914],[96.36228,21.54631],[96.3605,21.54883],[96.343,21.54843],[96.34084,21.55083],[96.33286,21.54668],[96.33316,21.54192],[96.33071,21.53838],[96.3251,21.53555],[96.32057,21.53546],[96.32557,21.52816],[96.32533,21.52379],[96.33163,21.50275],[96.33644,21.49482],[96.34071,21.4901],[96.34125,21.48762],[96.33603,21.48823],[96.32963,21.48739],[96.32026,21.48017],[96.32472,21.47771],[96.32837,21.47435],[96.32979,21.47198],[96.3284,21.471],[96.32458,21.47054],[96.31715,21.47134],[96.31612,21.47004],[96.31613,21.46831],[96.3178,21.46542],[96.3178,21.4625],[96.31504,21.46189],[96.3112,21.46511],[96.30229,21.4688],[96.29599,21.46803],[96.28708,21.46327],[96.29018,21.45769],[96.29072,21.44965],[96.29548,21.44029],[96.29609,21.43662],[96.29183,21.43324],[96.2922,21.43055],[96.29396,21.42764],[96.29423,21.42246],[96.29288,21.4109],[96.29362,21.40556],[96.29752,21.39527],[96.29957,21.39237],[96.29637,21.38652],[96.29581,21.38419],[96.29629,21.38166],[96.30571,21.37104],[96.30547,21.36806],[96.29855,21.36579],[96.29063,21.3617],[96.29063,21.35706],[96.29227,21.35323],[96.29522,21.35137],[96.30921,21.35616],[96.31101,21.35488],[96.31319,21.35101],[96.31348,21.34399],[96.31247,21.33977],[96.31296,21.33578],[96.31781,21.32416],[96.32034,21.32072],[96.32385,21.30898],[96.32347,21.30595],[96.32018,21.30382],[96.32064,21.29048],[96.32266,21.28402],[96.32442,21.28155],[96.32488,21.27833],[96.32872,21.27636],[96.32981,21.27106],[96.33286,21.26919],[96.33505,21.26446],[96.33589,21.2609],[96.33557,21.25723],[96.33257,21.25294],[96.33637,21.24068],[96.34554,21.2289],[96.35593,21.22283],[96.35878,21.21972],[96.36542,21.21545],[96.36555,21.21415],[96.35885,21.21032],[96.35864,21.20838],[96.36164,21.20311],[96.36286,21.20215],[96.3689,21.20133],[96.37095,21.19832],[96.37043,21.18989],[96.36915,21.18808],[96.37463,21.18364],[96.37744,21.17574],[96.37112,21.17153],[96.36593,21.16588],[96.36535,21.16005],[96.3628,21.1596],[96.35711,21.16052],[96.35231,21.16513],[96.34559,21.16465],[96.33125,21.16798],[96.32849,21.16419],[96.32224,21.16415],[96.31486,21.16907],[96.30612,21.16879],[96.30257,21.16798],[96.29711,21.17207],[96.29356,21.17344],[96.28241,21.16702],[96.26612,21.16792],[96.26107,21.16606],[96.26107,21.16151],[96.25124,21.16006],[96.24843,21.15505],[96.24577,21.15503],[96.23239,21.15104],[96.22803,21.14422],[96.2185,21.13419],[96.21768,21.12889],[96.21886,21.1262],[96.22414,21.12009],[96.22535,21.11319],[96.23058,21.10264],[96.23036,21.10069],[96.23198,21.09509],[96.2302,21.08853],[96.22516,21.0844],[96.22024,21.08179],[96.21895,21.07837],[96.21694,21.07684],[96.2059,21.07362],[96.20361,21.07101],[96.20431,21.06961],[96.21147,21.06459],[96.21515,21.05675],[96.21517,21.05229],[96.20672,21.04385],[96.20791,21.03929],[96.21423,21.03287],[96.21394,21.02563],[96.21763,21.02036],[96.21788,21.0182],[96.21684,21.0169],[96.21691,21.00858],[96.21833,21.00525],[96.22061,21.00278],[96.22329,21.0015],[96.22792,21.00251],[96.23292,21.00169],[96.23847,21.00389],[96.24402,21.00178],[96.24758,20.99594],[96.24855,20.98758],[96.24616,20.98312],[96.24576,20.98033],[96.25369,20.98069],[96.25646,20.97939],[96.2618,20.97418],[96.2618,20.97325],[96.26754,20.96877],[96.2719,20.96728],[96.27825,20.9669],[96.28836,20.96856],[96.29392,20.96855],[96.29788,20.96762],[96.30501,20.96333],[96.33358,20.95093],[96.33655,20.94869],[96.33877,20.94534],[96.34288,20.94329],[96.35768,20.94136],[96.36403,20.94197],[96.36628,20.94504],[96.37242,20.94525],[96.37734,20.94238],[96.38062,20.94259],[96.38129,20.93808],[96.38267,20.93627],[96.38595,20.93543],[96.38782,20.93319],[96.38772,20.93078],[96.3891,20.92947],[96.39213,20.929],[96.39451,20.93123],[96.40417,20.9348],[96.40581,20.93726],[96.41052,20.94013],[96.41302,20.93902],[96.4157,20.9391],[96.41798,20.93965],[96.423,20.94374],[96.42772,20.943],[96.43047,20.9375],[96.43224,20.9308],[96.43411,20.92699],[96.43384,20.91807],[96.44191,20.91332],[96.44736,20.91164],[96.4544,20.91107],[96.4593,20.90939],[96.46336,20.90706],[96.46786,20.90269],[96.46885,20.9025],[96.47154,20.90565],[96.47819,20.90918],[96.48156,20.90861],[96.48633,20.9106],[96.49129,20.91445],[96.49205,20.9184],[96.49578,20.92119],[96.50748,20.92138],[96.51133,20.91638],[96.51666,20.90596],[96.51882,20.90057],[96.5194,20.8935],[96.52295,20.8868],[96.52831,20.8881],[96.53148,20.88642],[96.53723,20.88585],[96.54338,20.88789],[96.54676,20.8916],[96.54974,20.89327],[96.55369,20.88713],[96.55745,20.88304],[96.57355,20.87139],[96.57554,20.86233],[96.57502,20.85373],[96.57404,20.8516],[96.5752,20.84505],[96.57499,20.83947],[96.57359,20.83692],[96.56872,20.83413],[96.56822,20.83144],[96.56267,20.82977],[96.55999,20.82764],[96.55939,20.82569],[96.56482,20.82048],[96.56252,20.81174],[96.56458,20.80658],[96.56357,20.79929],[96.56464,20.78999],[96.56392,20.78256],[96.5608,20.78079],[96.55564,20.77959],[96.53905,20.77822],[96.52979,20.77536],[96.52439,20.77518],[96.52027,20.77742],[96.51884,20.78025],[96.51493,20.78337],[96.51175,20.7844],[96.5077,20.78375],[96.49727,20.77931],[96.4927,20.77643],[96.48418,20.773],[96.47862,20.7693],[96.48414,20.75702],[96.48313,20.75368],[96.47856,20.75015],[96.47241,20.74728],[96.46715,20.74589],[96.46367,20.74376],[96.45611,20.73345],[96.45501,20.73067],[96.45559,20.72648],[96.45698,20.72416],[96.46029,20.72201],[96.46431,20.72108],[96.46361,20.71848],[96.45993,20.71402],[96.45903,20.711],[96.45892,20.70873],[96.46139,20.70691],[96.46069,20.70342],[96.45482,20.69684],[96.43994,20.69669],[96.43927,20.69248],[96.44264,20.69077],[96.44473,20.68548],[96.44281,20.68274],[96.4493,20.66887],[96.45234,20.65836],[96.45253,20.65381],[96.46045,20.64905],[96.46638,20.64217],[96.46934,20.63566],[96.47229,20.62394],[96.47545,20.62227],[96.47901,20.61743],[96.47939,20.61371],[96.48434,20.60868],[96.49087,20.60626],[96.50911,20.60512],[96.51328,20.60195],[96.51485,20.59786],[96.51444,20.59358],[96.51166,20.58987],[96.51382,20.58354],[96.51698,20.57926],[96.52009,20.57764],[96.52392,20.5774],[96.5271,20.57832],[96.52783,20.58378],[96.53381,20.58909],[96.54067,20.59728],[96.54709,20.59662],[96.55284,20.59751],[96.55107,20.58024],[96.54665,20.5747],[96.54352,20.56584],[96.5449,20.56027],[96.54448,20.5532],[96.54643,20.53796],[96.54639,20.52216],[96.54359,20.51249],[96.5416,20.50989],[96.53683,20.50711],[96.53327,20.50656],[96.52218,20.51104],[96.51682,20.509],[96.51405,20.50975],[96.50969,20.51236],[96.49241,20.50829],[96.49042,20.50532],[96.48862,20.49975],[96.49039,20.49491],[96.49474,20.49082],[96.49651,20.48728],[96.49511,20.47948],[96.48955,20.47762],[96.48003,20.47745],[96.47625,20.47486],[96.47347,20.47058],[96.47088,20.46613],[96.46867,20.45758],[96.46449,20.4509],[96.46686,20.44606],[96.46901,20.43583],[96.47118,20.43229],[96.47038,20.43044],[96.46543,20.431],[96.46325,20.43045],[96.46125,20.42673],[96.46223,20.42209],[96.46697,20.4152],[96.46676,20.40944],[96.46873,20.40237],[96.46871,20.39494],[96.46969,20.39084],[96.47402,20.38136],[96.47341,20.37485],[96.47458,20.36965],[96.47716,20.36704],[96.48112,20.3649],[96.48458,20.36043],[96.49172,20.35633],[96.49355,20.35431],[96.49431,20.34824],[96.49782,20.34303],[96.49772,20.34136],[96.49434,20.33769],[96.49602,20.33709],[96.4984,20.33829],[96.50028,20.33801],[96.49934,20.33611],[96.4969,20.33402],[96.49431,20.32798],[96.49469,20.31952],[96.49646,20.31543],[96.50597,20.30649],[96.50871,20.30277],[96.51127,20.29691],[96.51552,20.29296],[96.51653,20.28975],[96.51602,20.28538],[96.527,20.27793],[96.5256,20.27505],[96.52212,20.27208],[96.52122,20.27032],[96.52162,20.2686],[96.52567,20.26669],[96.53205,20.25831],[96.53328,20.25543],[96.53278,20.25338],[96.53475,20.24506],[96.53969,20.23572],[96.54146,20.23088],[96.54136,20.22837],[96.54323,20.2253],[96.54679,20.22186],[96.53346,20.20779],[96.53177,20.20738],[96.52426,20.21046],[96.51441,20.19979],[96.50685,20.19552],[96.50208,20.19037],[96.50098,20.18763],[96.4973,20.18429],[96.48876,20.17993],[96.48845,20.17696],[96.48969,20.17324],[96.48962,20.16854],[96.48863,20.16594],[96.48584,20.16274],[96.48197,20.16093],[96.47125,20.153],[96.466,20.1519],[96.46047,20.15413],[96.45779,20.15339],[96.44936,20.14783],[96.44533,20.14035],[96.44225,20.13854],[96.4409,20.13641],[96.4436,20.12307],[96.44746,20.12078],[96.44929,20.11869],[96.45219,20.11223],[96.45603,20.09772],[96.45532,20.09438],[96.45283,20.08927],[96.46056,20.08814],[96.46402,20.08554],[96.4657,20.08093],[96.46881,20.07591],[96.47584,20.07],[96.46932,20.06238],[96.46881,20.05746],[96.46781,20.05597],[96.46206,20.05394],[96.45135,20.05182],[96.44302,20.05188],[96.4439,20.04783],[96.44647,20.04211],[96.44371,20.03272],[96.44117,20.02962],[96.43332,20.02461],[96.43138,20.02159],[96.42845,20.01951],[96.42518,20.01877],[96.42032,20.02035],[96.40517,20.02986],[96.4026,20.03051],[96.39523,20.01937],[96.37789,20.02385],[96.37106,20.02433],[96.36678,20.01811],[96.36391,20.01635],[96.36349,20.013],[96.37267,20.00016],[96.37422,19.99561],[96.37723,19.99225],[96.37834,19.98362],[96.38642,19.97678],[96.39203,19.96855],[96.39372,19.96338],[96.40368,19.9562],[96.41068,19.94993],[96.41491,19.94262],[96.41914,19.93971],[96.42222,19.9329],[96.44201,19.91519],[96.44233,19.91343],[96.44122,19.90917],[96.44185,19.90687],[96.44534,19.90528],[96.44759,19.90209],[96.44896,19.90161],[96.44974,19.9006],[96.45,19.89729],[96.45519,19.89464],[96.45501,19.89365],[96.44742,19.88879],[96.44713,19.8854],[96.44441,19.87995],[96.44386,19.87695],[96.44378,19.86507],[96.45045,19.85634],[96.45429,19.85004],[96.45386,19.84917],[96.4493,19.84318],[96.44557,19.84209],[96.44423,19.83958],[96.44078,19.83656],[96.43398,19.82598],[96.42798,19.82533],[96.40937,19.8184],[96.40362,19.81139],[96.3985,19.80712],[96.39706,19.80312],[96.39708,19.80093],[96.39341,19.79815],[96.38685,19.79113],[96.38367,19.78989],[96.37982,19.79048],[96.37676,19.79311],[96.37418,19.79854],[96.37244,19.7992],[96.36258,19.79281],[96.33874,19.79078],[96.33288,19.78921],[96.3282,19.78278],[96.32914,19.77994],[96.32837,19.77422],[96.32746,19.77269],[96.31747,19.75973],[96.30649,19.7513],[96.3038,19.74868],[96.30206,19.74516],[96.30169,19.74292],[96.30462,19.73657],[96.30421,19.73435],[96.30209,19.73212],[96.29745,19.73011],[96.29675,19.72799],[96.29705,19.72647],[96.30028,19.72244],[96.30038,19.71931],[96.29725,19.71668],[96.29271,19.71557],[96.28978,19.71295],[96.28686,19.72133],[96.28413,19.72526],[96.2812,19.72688],[96.27363,19.72657],[96.26031,19.73152],[96.2588,19.73334],[96.25315,19.73616],[96.25315,19.74403],[96.25143,19.74928],[96.24679,19.75352],[96.23871,19.75554],[96.23589,19.75746],[96.23513,19.7597],[96.2329,19.75948],[96.22678,19.76113],[96.19793,19.76473],[96.19122,19.76403],[96.18547,19.76266],[96.18429,19.76056],[96.18436,19.75892],[96.18861,19.75478],[96.18611,19.7525],[96.18322,19.7518],[96.18384,19.74958],[96.18108,19.74656],[96.17977,19.74704],[96.17905,19.74954],[96.17751,19.75031],[96.1765,19.74763],[96.17331,19.74829],[96.17413,19.74608],[96.1737,19.74532],[96.17168,19.74594],[96.16996,19.74836],[96.16786,19.74605],[96.16821,19.74368],[96.16617,19.74255],[96.16104,19.74131],[96.15567,19.74115],[96.15294,19.74014],[96.15002,19.74228],[96.14681,19.74246],[96.14467,19.74579],[96.14482,19.7513],[96.14117,19.76816],[96.14459,19.78307],[96.14487,19.78902],[96.14695,19.79222],[96.1608,19.80193],[96.16225,19.805],[96.16369,19.81164],[96.1644,19.81953],[96.16143,19.83646],[96.15804,19.84959],[96.15447,19.8756],[96.15206,19.88533],[96.15222,19.88838],[96.15393,19.89235],[96.15176,19.89573],[96.14875,19.91193],[96.14656,19.93243],[96.14706,19.93842],[96.14882,19.93947],[96.15732,19.94091],[96.15779,19.94247],[96.15109,19.95331],[96.14833,19.96141],[96.15083,19.97727],[96.14892,19.97869],[96.15029,19.98296],[96.14846,19.98885],[96.14704,19.9904],[96.14646,19.99442],[96.1499,19.99951],[96.15073,20.00354],[96.14714,20.00737],[96.14644,20.01823],[96.14791,20.02509],[96.14633,20.02931],[96.12398,20.0262],[96.11035,20.0254],[96.10654,20.02587],[96.10282,20.02723],[96.09984,20.02939],[96.09259,20.03609],[96.08793,20.03755],[96.08368,20.03811],[96.07322,20.03663],[96.06,20.03703],[96.05547,20.0351],[96.05188,20.03507],[96.04909,20.03565],[96.04726,20.03871],[96.03791,20.0433],[96.01391,20.04331],[96.01419,20.04802],[95.99069,20.04206],[95.97962,20.04365],[95.97566,20.05076],[95.96389,20.05808],[95.96345,20.05454],[95.95389,20.05052],[95.93823,20.04832],[95.93532,20.04483],[95.92938,20.04483],[95.92503,20.04206],[95.91712,20.0389],[95.91227,20.04644],[95.90926,20.05305],[95.90228,20.05059],[95.8881,20.05051],[95.87856,20.05182],[95.86738,20.05186],[95.8628,20.05365],[95.85513,20.05512],[95.85132,20.05484],[95.84611,20.0506],[95.7814,20.04905],[95.77983,20.0557],[95.78736,20.05689],[95.7896,20.06209],[95.79137,20.06042],[95.80353,20.06199],[95.80524,20.06483],[95.80479,20.06928],[95.80536,20.07225],[95.8024,20.07562],[95.80183,20.08356],[95.79958,20.08722],[95.80353,20.09028],[95.80344,20.09207],[95.80133,20.09313],[95.80358,20.09676],[95.80775,20.10071],[95.80835,20.10329],[95.81693,20.10655],[95.81693,20.10955],[95.81892,20.11104],[95.82113,20.11492],[95.82328,20.11591],[95.82297,20.11999],[95.82509,20.1212],[95.82631,20.12488],[95.82854,20.12494],[95.83276,20.12868],[95.83418,20.13549],[95.83418,20.14401],[95.82746,20.14828],[95.82294,20.15],[95.80846,20.15915],[95.80102,20.16275],[95.79987,20.16403],[95.79756,20.16442],[95.79506,20.17001],[95.78998,20.17642],[95.7925,20.18257],[95.79101,20.18704],[95.79144,20.20044],[95.78892,20.2025],[95.79011,20.2044],[95.78498,20.21008],[95.78527,20.21364],[95.78399,20.21875],[95.77931,20.22684],[95.77091,20.22785],[95.76994,20.2296],[95.76909,20.23492],[95.77249,20.2411],[95.76853,20.24294],[95.76973,20.24812],[95.76654,20.25685],[95.77037,20.26472],[95.76462,20.2694],[95.75859,20.27115],[95.75698,20.27454],[95.7545,20.27482],[95.75053,20.2732],[95.74161,20.27643],[95.74419,20.2809],[95.74334,20.28494],[95.73887,20.28877],[95.74312,20.29771],[95.74047,20.29943],[95.73929,20.30516],[95.74036,20.30729],[95.73696,20.31085],[95.73504,20.3158],[95.73397,20.32176],[95.73294,20.32363],[95.73012,20.32498],[95.73376,20.32857],[95.73291,20.3341],[95.72842,20.33651],[95.72908,20.33794],[95.7278,20.34496],[95.7238,20.34881],[95.73333,20.35177],[95.74121,20.35113],[95.74504,20.35752],[95.75121,20.36177],[95.75483,20.36326],[95.75632,20.36944],[95.75547,20.3788],[95.75206,20.38689],[95.7527,20.38987],[95.74688,20.39927],[95.74021,20.4059],[95.73726,20.41541],[95.73638,20.42308],[95.73195,20.43105],[95.72781,20.43544],[95.72623,20.43826],[95.72099,20.44187],[95.72073,20.44936],[95.72486,20.46205],[95.73018,20.46677],[95.72811,20.47592],[95.7229,20.47974],[95.71671,20.48595],[95.71187,20.49511],[95.71187,20.49924],[95.71394,20.5078],[95.71211,20.51373],[95.70823,20.51731],[95.70728,20.51973],[95.70362,20.52323],[95.69871,20.52973],[95.69158,20.53194],[95.68804,20.53874],[95.6851,20.5412],[95.67754,20.54424],[95.67518,20.54894],[95.66346,20.5571],[95.65195,20.56241],[95.64044,20.56507],[95.63483,20.56861],[95.62787,20.56652],[95.62109,20.56321],[95.61296,20.56125],[95.60898,20.56669],[95.5997,20.57009],[95.59203,20.57806],[95.58613,20.57747],[95.57875,20.58337],[95.57596,20.58657],[95.5748,20.595],[95.57257,20.59913],[95.57332,20.60287],[95.57139,20.60934],[95.57019,20.62529],[95.57727,20.62824],[95.57959,20.6287],[95.5817,20.62706],[95.58613,20.62912],[95.58642,20.63326],[95.58465,20.64063],[95.58642,20.64447],[95.58701,20.65598],[95.59026,20.66838],[95.59233,20.67074],[95.58998,20.67639],[95.59351,20.68108],[95.59114,20.68875],[95.59852,20.69849],[95.60236,20.69731],[95.61775,20.70235],[95.62184,20.69524],[95.63574,20.68674],[95.63808,20.68196],[95.64693,20.68019],[95.6523,20.67732],[95.65372,20.6734],[95.65815,20.67517],[95.66642,20.67547],[95.67143,20.67724],[95.67734,20.68108],[95.68206,20.68019],[95.68737,20.68226],[95.68974,20.68609],[95.69679,20.68697],[95.69947,20.68558],[95.69919,20.68339],[95.69763,20.68125],[95.70025,20.68017],[95.7018,20.67803],[95.70009,20.67758],[95.69962,20.67668],[95.70249,20.67621],[95.70243,20.67311],[95.70671,20.67299],[95.70745,20.66927],[95.71276,20.66868],[95.71453,20.66573],[95.71837,20.66632],[95.72069,20.66556],[95.72427,20.65628],[95.72811,20.65598],[95.73195,20.661],[95.73519,20.66366],[95.74038,20.66382],[95.73848,20.6614],[95.73916,20.6588],[95.7387,20.65514],[95.74291,20.65381],[95.74446,20.65248],[95.7511,20.65491],[95.75353,20.65447],[95.75619,20.65514],[95.76283,20.65779],[95.76282,20.66299],[95.76637,20.65691],[95.76881,20.65868],[95.77346,20.66001],[95.77279,20.66466],[95.77811,20.66643],[95.77988,20.67108],[95.77944,20.67617],[95.777,20.6806],[95.78298,20.68104],[95.78674,20.68524],[95.78741,20.69321],[95.7956,20.69897],[95.79914,20.69941],[95.80312,20.69809],[95.80644,20.70827],[95.80977,20.7138],[95.82354,20.71659],[95.82438,20.72111],[95.82703,20.72509],[95.8308,20.72775],[95.83832,20.72642],[95.83877,20.73041],[95.84098,20.73528],[95.84519,20.73749],[95.84617,20.74906],[95.8505,20.75144],[95.85205,20.75764],[95.86334,20.76184],[95.86755,20.76959],[95.87339,20.77537],[95.88105,20.77557],[95.88858,20.77136],[95.89345,20.77203],[95.89788,20.77513],[95.90452,20.77336],[95.90629,20.77136],[95.90718,20.76782],[95.91227,20.76406],[95.91581,20.75587],[95.93374,20.74635],[95.93994,20.74568],[95.9457,20.75066],[95.95462,20.74947],[95.96961,20.75078],[95.97368,20.74996],[95.97474,20.7527],[95.98064,20.75272],[95.98289,20.75587],[95.98621,20.75852],[95.99241,20.76052],[95.99533,20.76441],[95.99578,20.76338],[95.99959,20.76376],[95.9995,20.77159],[96.00104,20.77469],[96.00016,20.77778],[96.0099,20.78598],[96.01056,20.78819],[96.01056,20.79572],[96.00215,20.80347],[95.98842,20.80215],[95.98377,20.80663],[95.98337,20.81883],[95.98022,20.82316],[95.9814,20.83011],[95.97471,20.83576],[95.97733,20.85129],[95.97634,20.85681],[95.97555,20.85763],[95.97056,20.85834],[95.96149,20.85836],[95.95669,20.86016],[95.95291,20.86355],[95.94305,20.88771],[95.94225,20.8986],[95.93895,20.9047],[95.93163,20.90734],[95.92987,20.91408],[95.93046,20.92074],[95.93837,20.92287],[95.9432,20.92653],[95.94481,20.93605],[95.95272,20.93781],[95.96913,20.93371],[95.97206,20.93781],[95.97177,20.9507],[95.96327,20.96652],[95.97269,20.99075],[95.9662,20.99039],[95.9638,20.99598],[95.96077,21.00029],[95.931,20.99801],[95.92036,21.00101],[95.89451,20.99956],[95.86501,21.00174],[95.85227,20.99992],[95.84317,21.00138],[95.83771,20.99737],[95.82751,20.99992],[95.81368,20.9941],[95.80712,20.99045],[95.79648,20.99039],[95.79881,20.99467],[95.80502,20.99855],[95.80442,21.00245],[95.80967,21.00429],[95.81404,21.01376],[95.82314,21.02286],[95.82195,21.02666],[95.82396,21.03145],[95.82338,21.0373],[95.82443,21.03935],[95.83088,21.04243],[95.82933,21.06073],[95.82751,21.06837],[95.82387,21.07638],[95.81682,21.08306],[95.82314,21.08949],[95.82678,21.09459],[95.82678,21.09786],[95.83771,21.10405],[95.83734,21.10769],[95.83043,21.10842],[95.82533,21.11097],[95.81805,21.10988],[95.80712,21.10405],[95.80565,21.10219],[95.79928,21.10336],[95.78601,21.12044],[95.78855,21.13864],[95.78681,21.14759],[95.78927,21.15203],[95.79107,21.15277],[95.79478,21.15827],[95.79745,21.15996],[95.79803,21.16309],[95.79685,21.16683],[95.79614,21.17454],[95.79368,21.18101],[95.79085,21.1833],[95.78807,21.18909],[95.78145,21.18902],[95.77833,21.18992],[95.77669,21.19623],[95.77854,21.1985],[95.77818,21.20409],[95.77974,21.20269],[95.77975,21.20569],[95.77768,21.20788],[95.77798,21.21082],[95.78187,21.22173],[95.78437,21.22132],[95.78841,21.22373],[95.79048,21.2215],[95.79423,21.2204],[95.80059,21.22082],[95.80265,21.22163],[95.80356,21.24326],[95.80538,21.25879],[95.80795,21.26768],[95.80778,21.27362],[95.81103,21.27822],[95.8121,21.28253],[95.81625,21.28004],[95.81921,21.28117],[95.81659,21.28773],[95.82055,21.2894],[95.83403,21.28987],[95.84293,21.29234],[95.84477,21.29602],[95.849,21.29848],[95.85926,21.29877],[95.86453,21.30551],[95.86722,21.30768],[95.86902,21.30669],[95.87132,21.30734],[95.8731,21.30691],[95.87489,21.31062],[95.87745,21.31087],[95.88128,21.30857],[95.88295,21.30896],[95.88026,21.31126],[95.88116,21.31228],[95.88022,21.31474],[95.88064,21.31632],[95.88717,21.31778],[95.88826,21.32231],[95.89093,21.32334],[95.89268,21.32346],[95.89407,21.32059],[95.89381,21.31701],[95.89796,21.31812],[95.89926,21.31742],[95.89918,21.31445],[95.90033,21.31292],[95.90353,21.31458],[95.90532,21.31458],[95.90685,21.31624],[95.90979,21.31522],[95.91222,21.31599],[95.91286,21.31778],[95.91218,21.31953],[95.91788,21.31652],[95.91934,21.3121],[95.92267,21.31222],[95.92407,21.31018],[95.92688,21.31056],[95.92827,21.31221],[95.93112,21.31021],[95.93136,21.3066],[95.93635,21.30481],[95.94824,21.31529],[95.9536,21.31389],[95.95688,21.31727],[95.9609,21.31314],[95.96076,21.30826],[95.96788,21.31164],[95.96671,21.31422],[95.96877,21.32533],[95.97806,21.33543],[95.9797,21.34335],[95.97877,21.35139],[95.97123,21.35782],[95.96581,21.35661],[95.95785,21.36083],[95.95573,21.36091],[95.95416,21.36249],[95.95357,21.36037],[95.9502,21.36301],[95.94665,21.37339],[95.94556,21.37912],[95.94611,21.38349],[95.94248,21.3875],[95.94857,21.3925],[95.95512,21.39496],[95.95894,21.39878],[95.96905,21.39878],[95.97505,21.40042],[95.97915,21.40479],[95.98147,21.41478],[95.98048,21.41757],[95.97669,21.41681],[95.96905,21.42118],[95.95812,21.42363],[95.95238,21.42749],[95.94447,21.43101],[95.93901,21.43101],[95.93604,21.4398],[95.93792,21.44235],[95.93967,21.4469],[95.93934,21.45337],[95.94174,21.45394],[95.95212,21.45067],[95.95339,21.45418],[95.95308,21.45757],[95.9562,21.46394],[95.95537,21.4677],[95.96003,21.47497],[95.96155,21.48429],[95.9637,21.48656],[95.96969,21.48656],[95.97423,21.48535],[95.98024,21.48589],[95.97871,21.4946],[95.97265,21.5054],[95.9703,21.50667],[95.96885,21.50855],[95.96946,21.5123],[95.9692,21.52074],[95.97178,21.53068],[95.97123,21.54078],[95.98079,21.5457],[95.98379,21.5457],[95.9864,21.54959],[95.99444,21.54815],[96.00045,21.54488],[96.00525,21.54947],[96.00808,21.54999],[96.01196,21.5533],[96.01316,21.55457],[96.0133,21.55774],[96.01843,21.55754],[96.02036,21.55866],[96.01921,21.56192],[96.02473,21.57166],[96.02838,21.572],[96.0318,21.57088],[96.034,21.57138],[96.03846,21.57522],[96.03846,21.57701],[96.03576,21.57919],[96.03449,21.5774],[96.0258,21.57625],[96.01966,21.57637],[96.01555,21.57963],[96.01669,21.58361],[96.02001,21.58886],[96.02661,21.59315],[96.02886,21.59643],[96.02499,21.60175],[96.01678,21.60339],[96.01686,21.60743],[96.0194,21.60696],[96.01791,21.60828],[96.01742,21.61027],[96.01483,21.60948],[96.01411,21.61101],[96.01248,21.61161],[96.01281,21.61371],[96.01058,21.61295],[96.00847,21.61429],[96.01056,21.61542],[96.01168,21.61751],[96.01508,21.61718],[96.01741,21.62235],[96.01596,21.62694],[96.01002,21.62776],[96.00674,21.62326],[96.00183,21.62203],[95.99978,21.62571],[96.00255,21.62761],[96.0004,21.62869],[96.00371,21.63254],[96.00386,21.6368],[96.00483,21.63798],[96.00269,21.64573],[95.99718,21.65409],[95.99302,21.65485],[95.99178,21.65665],[96.00654,21.6548],[96.01084,21.65643],[96.00957,21.65907],[95.99712,21.65905],[95.99617,21.66395],[95.99908,21.6653],[96.00186,21.66458],[96.00476,21.66589],[96.00527,21.66886],[96.00271,21.66929],[96.00121,21.67088],[96.00233,21.67277],[96.0077,21.67104],[96.00639,21.67537],[96.00717,21.67752],[96.00922,21.6791],[96.01019,21.68124],[96.00904,21.68168],[96.00836,21.68356],[96.01063,21.68513],[96.01311,21.68548],[96.01357,21.68435],[96.01452,21.68647],[96.02097,21.6867],[96.02097,21.68923],[96.01613,21.69211],[96.00899,21.6958],[96.00334,21.6958],[96.0,21.69811],[96.00519,21.70836],[96.01164,21.71366],[96.01244,21.71711],[96.01198,21.71964],[96.01313,21.72345],[96.01713,21.72772],[96.01603,21.73039],[96.01405,21.7306],[96.01228,21.73287],[96.01278,21.73979],[96.01125,21.7458],[96.01314,21.74821],[96.01385,21.75141],[96.01344,21.7524],[96.01168,21.75249],[96.01123,21.75691],[96.00914,21.75932],[96.01198,21.76178],[96.01771,21.76383],[96.01914,21.76547],[96.01796,21.76823],[96.01345,21.7733],[96.01123,21.77064],[96.01079,21.76798],[96.00836,21.76843],[96.00898,21.77232],[96.00171,21.77285],[96.00141,21.77658],[96.0046,21.78042],[96.00378,21.7882],[96.00215,21.78801],[95.99983,21.78581],[95.99861,21.77817],[95.99574,21.77595],[95.99419,21.77706],[95.99542,21.78314],[95.99244,21.78679],[95.98947,21.78861],[95.98762,21.78451],[95.98909,21.78171],[95.98821,21.78038],[95.9829,21.77905],[95.98002,21.7806],[95.98175,21.78386],[95.98822,21.78963],[95.98766,21.79368],[95.98874,21.79659],[95.98489,21.79765],[95.97869,21.79499],[95.97625,21.79787],[95.97338,21.7992],[95.97454,21.8023],[95.97736,21.80254],[95.98023,21.80745],[95.98617,21.80807],[95.9915,21.80561],[95.99559,21.8009],[95.99846,21.8009],[95.99846,21.80499],[96.0001,21.80827],[95.99935,21.8116],[96.00077,21.81164],[96.00237,21.80926],[96.00374,21.80929],[96.00329,21.81969],[95.99643,21.82406],[95.9955,21.82511],[95.99489,21.82831],[95.99272,21.83019],[95.98699,21.83326],[95.98402,21.84992],[95.9857,21.85287],[95.98995,21.85611],[95.99219,21.85889],[95.99192,21.86215],[95.98739,21.868],[95.9915,21.86959],[95.99997,21.88169],[96.00844,21.91044],[96.01274,21.92105],[96.01439,21.93065],[96.01875,21.93777],[96.01641,21.94324],[96.01563,21.95183],[96.0207,21.95925],[96.02422,21.96941],[96.02461,21.97722],[96.01797,21.98504],[96.01523,21.99168],[96.01367,22.0034],[96.01876,22.01908],[96.0191,22.02552],[96.02254,22.046],[96.0164,22.07176],[96.01133,22.08348],[96.00351,22.09637],[95.99726,22.10301],[95.99414,22.11082],[95.99414,22.11903],[95.99218,22.12528],[95.99179,22.14051],[95.99648,22.15223],[95.99765,22.16122],[95.99375,22.16512],[95.98867,22.17333],[95.98867,22.18075],[95.99135,22.19317],[95.99352,22.19486],[95.99515,22.19507],[95.99004,22.20126],[95.98853,22.20703],[95.98646,22.25618],[95.98434,22.27741],[95.97904,22.28561],[95.98579,22.29815],[95.99517,22.29506],[96.00976,22.29638],[96.00859,22.30302],[96.01015,22.31826],[95.99726,22.32842],[95.99735,22.33482],[95.99447,22.33528],[95.98562,22.35253],[95.9818,22.3572],[95.97301,22.36542],[95.9641,22.37901],[95.96165,22.38432],[95.95901,22.39517],[95.95962,22.40771],[95.95783,22.41554],[95.96851,22.43721],[95.96851,22.44489],[95.96447,22.45418],[95.9606,22.46062],[95.96078,22.47512],[95.96606,22.48285],[95.97218,22.48896],[95.97474,22.49271],[95.97379,22.50147],[95.97671,22.50927],[95.98205,22.51042],[95.98618,22.51479],[95.99288,22.51755],[95.99439,22.52585],[95.99568,22.52768],[95.98203,22.54378],[95.97651,22.56152],[95.97338,22.56801],[95.95461,22.58924],[95.94594,22.60113],[95.93763,22.62329],[95.93725,22.6384],[95.93542,22.64143],[95.92713,22.64761],[95.91757,22.65226],[95.91493,22.65506],[95.91065,22.66398],[95.90467,22.67313],[95.90504,22.67681],[95.91031,22.68994],[95.90969,22.69239],[95.90337,22.69995],[95.90011,22.71062],[95.90046,22.71482],[95.90432,22.72253],[95.91483,22.72674],[95.93271,22.7355],[95.93937,22.73726],[95.95339,22.73655],[95.96496,22.74181],[95.96706,22.74532],[95.96846,22.75198],[95.96811,22.7646],[95.96673,22.77588],[95.97057,22.77336],[95.98143,22.75233],[95.98634,22.75443],[95.98949,22.75478],[95.9958,22.75058],[96.00316,22.73515],[96.00597,22.71938],[96.00912,22.71728],[96.01874,22.71721],[96.02629,22.71432],[96.0298,22.71132],[96.03506,22.70851],[96.04423,22.7112],[96.05855,22.70606],[96.06474,22.711],[96.06836,22.70501],[96.07607,22.70501],[96.07748,22.70727],[96.08203,22.70606],[96.07993,22.7015],[96.08098,22.6987],[96.08484,22.70185],[96.088,22.70627],[96.09465,22.70466],[96.09845,22.71297],[96.10376,22.71903],[96.10937,22.73095],[96.11068,22.7386],[96.11305,22.74462],[96.1114,22.74847],[96.10621,22.75277],[96.10888,22.7563],[96.1091,22.7601],[96.10753,22.76435],[96.10821,22.76591],[96.1138,22.77061],[96.11402,22.77397],[96.11693,22.77889],[96.11961,22.78112],[96.12118,22.78604],[96.12588,22.79208],[96.12722,22.79499],[96.12718,22.79693],[96.13572,22.80013],[96.13885,22.80282],[96.14003,22.80544],[96.14431,22.80648],[96.14511,22.80582],[96.14399,22.8026],[96.14645,22.79745]],[[96.08297,22.01915],[96.08165,22.01851],[96.07653,22.0188],[96.07456,22.01348],[96.07244,22.01138],[96.07028,22.00379],[96.06377,21.99217],[96.06079,21.99013],[96.05537,21.96677],[96.05025,21.9559],[96.04959,21.95344],[96.05076,21.95341],[96.05472,21.94787],[96.05444,21.9398],[96.05592,21.93683],[96.05535,21.92665],[96.06241,21.92611],[96.06261,21.92494],[96.06557,21.92499],[96.0657,21.92575],[96.0777,21.92575],[96.07721,21.9103],[96.06806,21.91078],[96.06803,21.90941],[96.07409,21.90597],[96.07457,21.90246],[96.07638,21.90099],[96.07618,21.90011],[96.07863,21.89738],[96.082,21.89056],[96.08332,21.88249],[96.09215,21.88119],[96.09279,21.87971],[96.10395,21.87415],[96.11353,21.8774],[96.12461,21.86996],[96.12821,21.87066],[96.13618,21.8685],[96.13905,21.9422],[96.13452,21.94316],[96.13171,21.94488],[96.12997,21.94677],[96.12917,21.94966],[96.13282,21.97649],[96.13067,21.97775],[96.12928,21.98013],[96.12804,21.98281],[96.12899,21.98513],[96.12378,21.99147],[96.12345,21.99433],[96.12407,22.00745],[96.12809,22.01188],[96.12829,22.02195],[96.12733,22.0226],[96.10442,22.02381],[96.09394,22.02615],[96.08996,22.02019],[96.08416,22.02007],[96.08335,22.01945],[96.08297,22.01915]]]]}}],"bbox":[95.57019,15.22063,98.61035,22.80648]}
