{"type":"FeatureCollection","features":[{"type":"Feature","properties":{"SensorDate":"2021-08-31","EventCode":"FL20210831MMR","Sensor_ID":"Sentinel-1"},"geometry":{"type":"MultiPolygon","coordinates":[[[[96.86128,17.72326],[96.86128,17.71682],[96.86597,17.71125],[96.88091,17.70363],[96.88531,17.69924],[96.88531,17.69074],[96.88267,17.68576],[96.87681,17.68078],[96.86919,17.6758],[96.86451,17.67082],[96.86275,17.66672],[96.86392,17.66379],[96.86802,17.66291],[96.87623,17.66496],[96.8856,17.67463],[96.89439,17.68019],[96.90116,17.68293],[96.90257,17.68247],[96.90241,17.6766],[96.8988,17.67188],[96.8927,17.66495],[96.87522,17.65135],[96.87422,17.64639],[96.87468,17.64277],[96.87824,17.64025],[96.87469,17.62328],[96.8763,17.6036],[96.87874,17.60714],[96.88415,17.60749],[96.88791,17.61164],[96.88791,17.61716],[96.89067,17.61739],[96.89205,17.61555],[96.89803,17.61946],[96.904,17.6213],[96.90814,17.61661],[96.90953,17.60849],[96.9155,17.6098],[96.91849,17.60957],[96.92056,17.61233],[96.92263,17.61348],[96.93114,17.61463],[96.93274,17.61716],[96.93481,17.61808],[96.93868,17.61223],[96.93907,17.61384],[96.93766,17.61677],[96.93866,17.61806],[96.93757,17.62107],[96.93964,17.62383],[96.94516,17.62498],[96.94838,17.62429],[96.94887,17.62032],[96.95344,17.61693],[96.96126,17.61509],[96.96792,17.60957],[96.96981,17.60682],[96.97482,17.60934],[96.98011,17.60865],[96.9854,17.61049],[96.99206,17.61164],[96.99436,17.61095],[96.99428,17.60857],[96.99722,17.60519],[96.99786,17.60036],[97.00011,17.60037],[97.00172,17.59738],[97.00333,17.59738],[97.00908,17.58681],[97.01207,17.5852],[97.01322,17.58359],[97.01828,17.57416],[97.0192,17.56979],[97.02632,17.56887],[97.03322,17.56565],[97.05024,17.56474],[97.06449,17.55623],[97.06472,17.55071],[97.06771,17.54657],[97.07057,17.54474],[97.08863,17.54128],[97.09668,17.53691],[97.09645,17.5337],[97.09875,17.53071],[97.09912,17.52686],[97.09986,17.52592],[97.09934,17.52461],[97.09418,17.52281],[97.09116,17.52006],[97.09181,17.50696],[97.09779,17.49851],[97.09942,17.48243],[97.10449,17.48052],[97.1087,17.48079],[97.11438,17.48426],[97.11852,17.48357],[97.12289,17.48863],[97.12841,17.48817],[97.13117,17.49438],[97.13482,17.49956],[97.13416,17.5022],[97.14243,17.51093],[97.15163,17.51438],[97.15991,17.51576],[97.16589,17.51576],[97.17232,17.51139],[97.17554,17.51162],[97.18156,17.51387],[97.18958,17.52072],[97.19315,17.52166],[97.19891,17.52619],[97.20487,17.528],[97.21018,17.53181],[97.21885,17.53314],[97.22147,17.5323],[97.22415,17.53345],[97.22418,17.53475],[97.22082,17.53731],[97.21644,17.53788],[97.21597,17.5394],[97.21806,17.54295],[97.21889,17.54323],[97.21912,17.54183],[97.22058,17.54055],[97.22497,17.53798],[97.22981,17.5438],[97.23506,17.54459],[97.23873,17.5438],[97.24004,17.55142],[97.239,17.5564],[97.23558,17.56296],[97.23585,17.5711],[97.23453,17.5774],[97.23532,17.5795],[97.24346,17.57792],[97.25133,17.57766],[97.2571,17.58685],[97.26078,17.59971],[97.2629,17.59831],[97.26627,17.59875],[97.26874,17.59789],[97.2748,17.60689],[97.27659,17.607],[97.27861,17.60529],[97.28096,17.60122],[97.28634,17.59598],[97.29477,17.59749],[97.30453,17.5944],[97.31025,17.59045],[97.31215,17.5852],[97.31362,17.58392],[97.31574,17.58392],[97.31777,17.58821],[97.31632,17.60095],[97.31924,17.60738],[97.33002,17.61488],[97.3308,17.61649],[97.32924,17.62259],[97.32969,17.63191],[97.33262,17.63855],[97.33576,17.64894],[97.33801,17.65141],[97.3426,17.65248],[97.34369,17.66625],[97.34231,17.67775],[97.34668,17.67867],[97.3499,17.67775],[97.35742,17.67295],[97.36093,17.67522],[97.36461,17.67545],[97.36392,17.70419],[97.36852,17.71385],[97.37596,17.71409],[97.38136,17.71195],[97.38956,17.7049],[97.39248,17.69976],[97.3944,17.69837],[97.39709,17.69784],[97.39803,17.7015],[97.39286,17.7104],[97.39516,17.71586],[97.40099,17.71776],[97.40278,17.71615],[97.40694,17.70525],[97.40209,17.69775],[97.40301,17.69177],[97.40232,17.68649],[97.39864,17.68281],[97.3922,17.68258],[97.38851,17.6807],[97.38462,17.68235],[97.3768,17.67775],[97.37542,17.67522],[97.37381,17.66763],[97.36921,17.65752],[97.36714,17.64809],[97.36806,17.64533],[97.36783,17.64119],[97.363,17.63843],[97.36047,17.63843],[97.35932,17.63682],[97.36185,17.63337],[97.3665,17.63077],[97.36553,17.62855],[97.37427,17.62303],[97.37565,17.61682],[97.3745,17.61245],[97.37841,17.61153],[97.38117,17.60762],[97.37956,17.60187],[97.38048,17.60004],[97.37795,17.59268],[97.37864,17.58877],[97.3876,17.58026],[97.38737,17.57451],[97.38829,17.57175],[97.39284,17.5702],[97.39864,17.55658],[97.40083,17.55704],[97.40553,17.55372],[97.40856,17.55405],[97.41405,17.55181],[97.41531,17.55246],[97.41677,17.5506],[97.42055,17.5501],[97.42648,17.5435],[97.43453,17.54498],[97.43589,17.54294],[97.43417,17.53936],[97.43555,17.53866],[97.43934,17.53236],[97.43842,17.52615],[97.43911,17.52385],[97.43796,17.51995],[97.43566,17.51535],[97.43221,17.51282],[97.43109,17.49722],[97.43378,17.49347],[97.43356,17.49133],[97.42498,17.47532],[97.42501,17.47001],[97.43006,17.46338],[97.4304,17.45867],[97.42905,17.45642],[97.43321,17.45396],[97.43366,17.45321],[97.43299,17.45107],[97.43546,17.45032],[97.43736,17.4485],[97.44152,17.44755],[97.4442,17.4438],[97.44038,17.44165],[97.44161,17.43737],[97.43959,17.43469],[97.43869,17.42955],[97.43768,17.4288],[97.4388,17.42484],[97.43678,17.42195],[97.43925,17.41842],[97.43913,17.41735],[97.43734,17.41574],[97.43924,17.4106],[97.44092,17.40878],[97.44463,17.40729],[97.44676,17.40536],[97.44822,17.40129],[97.44877,17.39573],[97.44563,17.39165],[97.44518,17.38951],[97.45078,17.38331],[97.45403,17.38267],[97.45481,17.38181],[97.45503,17.37924],[97.46111,17.37599],[97.46152,17.37412],[97.46527,17.37128],[97.46424,17.36753],[97.46527,17.36533],[97.47198,17.36149],[97.47468,17.36074],[97.47187,17.3555],[97.46863,17.3533],[97.46954,17.35007],[97.47407,17.3436],[97.47502,17.3464],[97.47681,17.3419],[97.4776,17.34404],[97.48018,17.34137],[97.4813,17.34126],[97.48299,17.3383],[97.48273,17.33688],[97.48668,17.33195],[97.48982,17.33153],[97.49319,17.33539],[97.49502,17.32485],[97.4901,17.322],[97.48661,17.3211],[97.48532,17.31903],[97.48802,17.3144],[97.49375,17.31483],[97.49757,17.31291],[97.49813,17.31216],[97.49746,17.30937],[97.50195,17.3074],[97.50353,17.30284],[97.50008,17.29732],[97.50025,17.28698],[97.49474,17.28784],[97.49215,17.28663],[97.49112,17.28301],[97.48042,17.27904],[97.47991,17.27508],[97.48111,17.27042],[97.47835,17.26421],[97.47919,17.26031],[97.48026,17.25999],[97.48274,17.26299],[97.48599,17.26353],[97.48813,17.263],[97.48905,17.26008],[97.48594,17.25645],[97.4856,17.25456],[97.48945,17.25486],[97.48811,17.25336],[97.48934,17.25229],[97.4908,17.2524],[97.49214,17.25422],[97.49284,17.25283],[97.4906,17.24887],[97.49267,17.2468],[97.49077,17.2449],[97.49112,17.243],[97.49594,17.23697],[97.4973,17.23739],[97.49787,17.23624],[97.49944,17.23614],[97.49491,17.23524],[97.49249,17.23335],[97.49249,17.23024],[97.49767,17.22438],[97.49988,17.22404],[97.49956,17.2199],[97.49819,17.21817],[97.49905,17.21576],[97.50189,17.21419],[97.50267,17.21127],[97.50974,17.20777],[97.50963,17.20509],[97.50671,17.20487],[97.4987,17.20972],[97.49612,17.20938],[97.49525,17.20714],[97.49548,17.20082],[97.48931,17.18807],[97.49212,17.18751],[97.49302,17.18548],[97.49447,17.18463],[97.49661,17.18463],[97.49219,17.17944],[97.49593,17.17606],[97.49527,17.17142],[97.49568,17.16813],[97.50345,17.16525],[97.50062,17.16032],[97.50576,17.15497],[97.50082,17.15086],[97.50062,17.14942],[97.5072,17.13914],[97.50576,17.13544],[97.51196,17.13411],[97.51364,17.13464],[97.51583,17.1303],[97.51006,17.11986],[97.50624,17.12361],[97.50082,17.12413],[97.49939,17.12187],[97.50185,17.11755],[97.50802,17.11118],[97.50658,17.1083],[97.5035,17.10665],[97.50072,17.10641],[97.49994,17.11171],[97.49826,17.11332],[97.49034,17.11508],[97.48314,17.10357],[97.48355,17.10069],[97.48504,17.09954],[97.48561,17.0939],[97.48006,17.08938],[97.47821,17.0863],[97.47615,17.07972],[97.47368,17.07663],[97.47142,17.07709],[97.47004,17.07928],[97.47134,17.08942],[97.46761,17.08767],[97.46437,17.07896],[97.46537,17.07149],[97.46836,17.068],[97.47231,17.06639],[97.47614,17.06639],[97.47656,17.05936],[97.48211,17.05381],[97.47759,17.04188],[97.47545,17.03973],[97.47344,17.04455],[97.47064,17.04497],[97.46875,17.0462],[97.46669,17.04415],[97.47142,17.03407],[97.47101,17.0314],[97.4671,17.02914],[97.45763,17.02552],[97.44778,17.03572],[97.44223,17.03428],[97.44079,17.03078],[97.4412,17.02708],[97.44585,17.02544],[97.44795,17.02385],[97.45468,17.02353],[97.45682,17.01865],[97.44716,17.01701],[97.44551,17.01413],[97.44695,17.01084],[97.45289,17.00965],[97.45905,17.01131],[97.46118,17.01084],[97.46388,17.00898],[97.46505,17.00426],[97.46276,17.00363],[97.45861,17.00405],[97.456,17.00529],[97.45394,17.00302],[97.45209,16.99665],[97.4486,16.99542],[97.44223,16.99583],[97.43894,16.99439],[97.43894,16.99233],[97.44897,16.98549],[97.45076,16.98322],[97.44284,16.98082],[97.44408,16.97609],[97.45312,16.9694],[97.45518,16.96211],[97.46301,16.95997],[97.46825,16.95738],[97.46772,16.94854],[97.46875,16.94545],[97.47456,16.94328],[97.47704,16.939],[97.47821,16.93312],[97.47636,16.929],[97.46834,16.92448],[97.4671,16.92016],[97.46834,16.91769],[97.47008,16.91648],[97.47031,16.91454],[97.47626,16.912],[97.47775,16.90803],[97.47426,16.88586],[97.47249,16.88273],[97.46894,16.88073],[97.46717,16.8776],[97.47029,16.87042],[97.47378,16.87042],[97.48349,16.88088],[97.48748,16.88088],[97.48707,16.87511],[97.48619,16.87283],[97.48117,16.866],[97.48646,16.85952],[97.48801,16.85545],[97.48508,16.85216],[97.48509,16.84896],[97.49103,16.84345],[97.49458,16.84316],[97.50048,16.84434],[97.50904,16.84079],[97.5176,16.83548],[97.51901,16.83034],[97.51724,16.82664],[97.50668,16.82456],[97.5052,16.8225],[97.50346,16.815],[97.51051,16.80597],[97.51258,16.80125],[97.53767,16.78944],[97.53973,16.79298],[97.54416,16.79505],[97.54859,16.79298],[97.56069,16.78383],[97.55957,16.77963],[97.55662,16.77507],[97.55158,16.77221],[97.5516,16.76738],[97.5552,16.7583],[97.55723,16.75581],[97.55626,16.74901],[97.55655,16.7431],[97.55921,16.73484],[97.55862,16.72953],[97.5598,16.72008],[97.56454,16.72027],[97.57197,16.71859],[97.57554,16.71462],[97.58094,16.70129],[97.58958,16.69166],[97.60137,16.674],[97.61224,16.65339],[97.60923,16.65201],[97.61499,16.64137],[97.61654,16.63583],[97.61588,16.62963],[97.61366,16.62342],[97.61056,16.6181],[97.60923,16.60259],[97.60679,16.59616],[97.60413,16.57843],[97.6048,16.56358],[97.60613,16.55826],[97.60901,16.55184],[97.61122,16.54275],[97.6161,16.53411],[97.61965,16.5228],[97.61721,16.52059],[97.61562,16.52022],[97.61611,16.50912],[97.61709,16.50916],[97.61769,16.49562],[97.57179,16.49374],[97.57151,16.49985],[97.54267,16.49887],[97.5424,16.50609],[97.51629,16.50502],[97.51555,16.52141],[97.43882,16.5197],[97.43928,16.48759],[97.30587,16.48583],[97.30493,16.5513],[96.64399,16.55465],[96.64264,16.55339],[96.63325,16.56288],[96.63232,16.56542],[96.63287,16.56769],[96.63834,16.57318],[96.64078,16.57804],[96.64341,16.59467],[96.64578,16.60361],[96.64769,16.60597],[96.64955,16.60671],[96.6529,16.60598],[96.65579,16.60724],[96.65706,16.61011],[96.65666,16.61877],[96.65924,16.62112],[96.66222,16.62155],[96.66495,16.62081],[96.66643,16.62155],[96.66861,16.6254],[96.66924,16.63059],[96.67331,16.63974],[96.68507,16.63857],[96.68666,16.64171],[96.68469,16.64762],[96.68185,16.64587],[96.67659,16.64522],[96.66751,16.6495],[96.67055,16.65257],[96.67032,16.65442],[96.66927,16.65496],[96.67134,16.65616],[96.67199,16.65857],[96.66543,16.66054],[96.66017,16.6636],[96.6593,16.67411],[96.65732,16.6793],[96.66209,16.68007],[96.6616,16.68162],[96.66258,16.68418],[96.66017,16.68725],[96.65514,16.68856],[96.64441,16.68834],[96.64091,16.68637],[96.63522,16.68221],[96.63295,16.6783],[96.63281,16.67455],[96.63631,16.67302],[96.63609,16.67017],[96.63106,16.66908],[96.62712,16.6728],[96.62384,16.6717],[96.62077,16.67345],[96.62077,16.67739],[96.61836,16.68352],[96.6127,16.68676],[96.61267,16.689],[96.61486,16.69162],[96.60983,16.69403],[96.60501,16.69775],[96.59976,16.69535],[96.5945,16.68943],[96.59034,16.68856],[96.58766,16.68395],[96.58443,16.68615],[96.57786,16.68593],[96.57834,16.68245],[96.5748,16.68331],[96.57349,16.68243],[96.56123,16.68987],[96.554,16.68834],[96.54437,16.68987],[96.5418,16.68559],[96.53846,16.68659],[96.53759,16.689],[96.53189,16.69031],[96.52752,16.69403],[96.52139,16.68987],[96.50563,16.68199],[96.50234,16.68221],[96.50169,16.68462],[96.49753,16.68571],[96.49643,16.68396],[96.49796,16.68177],[96.50147,16.68046],[96.50556,16.67718],[96.4989,16.67817],[96.50217,16.6743],[96.50204,16.67282],[96.49524,16.67339],[96.49233,16.67215],[96.49454,16.67069],[96.49912,16.67072],[96.49999,16.66964],[96.49464,16.66158],[96.49621,16.65682],[96.49556,16.652],[96.49315,16.64543],[96.48582,16.65476],[96.48432,16.6552],[96.48169,16.65804],[96.47732,16.65673],[96.47447,16.65279],[96.46965,16.65564],[96.46681,16.66177],[96.45805,16.65914],[96.45805,16.6622],[96.45652,16.66308],[96.4528,16.66198],[96.45192,16.66811],[96.44952,16.66965],[96.44711,16.66811],[96.4447,16.67381],[96.44229,16.67337],[96.43966,16.67687],[96.43491,16.67806],[96.43682,16.68234],[96.43594,16.68344],[96.43551,16.68125],[96.43135,16.68147],[96.43091,16.68409],[96.42501,16.6861],[96.42653,16.68957],[96.42675,16.69219],[96.42478,16.6957],[96.425,16.69745],[96.42325,16.70117],[96.41559,16.7038],[96.41405,16.70949],[96.40617,16.71321],[96.40508,16.72087],[96.40077,16.72674],[96.40274,16.72958],[96.40337,16.7356],[96.402,16.74161],[96.40595,16.74824],[96.39873,16.74999],[96.39793,16.75395],[96.39903,16.75557],[96.40135,16.76685],[96.39719,16.77232],[96.39472,16.77923],[96.39583,16.77951],[96.39866,16.78439],[96.40475,16.78413],[96.41096,16.79144],[96.41204,16.79476],[96.41711,16.79574],[96.42456,16.80012],[96.43474,16.80325],[96.43429,16.80542],[96.43089,16.80761],[96.42538,16.8062],[96.41336,16.80641],[96.40954,16.80743],[96.41494,16.81776],[96.414,16.82461],[96.41626,16.82671],[96.41703,16.8287],[96.41189,16.82959],[96.40776,16.82659],[96.4068,16.82703],[96.40559,16.83064],[96.40142,16.83124],[96.40067,16.83774],[96.40411,16.84032],[96.40599,16.84381],[96.40563,16.85151],[96.40509,16.85248],[96.40239,16.85225],[96.40121,16.85354],[96.39948,16.85352],[96.4001,16.85793],[96.3964,16.86017],[96.39333,16.85918],[96.38874,16.85514],[96.3889,16.86141],[96.39149,16.87183],[96.39064,16.8729],[96.38387,16.86931],[96.3822,16.87049],[96.38344,16.87217],[96.38016,16.87322],[96.38188,16.87451],[96.38106,16.8814],[96.37659,16.881],[96.37786,16.88218],[96.37833,16.884],[96.3778,16.889],[96.37879,16.89015],[96.39419,16.89413],[96.39361,16.89808],[96.39464,16.90609],[96.39445,16.90753],[96.39263,16.90977],[96.40516,16.90979],[96.41256,16.90834],[96.41643,16.90949],[96.41812,16.91409],[96.41633,16.92043],[96.41817,16.92193],[96.41918,16.9267],[96.41893,16.92805],[96.41517,16.93156],[96.41514,16.93419],[96.41395,16.93548],[96.41398,16.93722],[96.41089,16.94404],[96.41009,16.94846],[96.40715,16.95454],[96.40654,16.96132],[96.40339,16.96336],[96.39903,16.96255],[96.39694,16.96388],[96.39366,16.9629],[96.39282,16.96397],[96.3951,16.97124],[96.39506,16.97583],[96.39966,16.9756],[96.40328,16.97836],[96.40467,16.98176],[96.40598,16.99069],[96.40467,16.99437],[96.40289,16.99616],[96.37975,16.999],[96.37671,17.00291],[96.37526,17.00774],[96.37931,17.01653],[96.38442,17.02256],[96.38916,17.03074],[96.39851,17.04308],[96.39625,17.04646],[96.39986,17.0478],[96.40469,17.05356],[96.40704,17.05375],[96.41077,17.05042],[96.41032,17.04625],[96.41854,17.04624],[96.42302,17.04928],[96.42404,17.05405],[96.41977,17.05728],[96.41899,17.06002],[96.42394,17.0622],[96.42794,17.06809],[96.42321,17.07763],[96.42393,17.07879],[96.42291,17.08626],[96.42349,17.08724],[96.42819,17.08606],[96.43485,17.08117],[96.43779,17.08097],[96.44112,17.08254],[96.44151,17.08587],[96.43799,17.08978],[96.43583,17.09409],[96.4421,17.09409],[96.44484,17.09096],[96.45118,17.08964],[96.45287,17.09194],[96.45169,17.09722],[96.45463,17.09899],[96.45776,17.09644],[96.46339,17.09642],[96.46543,17.09558],[96.46893,17.09742],[96.47201,17.09771],[96.47817,17.1037],[96.47813,17.10518],[96.48322,17.11289],[96.4842,17.11896],[96.48107,17.12562],[96.4842,17.14579],[96.48498,17.1595],[96.48694,17.16204],[96.48831,17.16596],[96.48773,17.17184],[96.48165,17.18084],[96.48641,17.18408],[96.48688,17.18543],[96.49111,17.18634],[96.49164,17.19161],[96.4887,17.19847],[96.49252,17.20215],[96.49252,17.20492],[96.48479,17.20924],[96.4842,17.2112],[96.48538,17.21335],[96.49581,17.2139],[96.49301,17.21844],[96.48753,17.22118],[96.48714,17.2251],[96.49141,17.22684],[96.49064,17.23378],[96.49581,17.23514],[96.50051,17.23739],[96.51332,17.25062],[96.51783,17.24836],[96.52402,17.24869],[96.5292,17.25185],[96.54707,17.27941],[96.5466,17.28257],[96.54519,17.28528],[96.53753,17.29116],[96.53545,17.29443],[96.53366,17.29949],[96.53532,17.3011],[96.53626,17.30426],[96.53942,17.30595],[96.53515,17.31021],[96.53767,17.31149],[96.53767,17.3142],[96.54431,17.31985],[96.54111,17.33224],[96.54756,17.33544],[96.54349,17.34415],[96.54349,17.34743],[96.54615,17.3517],[96.5417,17.35577],[96.54427,17.35938],[96.54756,17.36074],[96.54756,17.36164],[96.57062,17.37293],[96.57062,17.37383],[96.57956,17.37654],[96.57768,17.38016],[96.57675,17.38919],[96.57581,17.39055],[96.5711,17.391],[96.56922,17.39371],[96.56781,17.39417],[96.5664,17.39688],[96.56734,17.40185],[96.57017,17.40682],[96.57017,17.41224],[96.56782,17.41585],[96.5664,17.41631],[96.56889,17.42207],[96.57157,17.42505],[96.57276,17.44948],[96.57514,17.45216],[96.57604,17.45692],[96.57537,17.466],[96.57631,17.48588],[96.58055,17.48904],[96.58244,17.49175],[96.58244,17.49943],[96.58757,17.50743],[96.59172,17.50788],[96.59799,17.51445],[96.60576,17.52521],[96.60375,17.52934],[96.61084,17.53022],[96.61412,17.52759],[96.61495,17.53059],[96.62069,17.52879],[96.62248,17.53148],[96.61517,17.53425],[96.61416,17.53677],[96.61631,17.53836],[96.60936,17.54131],[96.61054,17.54641],[96.60665,17.5479],[96.60555,17.55364],[96.60602,17.55545],[96.60837,17.5568],[96.60885,17.55816],[96.61215,17.56087],[96.61215,17.57306],[96.61687,17.58933],[96.61505,17.59029],[96.65099,17.61215],[96.68381,17.62813],[96.69041,17.63264],[96.69465,17.63309],[96.70125,17.63082],[96.70172,17.62947],[96.70831,17.62901],[96.7215,17.62357],[96.73186,17.62085],[96.74599,17.61541],[96.75306,17.61405],[96.75843,17.62009],[96.76156,17.6285],[96.76179,17.63871],[96.76346,17.64069],[96.76252,17.64114],[96.76149,17.65],[96.76912,17.65824],[96.78133,17.6613],[96.78753,17.66189],[96.79272,17.66505],[96.79555,17.66549],[96.79696,17.66188],[96.79884,17.66187],[96.79885,17.6682],[96.80026,17.66865],[96.80344,17.66456],[96.80522,17.66069],[96.8088,17.6589],[96.8099,17.661],[96.81251,17.6605],[96.81581,17.6623],[96.8177,17.66501],[96.81734,17.67351],[96.8196,17.67675],[96.81276,17.67808],[96.81215,17.68175],[96.82105,17.69482],[96.82436,17.70204],[96.83096,17.70023],[96.83392,17.70022],[96.83688,17.7083],[96.84608,17.71963],[96.84721,17.72251],[96.84785,17.72233],[96.85197,17.72576],[96.85976,17.73652],[96.86273,17.73881],[96.86743,17.73821],[96.86732,17.73134],[96.86304,17.72824],[96.86128,17.72326]]]]}}],"bbox":[96.37526,16.48583,97.61965,17.73881]}
