{"type":"FeatureCollection","features":[{"type":"Feature","geometry":{"type":"Point","coordinates":[94.36673,19.02588]},"properties":{"Region":"Rakhine","District":"Thandwe","Township":"Toungup","People exposed":8,"Flooded area (km²)":0.2,"Flooded cropland (km²)":0.1,"Observed area (km²)":4047.8,"Observed":"2026-08-08"}},{"type":"Feature","geometry":{"type":"Point","coordinates":[95.01973,15.99563]},"properties":{"Region":"Ayeyarwady","District":"Labutta","Township":"Labutta","People exposed":3040,"Flooded area (km²)":47.0,"Flooded cropland (km²)":35.2,"Observed area (km²)":1439.1,"Observed":"2026-08-08"}},{"type":"Feature","geometry":{"type":"Point","coordinates":[94.44558,16.40824]},"properties":{"Region":"Ayeyarwady","District":"Pathein","Township":"Ngapudaw","People exposed":163,"Flooded area (km²)":1.7,"Flooded cropland (km²)":1.7,"Observed area (km²)":25.3,"Observed":"2026-08-08"}},{"type":"Feature","geometry":{"type":"Point","coordinates":[95.38269,16.10564]},"properties":{"Region":"Ayeyarwady","District":"Pyapon","Township":"Bogale","People exposed":14213,"Flooded area (km²)":118.9,"Flooded cropland (km²)":112.5,"Observed area (km²)":1896.9,"Observed":"2026-08-08"}},{"type":"Feature","geometry":{"type":"Point","coordinates":[94.58301,18.35506]},"properties":{"Region":"Rakhine","District":"Thandwe","Township":"Thandwe","People exposed":515,"Flooded area (km²)":4.1,"Flooded cropland (km²)":3.4,"Observed area (km²)":3643.8,"Observed":"2026-08-08"}},{"type":"Feature","geometry":{"type":"Point","coordinates":[96.10564,16.40625]},"properties":{"Region":"Yangon","District":"Yangon (South)","Township":"Kungyangon","People exposed":475,"Flooded area (km²)":3.1,"Flooded cropland (km²)":2.8,"Observed area (km²)":598.1,"Observed":"2026-08-08"}},{"type":"Feature","geometry":{"type":"Point","coordinates":[95.79902,16.31671]},"properties":{"Region":"Ayeyarwady","District":"Pyapon","Township":"Dedaye","People exposed":3316,"Flooded area (km²)":20.2,"Flooded cropland (km²)":19.2,"Observed area (km²)":800.7,"Observed":"2026-08-08"}},{"type":"Feature","geometry":{"type":"Point","coordinates":[95.62108,16.14418]},"properties":{"Region":"Ayeyarwady","District":"Pyapon","Township":"Pyapon","People exposed":7253,"Flooded area (km²)":39.4,"Flooded cropland (km²)":35.9,"Observed area (km²)":1201.3,"Observed":"2026-08-08"}},{"type":"Feature","geometry":{"type":"Point","coordinates":[94.66389,17.75208]},"properties":{"Region":"Rakhine","District":"Thandwe","Township":"Gwa","People exposed":372,"Flooded area (km²)":4.6,"Flooded cropland (km²)":3.1,"Observed area (km²)":2482.4,"Observed":"2026-08-08"}},{"type":"Feature","geometry":{"type":"Point","coordinates":[93.99937,19.91]},"properties":{"Region":"Rakhine","District":"Kyaukpyu","Township":"Ann","People exposed":0,"Flooded area (km²)":0.0,"Flooded cropland (km²)":0,"Observed area (km²)":2881.3,"Observed":"2026-08-08"}},{"type":"Feature","geometry":{"type":"Point","coordinates":[95.62227,18.98098]},"properties":{"Region":"Bago (West)","District":"Pyay","Township":"Paukkhaung","People exposed":1211,"Flooded area (km²)":17.4,"Flooded cropland (km²)":12.0,"Observed area (km²)":2092.6,"Observed":"2026-08-08"}},{"type":"Feature","geometry":{"type":"Point","coordinates":[96.1536,19.28205]},"properties":{"Region":"Bago (East)","District":"Taungoo","Township":"Yedashe","People exposed":1588,"Flooded area (km²)":11.1,"Flooded cropland (km²)":9.0,"Observed area (km²)":2919.5,"Observed":"2026-08-08"}},{"type":"Feature","geometry":{"type":"Point","coordinates":[96.59259,16.75481]},"properties":{"Region":"Yangon","District":"Yangon (South)","Township":"Thongwa","People exposed":862,"Flooded area (km²)":4.8,"Flooded cropland (km²)":3.4,"Observed area (km²)":768.9,"Observed":"2026-08-08"}},{"type":"Feature","geometry":{"type":"Point","coordinates":[95.485,19.3253]},"properties":{"Region":"Magway","District":"Thayet","Township":"Aunglan","People exposed":528,"Flooded area (km²)":4.9,"Flooded cropland (km²)":3.1,"Observed area (km²)":2933.1,"Observed":"2026-08-08"}},{"type":"Feature","geometry":{"type":"Point","coordinates":[96.44388,21.6177]},"properties":{"Region":"Mandalay","District":"Kyaukse","Township":"Kyaukse","People exposed":1307,"Flooded area (km²)":3.9,"Flooded cropland (km²)":3.5,"Observed area (km²)":318.6,"Observed":"2026-08-08"}},{"type":"Feature","geometry":{"type":"Point","coordinates":[96.20609,17.26793]},"properties":{"Region":"Yangon","District":"Yangon (North)","Township":"Hlegu","People exposed":4765,"Flooded area (km²)":26.7,"Flooded cropland (km²)":17.6,"Observed area (km²)":1592.6,"Observed":"2026-08-08"}},{"type":"Feature","geometry":{"type":"Point","coordinates":[94.92726,18.68429]},"properties":{"Region":"Bago (West)","District":"Pyay","Township":"Padaung","People exposed":331,"Flooded area (km²)":4.0,"Flooded cropland (km²)":2.7,"Observed area (km²)":2714.3,"Observed":"2026-08-08"}},{"type":"Feature","geometry":{"type":"Point","coordinates":[96.24048,16.9273]},"properties":{"Region":"Yangon","District":"Yangon (East)","Township":"Dagon Myothit (East)","People exposed":476,"Flooded area (km²)":0.9,"Flooded cropland (km²)":0.6,"Observed area (km²)":88.5,"Observed":"2026-08-08"}},{"type":"Feature","geometry":{"type":"Point","coordinates":[96.17826,16.94191]},"properties":{"Region":"Yangon","District":"Yangon (East)","Township":"North Okkalapa","People exposed":0,"Flooded area (km²)":0,"Flooded cropland (km²)":0,"Observed area (km²)":29.8,"Observed":"2026-08-08"}},{"type":"Feature","geometry":{"type":"Point","coordinates":[96.03759,17.11683]},"properties":{"Region":"Yangon","District":"Yangon (North)","Township":"Hmawbi","People exposed":1351,"Flooded area (km²)":4.4,"Flooded cropland (km²)":3.3,"Observed area (km²)":486.9,"Observed":"2026-08-08"}},{"type":"Feature","geometry":{"type":"Point","coordinates":[96.18929,16.88064]},"properties":{"Region":"Yangon","District":"Yangon (East)","Township":"Dagon Myothit (North)","People exposed":92,"Flooded area (km²)":0.0,"Flooded cropland (km²)":0.0,"Observed area (km²)":25.2,"Observed":"2026-08-08"}},{"type":"Feature","geometry":{"type":"Point","coordinates":[95.96741,16.74746]},"properties":{"Region":"Yangon","District":"Yangon (South)","Township":"Twantay","People exposed":3265,"Flooded area (km²)":19.2,"Flooded cropland (km²)":14.0,"Observed area (km²)":562.9,"Observed":"2026-08-08"}},{"type":"Feature","geometry":{"type":"Point","coordinates":[96.14235,16.86232]},"properties":{"Region":"Yangon","District":"Yangon (West)","Township":"Mayangone","People exposed":71,"Flooded area (km²)":0.0,"Flooded cropland (km²)":0,"Observed area (km²)":23.8,"Observed":"2026-08-08"}},{"type":"Feature","geometry":{"type":"Point","coordinates":[96.26625,16.83792]},"properties":{"Region":"Yangon","District":"Yangon (East)","Township":"Dagon Myothit (Seikkan)","People exposed":271,"Flooded area (km²)":0.3,"Flooded cropland (km²)":0.2,"Observed area (km²)":84.2,"Observed":"2026-08-08"}},{"type":"Feature","geometry":{"type":"Point","coordinates":[96.18418,16.78196]},"properties":{"Region":"Yangon","District":"Yangon (East)","Township":"Dawbon","People exposed":0,"Flooded area (km²)":0,"Flooded cropland (km²)":0,"Observed area (km²)":2.8,"Observed":"2026-08-08"}},{"type":"Feature","geometry":{"type":"Point","coordinates":[96.12808,16.78459]},"properties":{"Region":"Yangon","District":"Yangon (West)","Township":"Ahlone","People exposed":0,"Flooded area (km²)":0,"Flooded cropland (km²)":0,"Observed area (km²)":3.7,"Observed":"2026-08-08"}},{"type":"Feature","geometry":{"type":"Point","coordinates":[96.1345,16.99542]},"properties":{"Region":"Yangon","District":"Yangon (North)","Township":"Mingaladon","People exposed":182,"Flooded area (km²)":0.3,"Flooded cropland (km²)":0.2,"Observed area (km²)":133.1,"Observed":"2026-08-08"}},{"type":"Feature","geometry":{"type":"Point","coordinates":[96.07715,16.97734]},"properties":{"Region":"Yangon","District":"Yangon (North)","Township":"Shwepyithar","People exposed":262,"Flooded area (km²)":0.1,"Flooded cropland (km²)":0.1,"Observed area (km²)":57.4,"Observed":"2026-08-08"}},{"type":"Feature","geometry":{"type":"Point","coordinates":[95.15342,17.05726]},"properties":{"Region":"Ayeyarwady","District":"Pathein","Township":"Kyaunggon","People exposed":3225,"Flooded area (km²)":29.7,"Flooded cropland (km²)":28.7,"Observed area (km²)":605.4,"Observed":"2026-08-08"}},{"type":"Feature","geometry":{"type":"Point","coordinates":[96.1004,16.81763]},"properties":{"Region":"Yangon","District":"Yangon (West)","Township":"Kyeemyindaing","People exposed":13,"Flooded area (km²)":0.0,"Flooded cropland (km²)":0.0,"Observed area (km²)":11.4,"Observed":"2026-08-08"}},{"type":"Feature","geometry":{"type":"Point","coordinates":[96.00772,18.00283]},"properties":{"Region":"Bago (West)","District":"Thayarwady","Township":"Letpadan","People exposed":2247,"Flooded area (km²)":20.8,"Flooded cropland (km²)":14.7,"Observed area (km²)":1495.1,"Observed":"2026-08-08"}},{"type":"Feature","geometry":{"type":"Point","coordinates":[95.14545,17.85387]},"properties":{"Region":"Ayeyarwady","District":"Hinthada","Township":"Ingapu","People exposed":2188,"Flooded area (km²)":22.2,"Flooded cropland (km²)":17.6,"Observed area (km²)":1659.2,"Observed":"2026-08-08"}},{"type":"Feature","geometry":{"type":"Point","coordinates":[96.17585,16.8103]},"properties":{"Region":"Yangon","District":"Yangon (East)","Township":"Tamwe","People exposed":0,"Flooded area (km²)":0,"Flooded cropland (km²)":0,"Observed area (km²)":5.2,"Observed":"2026-08-08"}},{"type":"Feature","geometry":{"type":"Point","coordinates":[96.15748,16.81049]},"properties":{"Region":"Yangon","District":"Yangon (West)","Township":"Bahan","People exposed":34,"Flooded area (km²)":0.0,"Flooded cropland (km²)":0,"Observed area (km²)":8.8,"Observed":"2026-08-08"}},{"type":"Feature","geometry":{"type":"Point","coordinates":[96.13285,16.82359]},"properties":{"Region":"Yangon","District":"Yangon (West)","Township":"Kamaryut","People exposed":0,"Flooded area (km²)":0,"Flooded cropland (km²)":0,"Observed area (km²)":6.8,"Observed":"2026-08-08"}},{"type":"Feature","geometry":{"type":"Point","coordinates":[95.40196,16.96648]},"properties":{"Region":"Ayeyarwady","District":"Maubin","Township":"Pantanaw","People exposed":27319,"Flooded area (km²)":225.4,"Flooded cropland (km²)":202.8,"Observed area (km²)":1184.1,"Observed":"2026-08-08"}},{"type":"Feature","geometry":{"type":"Point","coordinates":[96.21071,16.79806]},"properties":{"Region":"Yangon","District":"Yangon (East)","Township":"Thaketa","People exposed":0,"Flooded area (km²)":0,"Flooded cropland (km²)":0,"Observed area (km²)":13.6,"Observed":"2026-08-08"}},{"type":"Feature","geometry":{"type":"Point","coordinates":[96.15584,16.77643]},"properties":{"Region":"Yangon","District":"Yangon (West)","Township":"Pabedan","People exposed":0,"Flooded area (km²)":0,"Flooded cropland (km²)":0,"Observed area (km²)":0.7,"Observed":"2026-08-08"}},{"type":"Feature","geometry":{"type":"Point","coordinates":[96.16137,16.77446]},"properties":{"Region":"Yangon","District":"Yangon (West)","Township":"Kyauktada","People exposed":0,"Flooded area (km²)":0,"Flooded cropland (km²)":0,"Observed area (km²)":0.8,"Observed":"2026-08-08"}},{"type":"Feature","geometry":{"type":"Point","coordinates":[96.15054,16.77676]},"properties":{"Region":"Yangon","District":"Yangon (West)","Township":"Latha","People exposed":0,"Flooded area (km²)":0,"Flooded cropland (km²)":0,"Observed area (km²)":0.7,"Observed":"2026-08-08"}},{"type":"Feature","geometry":{"type":"Point","coordinates":[96.16478,16.83567]},"properties":{"Region":"Yangon","District":"Yangon (East)","Township":"Yankin","People exposed":0,"Flooded area (km²)":0,"Flooded cropland (km²)":0,"Observed area (km²)":5.3,"Observed":"2026-08-08"}},{"type":"Feature","geometry":{"type":"Point","coordinates":[95.04848,18.24925]},"properties":{"Region":"Ayeyarwady","District":"Hinthada","Township":"Kyangin","People exposed":221,"Flooded area (km²)":1.6,"Flooded cropland (km²)":1.1,"Observed area (km²)":1218.3,"Observed":"2026-08-08"}},{"type":"Feature","geometry":{"type":"Point","coordinates":[95.46162,18.11133]},"properties":{"Region":"Bago (West)","District":"Thayarwady","Township":"Monyo","People exposed":2133,"Flooded area (km²)":16.2,"Flooded cropland (km²)":14.4,"Observed area (km²)":465.8,"Observed":"2026-08-08"}},{"type":"Feature","geometry":{"type":"Point","coordinates":[96.14534,16.79193]},"properties":{"Region":"Yangon","District":"Yangon (West)","Township":"Dagon","People exposed":0,"Flooded area (km²)":0,"Flooded cropland (km²)":0,"Observed area (km²)":5.3,"Observed":"2026-08-08"}},{"type":"Feature","geometry":{"type":"Point","coordinates":[96.13243,16.80625]},"properties":{"Region":"Yangon","District":"Yangon (West)","Township":"Sanchaung","People exposed":0,"Flooded area (km²)":0,"Flooded cropland (km²)":0,"Observed area (km²)":2.6,"Observed":"2026-08-08"}},{"type":"Feature","geometry":{"type":"Point","coordinates":[95.3735,17.62092]},"properties":{"Region":"Ayeyarwady","District":"Hinthada","Township":"Hinthada","People exposed":5924,"Flooded area (km²)":42.7,"Flooded cropland (km²)":39.8,"Observed area (km²)":901.0,"Observed":"2026-08-08"}},{"type":"Feature","geometry":{"type":"Point","coordinates":[95.54652,17.25884]},"properties":{"Region":"Ayeyarwady","District":"Maubin","Township":"Danubyu","People exposed":9433,"Flooded area (km²)":71.2,"Flooded cropland (km²)":67.7,"Observed area (km²)":663.7,"Observed":"2026-08-08"}},{"type":"Feature","geometry":{"type":"Point","coordinates":[96.12083,16.84739]},"properties":{"Region":"Yangon","District":"Yangon (West)","Township":"Hlaing","People exposed":0,"Flooded area (km²)":0,"Flooded cropland (km²)":0,"Observed area (km²)":10.3,"Observed":"2026-08-08"}},{"type":"Feature","geometry":{"type":"Point","coordinates":[96.15204,16.67696]},"properties":{"Region":"Yangon","District":"Yangon (South)","Township":"Dala","People exposed":494,"Flooded area (km²)":0.8,"Flooded cropland (km²)":0.7,"Observed area (km²)":241.6,"Observed":"2026-08-08"}},{"type":"Feature","geometry":{"type":"Point","coordinates":[95.80932,18.58062]},"properties":{"Region":"Bago (West)","District":"Thayarwady","Township":"Nattalin","People exposed":734,"Flooded area (km²)":5.0,"Flooded cropland (km²)":4.1,"Observed area (km²)":1473.8,"Observed":"2026-08-08"}},{"type":"Feature","geometry":{"type":"Point","coordinates":[95.39967,18.62305]},"properties":{"Region":"Bago (West)","District":"Pyay","Township":"Thegon","People exposed":1881,"Flooded area (km²)":13.7,"Flooded cropland (km²)":12.3,"Observed area (km²)":840.3,"Observed":"2026-08-08"}},{"type":"Feature","geometry":{"type":"Point","coordinates":[96.72064,17.25457]},"properties":{"Region":"Bago (East)","District":"Bago","Township":"Thanatpin","People exposed":6622,"Flooded area (km²)":60.1,"Flooded cropland (km²)":52.9,"Observed area (km²)":799.2,"Observed":"2026-08-08"}},{"type":"Feature","geometry":{"type":"Point","coordinates":[97.00758,17.42929]},"properties":{"Region":"Mon","District":"Thaton","Township":"Kyaikto","People exposed":624,"Flooded area (km²)":3.2,"Flooded cropland (km²)":1.7,"Observed area (km²)":299.0,"Observed":"2026-08-08"}},{"type":"Feature","geometry":{"type":"Point","coordinates":[96.20164,22.00502]},"properties":{"Region":"Mandalay","District":"Mandalay","Township":"Patheingyi","People exposed":74,"Flooded area (km²)":0.2,"Flooded cropland (km²)":0.1,"Observed area (km²)":2.9,"Observed":"2026-08-08"}},{"type":"Feature","geometry":{"type":"Point","coordinates":[96.09378,21.97605]},"properties":{"Region":"Mandalay","District":"Mandalay","Township":"Chanayethazan","People exposed":170,"Flooded area (km²)":0.0,"Flooded cropland (km²)":0,"Observed area (km²)":4.7,"Observed":"2026-08-08"}},{"type":"Feature","geometry":{"type":"Point","coordinates":[96.09813,22.00247]},"properties":{"Region":"Mandalay","District":"Mandalay","Township":"Aungmyaythazan","People exposed":0,"Flooded area (km²)":0,"Flooded cropland (km²)":0,"Observed area (km²)":5.3,"Observed":"2026-08-08"}},{"type":"Feature","geometry":{"type":"Point","coordinates":[96.15348,20.40002]},"properties":{"Region":"Mandalay","District":"Yamethin","Township":"Yamethin","People exposed":453,"Flooded area (km²)":3.7,"Flooded cropland (km²)":3.3,"Observed area (km²)":2001.3,"Observed":"2026-08-08"}},{"type":"Feature","geometry":{"type":"Point","coordinates":[96.17908,22.24873]},"properties":{"Region":"Mandalay","District":"Pyinoolwin","Township":"Madaya","People exposed":636,"Flooded area (km²)":5.6,"Flooded cropland (km²)":4.1,"Observed area (km²)":20.6,"Observed":"2026-08-08"}},{"type":"Feature","geometry":{"type":"Point","coordinates":[95.77951,23.99751]},"properties":{"Region":"Sagaing","District":"Kawlin","Township":"Wuntho","People exposed":983,"Flooded area (km²)":8.3,"Flooded cropland (km²)":7.9,"Observed area (km²)":436.3,"Observed":"2026-08-08"}},{"type":"Feature","geometry":{"type":"Point","coordinates":[94.84078,22.15301]},"properties":{"Region":"Sagaing","District":"Yinmarbin","Township":"Yinmarbin","People exposed":1408,"Flooded area (km²)":9.5,"Flooded cropland (km²)":7.2,"Observed area (km²)":1097.7,"Observed":"2026-08-08"}},{"type":"Feature","geometry":{"type":"Point","coordinates":[95.10813,22.43889]},"properties":{"Region":"Sagaing","District":"Monywa","Township":"Budalin","People exposed":731,"Flooded area (km²)":7.6,"Flooded cropland (km²)":5.9,"Observed area (km²)":1242.4,"Observed":"2026-08-08"}},{"type":"Feature","geometry":{"type":"Point","coordinates":[96.08679,21.96143]},"properties":{"Region":"Mandalay","District":"Mandalay","Township":"Mahaaungmyay","People exposed":95,"Flooded area (km²)":0.0,"Flooded cropland (km²)":0,"Observed area (km²)":7.5,"Observed":"2026-08-08"}},{"type":"Feature","geometry":{"type":"Point","coordinates":[95.70611,25.8568]},"properties":{"Region":"Sagaing","District":"Hkamti","Township":"Hkamti","People exposed":2,"Flooded area (km²)":0.3,"Flooded cropland (km²)":0.0,"Observed area (km²)":1172.7,"Observed":"2026-08-08"}},{"type":"Feature","geometry":{"type":"Point","coordinates":[95.71001,22.58488]},"properties":{"Region":"Sagaing","District":"Shwebo","Township":"Shwebo","People exposed":40587,"Flooded area (km²)":244.3,"Flooded cropland (km²)":226.9,"Observed area (km²)":1214.2,"Observed":"2026-08-08"}},{"type":"Feature","geometry":{"type":"Point","coordinates":[95.11712,22.85918]},"properties":{"Region":"Sagaing","District":"Shwebo","Township":"Ye-U","People exposed":23205,"Flooded area (km²)":186.1,"Flooded cropland (km²)":168.5,"Observed area (km²)":1649.6,"Observed":"2026-08-08"}},{"type":"Feature","geometry":{"type":"Point","coordinates":[96.10028,19.53029]},"properties":{"Region":"Nay Pyi Taw","District":"Det Khi Na","Township":"Lewe","People exposed":1783,"Flooded area (km²)":17.4,"Flooded cropland (km²)":13.3,"Observed area (km²)":2421.3,"Observed":"2026-08-08"}},{"type":"Feature","geometry":{"type":"Point","coordinates":[95.03062,21.96513]},"properties":{"Region":"Sagaing","District":"Yinmarbin","Township":"Salingyi","People exposed":2079,"Flooded area (km²)":12.7,"Flooded cropland (km²)":8.6,"Observed area (km²)":758.0,"Observed":"2026-08-08"}},{"type":"Feature","geometry":{"type":"Point","coordinates":[95.26736,21.92389]},"properties":{"Region":"Sagaing","District":"Monywa","Township":"Chaung-U","People exposed":1047,"Flooded area (km²)":8.4,"Flooded cropland (km²)":7.6,"Observed area (km²)":484.3,"Observed":"2026-08-08"}},{"type":"Feature","geometry":{"type":"Point","coordinates":[95.17621,21.59881]},"properties":{"Region":"Magway","District":"Pakokku","Township":"Yesagyo","People exposed":3079,"Flooded area (km²)":15.4,"Flooded cropland (km²)":12.6,"Observed area (km²)":884.7,"Observed":"2026-08-08"}},{"type":"Feature","geometry":{"type":"Point","coordinates":[96.11959,21.73418]},"properties":{"Region":"Mandalay","District":"Kyaukse","Township":"Sintgaing","People exposed":3444,"Flooded area (km²)":17,"Flooded cropland (km²)":15.2,"Observed area (km²)":259.0,"Observed":"2026-08-08"}},{"type":"Feature","geometry":{"type":"Point","coordinates":[95.70345,23.21959]},"properties":{"Region":"Sagaing","District":"Kanbalu","Township":"Kanbalu","People exposed":22237,"Flooded area (km²)":229.7,"Flooded cropland (km²)":202.4,"Observed area (km²)":3825.3,"Observed":"2026-08-08"}},{"type":"Feature","geometry":{"type":"Point","coordinates":[95.00952,20.46045]},"properties":{"Region":"Magway","District":"Magway","Township":"Yenangyaung","People exposed":477,"Flooded area (km²)":4.1,"Flooded cropland (km²)":1.5,"Observed area (km²)":1052.7,"Observed":"2026-08-08"}},{"type":"Feature","geometry":{"type":"Point","coordinates":[94.5377,20.69501]},"properties":{"Region":"Magway","District":"Minbu","Township":"Salin","People exposed":4363,"Flooded area (km²)":34.3,"Flooded cropland (km²)":31.8,"Observed area (km²)":2414.1,"Observed":"2026-08-08"}},{"type":"Feature","geometry":{"type":"Point","coordinates":[96.25431,20.82019]},"properties":{"Region":"Mandalay","District":"Meiktila","Township":"Thazi","People exposed":590,"Flooded area (km²)":6.3,"Flooded cropland (km²)":3.5,"Observed area (km²)":1408.3,"Observed":"2026-08-08"}},{"type":"Feature","geometry":{"type":"Point","coordinates":[95.89408,21.688]},"properties":{"Region":"Mandalay","District":"Kyaukse","Township":"Tada-U","People exposed":818,"Flooded area (km²)":5.7,"Flooded cropland (km²)":3.9,"Observed area (km²)":1036.5,"Observed":"2026-08-08"}},{"type":"Feature","geometry":{"type":"Point","coordinates":[96.09545,21.85303]},"properties":{"Region":"Mandalay","District":"Mandalay","Township":"Amarapura","People exposed":1031,"Flooded area (km²)":1.2,"Flooded cropland (km²)":0.6,"Observed area (km²)":75.4,"Observed":"2026-08-08"}},{"type":"Feature","geometry":{"type":"Point","coordinates":[96.09092,21.94225]},"properties":{"Region":"Mandalay","District":"Mandalay","Township":"Chanmyathazi","People exposed":1310,"Flooded area (km²)":0.7,"Flooded cropland (km²)":0.1,"Observed area (km²)":10.5,"Observed":"2026-08-08"}},{"type":"Feature","geometry":{"type":"Point","coordinates":[96.14328,20.16101]},"properties":{"Region":"Nay Pyi Taw","District":"Oke Ta Ra","Township":"Tatkon","People exposed":179,"Flooded area (km²)":6.1,"Flooded cropland (km²)":4.8,"Observed area (km²)":2122.9,"Observed":"2026-08-08"}},{"type":"Feature","geometry":{"type":"Point","coordinates":[95.58556,19.88142]},"properties":{"Region":"Magway","District":"Magway","Township":"Taungdwingyi","People exposed":1341,"Flooded area (km²)":11,"Flooded cropland (km²)":9.9,"Observed area (km²)":2226.7,"Observed":"2026-08-08"}},{"type":"Feature","geometry":{"type":"Point","coordinates":[94.88549,21.27623]},"properties":{"Region":"Magway","District":"Pakokku","Township":"Pakokku","People exposed":4784,"Flooded area (km²)":36.1,"Flooded cropland (km²)":28.7,"Observed area (km²)":1272.4,"Observed":"2026-08-08"}},{"type":"Feature","geometry":{"type":"Point","coordinates":[94.87329,20.73662]},"properties":{"Region":"Magway","District":"Magway","Township":"Chauk","People exposed":240,"Flooded area (km²)":1.5,"Flooded cropland (km²)":1.2,"Observed area (km²)":1052.7,"Observed":"2026-08-08"}},{"type":"Feature","geometry":{"type":"Point","coordinates":[96.08594,19.68303]},"properties":{"Region":"Nay Pyi Taw","District":"Det Khi Na","Township":"Det Khi Na Thi Ri","People exposed":66,"Flooded area (km²)":0.6,"Flooded cropland (km²)":0.5,"Observed area (km²)":178.1,"Observed":"2026-08-08"}},{"type":"Feature","geometry":{"type":"Point","coordinates":[96.1803,16.77009]},"properties":{"Region":"Yangon","District":"Yangon (East)","Township":"Botahtaung","People exposed":0,"Flooded area (km²)":0,"Flooded cropland (km²)":0,"Observed area (km²)":3.2,"Observed":"2026-08-08"}},{"type":"Feature","geometry":{"type":"Point","coordinates":[96.17513,16.77759]},"properties":{"Region":"Yangon","District":"Yangon (East)","Township":"Pazundaung","People exposed":0,"Flooded area (km²)":0,"Flooded cropland (km²)":0,"Observed area (km²)":1.1,"Observed":"2026-08-08"}},{"type":"Feature","geometry":{"type":"Point","coordinates":[96.07353,16.87371]},"properties":{"Region":"Yangon","District":"Yangon (North)","Township":"Hlaingtharya (East)","People exposed":411,"Flooded area (km²)":0.3,"Flooded cropland (km²)":0.2,"Observed area (km²)":75.0,"Observed":"2026-08-08"}},{"type":"Feature","geometry":{"type":"Point","coordinates":[94.96447,19.03821]},"properties":{"Region":"Magway","District":"Thayet","Township":"Kamma","People exposed":363,"Flooded area (km²)":3.1,"Flooded cropland (km²)":2.2,"Observed area (km²)":1245.3,"Observed":"2026-08-08"}},{"type":"Feature","geometry":{"type":"Point","coordinates":[96.60703,16.91098]},"properties":{"Region":"Yangon","District":"Yangon (South)","Township":"Kayan","People exposed":1741,"Flooded area (km²)":6.4,"Flooded cropland (km²)":4.3,"Observed area (km²)":598.5,"Observed":"2026-08-08"}},{"type":"Feature","geometry":{"type":"Point","coordinates":[96.65023,17.08997]},"properties":{"Region":"Bago (East)","District":"Bago","Township":"Kawa","People exposed":7185,"Flooded area (km²)":40.7,"Flooded cropland (km²)":31.5,"Observed area (km²)":973.5,"Observed":"2026-08-08"}},{"type":"Feature","geometry":{"type":"Point","coordinates":[96.32929,16.79637]},"properties":{"Region":"Yangon","District":"Yangon (South)","Township":"Thanlyin","People exposed":827,"Flooded area (km²)":1.5,"Flooded cropland (km²)":1.2,"Observed area (km²)":379.4,"Observed":"2026-08-08"}},{"type":"Feature","geometry":{"type":"Point","coordinates":[97.00448,17.892]},"properties":{"Region":"Bago (East)","District":"Bago","Township":"Shwegyin","People exposed":2491,"Flooded area (km²)":22.1,"Flooded cropland (km²)":16.3,"Observed area (km²)":289.7,"Observed":"2026-08-08"}},{"type":"Feature","geometry":{"type":"Point","coordinates":[96.72475,17.95543]},"properties":{"Region":"Bago (East)","District":"Bago","Township":"Nyaunglebin","People exposed":7676,"Flooded area (km²)":64.2,"Flooded cropland (km²)":60.2,"Observed area (km²)":784.6,"Observed":"2026-08-08"}},{"type":"Feature","geometry":{"type":"Point","coordinates":[96.74651,17.50412]},"properties":{"Region":"Bago (East)","District":"Bago","Township":"Waw","People exposed":3750,"Flooded area (km²)":40.0,"Flooded cropland (km²)":26.7,"Observed area (km²)":980.7,"Observed":"2026-08-08"}},{"type":"Feature","geometry":{"type":"Point","coordinates":[96.57622,17.76789]},"properties":{"Region":"Bago (East)","District":"Bago","Township":"Daik-U","People exposed":8388,"Flooded area (km²)":74.1,"Flooded cropland (km²)":68.3,"Observed area (km²)":1291.5,"Observed":"2026-08-08"}},{"type":"Feature","geometry":{"type":"Point","coordinates":[96.34951,18.18882]},"properties":{"Region":"Bago (East)","District":"Bago","Township":"Kyauktaga","People exposed":1044,"Flooded area (km²)":18.3,"Flooded cropland (km²)":4.8,"Observed area (km²)":3008.1,"Observed":"2026-08-08"}},{"type":"Feature","geometry":{"type":"Point","coordinates":[94.6831,19.36731]},"properties":{"Region":"Magway","District":"Thayet","Township":"Mindon","People exposed":177,"Flooded area (km²)":2.0,"Flooded cropland (km²)":1.3,"Observed area (km²)":2873.3,"Observed":"2026-08-08"}},{"type":"Feature","geometry":{"type":"Point","coordinates":[96.32222,19.88283]},"properties":{"Region":"Nay Pyi Taw","District":"Oke Ta Ra","Township":"Zay Yar Thi Ri","People exposed":409,"Flooded area (km²)":3.5,"Flooded cropland (km²)":1.7,"Observed area (km²)":596.6,"Observed":"2026-08-08"}},{"type":"Feature","geometry":{"type":"Point","coordinates":[96.69,20.10858]},"properties":{"Region":"Shan (South)","District":"Pa-O Self-Administered Zone","Township":"Pinlaung","People exposed":0,"Flooded area (km²)":0,"Flooded cropland (km²)":0,"Observed area (km²)":172.2,"Observed":"2026-08-08"}},{"type":"Feature","geometry":{"type":"Point","coordinates":[96.19116,19.89504]},"properties":{"Region":"Nay Pyi Taw","District":"Oke Ta Ra","Township":"Poke Ba Thi Ri","People exposed":204,"Flooded area (km²)":1.1,"Flooded cropland (km²)":0.6,"Observed area (km²)":288.6,"Observed":"2026-08-08"}},{"type":"Feature","geometry":{"type":"Point","coordinates":[96.46563,19.66845]},"properties":{"Region":"Nay Pyi Taw","District":"Det Khi Na","Township":"Pyinmana","People exposed":73,"Flooded area (km²)":1.1,"Flooded cropland (km²)":0.4,"Observed area (km²)":872.2,"Observed":"2026-08-08"}},{"type":"Feature","geometry":{"type":"Point","coordinates":[96.87001,19.68096]},"properties":{"Region":"Shan (South)","District":"Taunggyi","Township":"Pekon","People exposed":0,"Flooded area (km²)":0,"Flooded cropland (km²)":0,"Observed area (km²)":0.1,"Observed":"2026-08-08"}},{"type":"Feature","geometry":{"type":"Point","coordinates":[96.728,19.0457]},"properties":{"Region":"Kayin","District":"Hpa-An","Township":"Thandaunggyi","People exposed":23,"Flooded area (km²)":0.6,"Flooded cropland (km²)":0,"Observed area (km²)":1270.0,"Observed":"2026-08-08"}},{"type":"Feature","geometry":{"type":"Point","coordinates":[96.46474,16.54662]},"properties":{"Region":"Yangon","District":"Yangon (South)","Township":"Kyauktan","People exposed":2193,"Flooded area (km²)":12.1,"Flooded cropland (km²)":7.1,"Observed area (km²)":837.3,"Observed":"2026-08-08"}},{"type":"Feature","geometry":{"type":"Point","coordinates":[96.33499,17.5708]},"properties":{"Region":"Bago (East)","District":"Bago","Township":"Bago","People exposed":2351,"Flooded area (km²)":18.6,"Flooded cropland (km²)":7.8,"Observed area (km²)":3063.3,"Observed":"2026-08-08"}},{"type":"Feature","geometry":{"type":"Point","coordinates":[95.99169,16.95045]},"properties":{"Region":"Yangon","District":"Yangon (North)","Township":"Htantabin","People exposed":9772,"Flooded area (km²)":55.2,"Flooded cropland (km²)":49.9,"Observed area (km²)":501.5,"Observed":"2026-08-08"}},{"type":"Feature","geometry":{"type":"Point","coordinates":[95.23284,16.59223]},"properties":{"Region":"Ayeyarwady","District":"Myaungmya","Township":"Wakema","People exposed":9787,"Flooded area (km²)":74.0,"Flooded cropland (km²)":69.2,"Observed area (km²)":1122.6,"Observed":"2026-08-08"}},{"type":"Feature","geometry":{"type":"Point","coordinates":[94.89727,16.51586]},"properties":{"Region":"Ayeyarwady","District":"Myaungmya","Township":"Myaungmya","People exposed":3798,"Flooded area (km²)":19.2,"Flooded cropland (km²)":18.5,"Observed area (km²)":1068.9,"Observed":"2026-08-08"}},{"type":"Feature","geometry":{"type":"Point","coordinates":[94.75497,17.15194]},"properties":{"Region":"Ayeyarwady","District":"Pathein","Township":"Thabaung","People exposed":4440,"Flooded area (km²)":33.2,"Flooded cropland (km²)":28.8,"Observed area (km²)":1385.4,"Observed":"2026-08-08"}},{"type":"Feature","geometry":{"type":"Point","coordinates":[94.98361,17.36605]},"properties":{"Region":"Ayeyarwady","District":"Pathein","Township":"Yegyi","People exposed":10905,"Flooded area (km²)":97.0,"Flooded cropland (km²)":94.2,"Observed area (km²)":1020.5,"Observed":"2026-08-08"}},{"type":"Feature","geometry":{"type":"Point","coordinates":[94.87617,16.81155]},"properties":{"Region":"Ayeyarwady","District":"Pathein","Township":"Kangyidaunt","People exposed":8009,"Flooded area (km²)":48.5,"Flooded cropland (km²)":46.4,"Observed area (km²)":788.5,"Observed":"2026-08-08"}},{"type":"Feature","geometry":{"type":"Point","coordinates":[95.61587,16.52221]},"properties":{"Region":"Ayeyarwady","District":"Pyapon","Township":"Kyaiklat","People exposed":7441,"Flooded area (km²)":36.9,"Flooded cropland (km²)":35.8,"Observed area (km²)":574.1,"Observed":"2026-08-08"}},{"type":"Feature","geometry":{"type":"Point","coordinates":[95.17803,18.08538]},"properties":{"Region":"Ayeyarwady","District":"Hinthada","Township":"Myanaung","People exposed":2204,"Flooded area (km²)":19.3,"Flooded cropland (km²)":17.8,"Observed area (km²)":1605.5,"Observed":"2026-08-08"}},{"type":"Feature","geometry":{"type":"Point","coordinates":[96.05045,16.57966]},"properties":{"Region":"Yangon","District":"Yangon (South)","Township":"Kawhmu","People exposed":1001,"Flooded area (km²)":5.9,"Flooded cropland (km²)":4.3,"Observed area (km²)":625.3,"Observed":"2026-08-08"}},{"type":"Feature","geometry":{"type":"Point","coordinates":[96.24538,16.8707]},"properties":{"Region":"Yangon","District":"Yangon (East)","Township":"Dagon Myothit (South)","People exposed":468,"Flooded area (km²)":0.4,"Flooded cropland (km²)":0.3,"Observed area (km²)":94.2,"Observed":"2026-08-08"}},{"type":"Feature","geometry":{"type":"Point","coordinates":[95.91157,17.43507]},"properties":{"Region":"Yangon","District":"Yangon (North)","Township":"Taikkyi","People exposed":5323,"Flooded area (km²)":44.7,"Flooded cropland (km²)":37.2,"Observed area (km²)":1774.4,"Observed":"2026-08-08"}},{"type":"Feature","geometry":{"type":"Point","coordinates":[95.70506,17.0211]},"properties":{"Region":"Ayeyarwady","District":"Maubin","Township":"Nyaungdon","People exposed":13507,"Flooded area (km²)":102.2,"Flooded cropland (km²)":86.9,"Observed area (km²)":607.5,"Observed":"2026-08-08"}},{"type":"Feature","geometry":{"type":"Point","coordinates":[96.02808,16.88196]},"properties":{"Region":"Yangon","District":"Yangon (North)","Township":"Hlaingtharya (West)","People exposed":411,"Flooded area (km²)":0.3,"Flooded cropland (km²)":0.2,"Observed area (km²)":75.0,"Observed":"2026-08-08"}},{"type":"Feature","geometry":{"type":"Point","coordinates":[95.02425,17.64306]},"properties":{"Region":"Ayeyarwady","District":"Hinthada","Township":"Lemyethna","People exposed":11153,"Flooded area (km²)":64.1,"Flooded cropland (km²)":60.7,"Observed area (km²)":973.1,"Observed":"2026-08-08"}},{"type":"Feature","geometry":{"type":"Point","coordinates":[95.28961,16.36532]},"properties":{"Region":"Ayeyarwady","District":"Labutta","Township":"Mawlamyinegyun","People exposed":12582,"Flooded area (km²)":66.2,"Flooded cropland (km²)":65.5,"Observed area (km²)":1169.8,"Observed":"2026-08-08"}},{"type":"Feature","geometry":{"type":"Point","coordinates":[95.09938,16.77141]},"properties":{"Region":"Ayeyarwady","District":"Myaungmya","Township":"Einme","People exposed":3867,"Flooded area (km²)":34.2,"Flooded cropland (km²)":33.2,"Observed area (km²)":790.6,"Observed":"2026-08-08"}},{"type":"Feature","geometry":{"type":"Point","coordinates":[94.57632,16.84355]},"properties":{"Region":"Ayeyarwady","District":"Pathein","Township":"Pathein","People exposed":2527,"Flooded area (km²)":10.6,"Flooded cropland (km²)":9.2,"Observed area (km²)":257.0,"Observed":"2026-08-08"}},{"type":"Feature","geometry":{"type":"Point","coordinates":[95.66873,16.7248]},"properties":{"Region":"Ayeyarwady","District":"Maubin","Township":"Maubin","People exposed":15279,"Flooded area (km²)":105.0,"Flooded cropland (km²)":88.2,"Observed area (km²)":913.4,"Observed":"2026-08-08"}},{"type":"Feature","geometry":{"type":"Point","coordinates":[96.1037,16.76398]},"properties":{"Region":"Yangon","District":"Yangon (South)","Township":"Seikgyikanaungto","People exposed":19,"Flooded area (km²)":0.0,"Flooded cropland (km²)":0.0,"Observed area (km²)":12.1,"Observed":"2026-08-08"}},{"type":"Feature","geometry":{"type":"Point","coordinates":[97.26213,17.31032]},"properties":{"Region":"Mon","District":"Thaton","Township":"Bilin","People exposed":10,"Flooded area (km²)":0.2,"Flooded cropland (km²)":0.0,"Observed area (km²)":3.3,"Observed":"2026-08-08"}},{"type":"Feature","geometry":{"type":"Point","coordinates":[94.18059,20.50877]},"properties":{"Region":"Magway","District":"Minbu","Township":"Sidoktaya","People exposed":169,"Flooded area (km²)":4.1,"Flooded cropland (km²)":1.8,"Observed area (km²)":3074.8,"Observed":"2026-08-08"}},{"type":"Feature","geometry":{"type":"Point","coordinates":[94.41493,19.95935]},"properties":{"Region":"Magway","District":"Minbu","Township":"Ngape","People exposed":1092,"Flooded area (km²)":9.1,"Flooded cropland (km²)":8.4,"Observed area (km²)":1489.5,"Observed":"2026-08-08"}},{"type":"Feature","geometry":{"type":"Point","coordinates":[95.999,19.93107]},"properties":{"Region":"Nay Pyi Taw","District":"Oke Ta Ra","Township":"Oke Ta Ra Thi Ri","People exposed":150,"Flooded area (km²)":3.1,"Flooded cropland (km²)":1.6,"Observed area (km²)":956.1,"Observed":"2026-08-08"}},{"type":"Feature","geometry":{"type":"Point","coordinates":[96.12043,19.74679]},"properties":{"Region":"Nay Pyi Taw","District":"Det Khi Na","Township":"Za Bu Thi Ri","People exposed":188,"Flooded area (km²)":0.3,"Flooded cropland (km²)":0.0,"Observed area (km²)":71.0,"Observed":"2026-08-08"}},{"type":"Feature","geometry":{"type":"Point","coordinates":[93.87426,20.99801]},"properties":{"Region":"Chin","District":"Mindat","Township":"Kanpetlet","People exposed":1,"Flooded area (km²)":0.0,"Flooded cropland (km²)":0,"Observed area (km²)":1865.1,"Observed":"2026-08-08"}},{"type":"Feature","geometry":{"type":"Point","coordinates":[95.4268,22.29654]},"properties":{"Region":"Sagaing","District":"Monywa","Township":"Ayadaw","People exposed":6228,"Flooded area (km²)":48.5,"Flooded cropland (km²)":39.7,"Observed area (km²)":1452.5,"Observed":"2026-08-08"}},{"type":"Feature","geometry":{"type":"Point","coordinates":[95.00206,22.70584]},"properties":{"Region":"Sagaing","District":"Shwebo","Township":"Tabayin","People exposed":30875,"Flooded area (km²)":294.5,"Flooded cropland (km²)":272.9,"Observed area (km²)":1623.2,"Observed":"2026-08-08"}},{"type":"Feature","geometry":{"type":"Point","coordinates":[95.78105,22.3517]},"properties":{"Region":"Sagaing","District":"Shwebo","Township":"Wetlet","People exposed":43089,"Flooded area (km²)":370.6,"Flooded cropland (km²)":340.7,"Observed area (km²)":1500.0,"Observed":"2026-08-08"}},{"type":"Feature","geometry":{"type":"Point","coordinates":[95.50907,22.008]},"properties":{"Region":"Sagaing","District":"Sagaing","Township":"Myinmu","People exposed":1362,"Flooded area (km²)":13.1,"Flooded cropland (km²)":10.9,"Observed area (km²)":849.8,"Observed":"2026-08-08"}},{"type":"Feature","geometry":{"type":"Point","coordinates":[95.20829,22.1393]},"properties":{"Region":"Sagaing","District":"Monywa","Township":"Monywa","People exposed":2200,"Flooded area (km²)":7.6,"Flooded cropland (km²)":5.2,"Observed area (km²)":728.2,"Observed":"2026-08-08"}},{"type":"Feature","geometry":{"type":"Point","coordinates":[95.35668,19.62389]},"properties":{"Region":"Magway","District":"Thayet","Township":"Sinbaungwe","People exposed":227,"Flooded area (km²)":2.8,"Flooded cropland (km²)":1.3,"Observed area (km²)":2268.5,"Observed":"2026-08-08"}},{"type":"Feature","geometry":{"type":"Point","coordinates":[96.19907,16.82794]},"properties":{"Region":"Yangon","District":"Yangon (East)","Township":"Thingangyun","People exposed":58,"Flooded area (km²)":0.0,"Flooded cropland (km²)":0,"Observed area (km²)":13.8,"Observed":"2026-08-08"}},{"type":"Feature","geometry":{"type":"Point","coordinates":[96.18231,16.84857]},"properties":{"Region":"Yangon","District":"Yangon (East)","Township":"South Okkalapa","People exposed":0,"Flooded area (km²)":0,"Flooded cropland (km²)":0,"Observed area (km²)":8.6,"Observed":"2026-08-08"}},{"type":"Feature","geometry":{"type":"Point","coordinates":[96.10142,16.90226]},"properties":{"Region":"Yangon","District":"Yangon (North)","Township":"Insein","People exposed":0,"Flooded area (km²)":0,"Flooded cropland (km²)":0,"Observed area (km²)":30.9,"Observed":"2026-08-08"}},{"type":"Feature","geometry":{"type":"Point","coordinates":[96.16493,16.78642]},"properties":{"Region":"Yangon","District":"Yangon (East)","Township":"Mingalartaungnyunt","People exposed":0,"Flooded area (km²)":0,"Flooded cropland (km²)":0,"Observed area (km²)":5.2,"Observed":"2026-08-08"}},{"type":"Feature","geometry":{"type":"Point","coordinates":[96.14165,16.77884]},"properties":{"Region":"Yangon","District":"Yangon (West)","Township":"Lanmadaw","People exposed":0,"Flooded area (km²)":0,"Flooded cropland (km²)":0,"Observed area (km²)":2,"Observed":"2026-08-08"}},{"type":"Feature","geometry":{"type":"Point","coordinates":[95.27709,17.31068]},"properties":{"Region":"Ayeyarwady","District":"Pathein","Township":"Kyonpyaw","People exposed":5785,"Flooded area (km²)":48.6,"Flooded cropland (km²)":45.7,"Observed area (km²)":845.0,"Observed":"2026-08-08"}},{"type":"Feature","geometry":{"type":"Point","coordinates":[95.83305,22.05213]},"properties":{"Region":"Sagaing","District":"Sagaing","Township":"Sagaing","People exposed":6882,"Flooded area (km²)":58.0,"Flooded cropland (km²)":39.9,"Observed area (km²)":1267.1,"Observed":"2026-08-08"}},{"type":"Feature","geometry":{"type":"Point","coordinates":[96.10094,21.90441]},"properties":{"Region":"Mandalay","District":"Mandalay","Township":"Pyigyitagon","People exposed":57,"Flooded area (km²)":0.0,"Flooded cropland (km²)":0.0,"Observed area (km²)":14.8,"Observed":"2026-08-08"}},{"type":"Feature","geometry":{"type":"Point","coordinates":[94.76055,19.74632]},"properties":{"Region":"Magway","District":"Thayet","Township":"Minhla","People exposed":126,"Flooded area (km²)":2.0,"Flooded cropland (km²)":1.9,"Observed area (km²)":2673.8,"Observed":"2026-08-08"}},{"type":"Feature","geometry":{"type":"Point","coordinates":[96.2215,19.00472]},"properties":{"Region":"Bago (East)","District":"Taungoo","Township":"Taungoo","People exposed":2759,"Flooded area (km²)":20.8,"Flooded cropland (km²)":11.0,"Observed area (km²)":3463.2,"Observed":"2026-08-08"}},{"type":"Feature","geometry":{"type":"Point","coordinates":[95.31774,18.9199]},"properties":{"Region":"Bago (West)","District":"Pyay","Township":"Pyay","People exposed":462,"Flooded area (km²)":1.7,"Flooded cropland (km²)":1.5,"Observed area (km²)":875.9,"Observed":"2026-08-08"}},{"type":"Feature","geometry":{"type":"Point","coordinates":[95.62135,18.64074]},"properties":{"Region":"Bago (West)","District":"Pyay","Township":"Paungde","People exposed":607,"Flooded area (km²)":6.9,"Flooded cropland (km²)":4.8,"Observed area (km²)":995.4,"Observed":"2026-08-08"}},{"type":"Feature","geometry":{"type":"Point","coordinates":[95.84454,18.18898]},"properties":{"Region":"Bago (West)","District":"Thayarwady","Township":"Okpho","People exposed":226,"Flooded area (km²)":2.3,"Flooded cropland (km²)":2,"Observed area (km²)":1143.5,"Observed":"2026-08-08"}},{"type":"Feature","geometry":{"type":"Point","coordinates":[95.57556,17.4756]},"properties":{"Region":"Ayeyarwady","District":"Hinthada","Township":"Zalun","People exposed":3521,"Flooded area (km²)":24.2,"Flooded cropland (km²)":22.4,"Observed area (km²)":523.1,"Observed":"2026-08-08"}},{"type":"Feature","geometry":{"type":"Point","coordinates":[93.74662,23.76494]},"properties":{"Region":"Chin","District":"Falam","Township":"Tonzang","People exposed":2,"Flooded area (km²)":0.2,"Flooded cropland (km²)":0.1,"Observed area (km²)":4094.6,"Observed":"2026-08-08"}},{"type":"Feature","geometry":{"type":"Point","coordinates":[95.36681,24.04975]},"properties":{"Region":"Sagaing","District":"Kawlin","Township":"Pinlebu","People exposed":1383,"Flooded area (km²)":20.4,"Flooded cropland (km²)":15.8,"Observed area (km²)":3742.3,"Observed":"2026-08-08"}},{"type":"Feature","geometry":{"type":"Point","coordinates":[94.38759,24.18043]},"properties":{"Region":"Sagaing","District":"Tamu","Township":"Tamu","People exposed":542,"Flooded area (km²)":9.7,"Flooded cropland (km²)":7.2,"Observed area (km²)":2304.0,"Observed":"2026-08-08"}},{"type":"Feature","geometry":{"type":"Point","coordinates":[93.6739,23.01817]},"properties":{"Region":"Chin","District":"Falam","Township":"Falam","People exposed":5,"Flooded area (km²)":0.2,"Flooded cropland (km²)":0.1,"Observed area (km²)":3069.8,"Observed":"2026-08-08"}},{"type":"Feature","geometry":{"type":"Point","coordinates":[93.30869,22.58559]},"properties":{"Region":"Chin","District":"Hakha","Township":"Thantlang","People exposed":0,"Flooded area (km²)":0,"Flooded cropland (km²)":0,"Observed area (km²)":110.2,"Observed":"2026-08-08"}},{"type":"Feature","geometry":{"type":"Point","coordinates":[94.66336,22.45391]},"properties":{"Region":"Sagaing","District":"Yinmarbin","Township":"Kani","People exposed":1901,"Flooded area (km²)":24.7,"Flooded cropland (km²)":13.4,"Observed area (km²)":3856.8,"Observed":"2026-08-08"}},{"type":"Feature","geometry":{"type":"Point","coordinates":[93.26541,21.80056]},"properties":{"Region":"Chin","District":"Matupi","Township":"Matupi","People exposed":0,"Flooded area (km²)":0.1,"Flooded cropland (km²)":0,"Observed area (km²)":1706.1,"Observed":"2026-08-08"}},{"type":"Feature","geometry":{"type":"Point","coordinates":[95.05225,19.37916]},"properties":{"Region":"Magway","District":"Thayet","Township":"Thayet","People exposed":267,"Flooded area (km²)":1.6,"Flooded cropland (km²)":0.7,"Observed area (km²)":1319.9,"Observed":"2026-08-08"}},{"type":"Feature","geometry":{"type":"Point","coordinates":[94.84916,21.65575]},"properties":{"Region":"Magway","District":"Pakokku","Township":"Myaing","People exposed":109,"Flooded area (km²)":1.5,"Flooded cropland (km²)":0.7,"Observed area (km²)":2360.7,"Observed":"2026-08-08"}},{"type":"Feature","geometry":{"type":"Point","coordinates":[94.48836,21.48878]},"properties":{"Region":"Magway","District":"Pakokku","Township":"Pauk","People exposed":884,"Flooded area (km²)":7.8,"Flooded cropland (km²)":4.1,"Observed area (km²)":2833.0,"Observed":"2026-08-08"}},{"type":"Feature","geometry":{"type":"Point","coordinates":[94.89448,25.35642]},"properties":{"Region":"Sagaing","District":"Naga Self-Administered Zone","Township":"Lay Shi","People exposed":3,"Flooded area (km²)":0.5,"Flooded cropland (km²)":0.0,"Observed area (km²)":3359.5,"Observed":"2026-08-08"}},{"type":"Feature","geometry":{"type":"Point","coordinates":[95.37134,26.30116]},"properties":{"Region":"Sagaing","District":"Naga Self-Administered Zone","Township":"Lahe","People exposed":0,"Flooded area (km²)":0,"Flooded cropland (km²)":0,"Observed area (km²)":46.1,"Observed":"2026-08-08"}},{"type":"Feature","geometry":{"type":"Point","coordinates":[95.69801,22.77442]},"properties":{"Region":"Sagaing","District":"Shwebo","Township":"Khin-U","People exposed":24270,"Flooded area (km²)":172.4,"Flooded cropland (km²)":159.7,"Observed area (km²)":1154.6,"Observed":"2026-08-08"}},{"type":"Feature","geometry":{"type":"Point","coordinates":[93.76917,22.45443]},"properties":{"Region":"Chin","District":"Hakha","Township":"Hakha","People exposed":1,"Flooded area (km²)":0.2,"Flooded cropland (km²)":0.1,"Observed area (km²)":4684.1,"Observed":"2026-08-08"}},{"type":"Feature","geometry":{"type":"Point","coordinates":[94.17961,22.25088]},"properties":{"Region":"Magway","District":"Gangaw","Township":"Gangaw","People exposed":571,"Flooded area (km²)":6.3,"Flooded cropland (km²)":4.5,"Observed area (km²)":2858.7,"Observed":"2026-08-08"}},{"type":"Feature","geometry":{"type":"Point","coordinates":[95.94594,20.6119]},"properties":{"Region":"Mandalay","District":"Yamethin","Township":"Pyawbwe","People exposed":138,"Flooded area (km²)":1.8,"Flooded cropland (km²)":1.2,"Observed area (km²)":1866.0,"Observed":"2026-08-08"}},{"type":"Feature","geometry":{"type":"Point","coordinates":[93.71402,23.3726]},"properties":{"Region":"Chin","District":"Falam","Township":"Tedim","People exposed":8,"Flooded area (km²)":0.1,"Flooded cropland (km²)":0.1,"Observed area (km²)":2841.0,"Observed":"2026-08-08"}},{"type":"Feature","geometry":{"type":"Point","coordinates":[95.02051,21.08527]},"properties":{"Region":"Mandalay","District":"Nyaung-U","Township":"Nyaung-U","People exposed":1058,"Flooded area (km²)":6.9,"Flooded cropland (km²)":4.6,"Observed area (km²)":1571.1,"Observed":"2026-08-08"}},{"type":"Feature","geometry":{"type":"Point","coordinates":[94.60423,20.34772]},"properties":{"Region":"Magway","District":"Minbu","Township":"Pwintbyu","People exposed":8071,"Flooded area (km²)":55.0,"Flooded cropland (km²)":53.1,"Observed area (km²)":1266.5,"Observed":"2026-08-08"}},{"type":"Feature","geometry":{"type":"Point","coordinates":[95.76093,20.83379]},"properties":{"Region":"Mandalay","District":"Meiktila","Township":"Meiktila","People exposed":183,"Flooded area (km²)":1.7,"Flooded cropland (km²)":1.1,"Observed area (km²)":1386.4,"Observed":"2026-08-08"}},{"type":"Feature","geometry":{"type":"Point","coordinates":[95.83028,23.68228]},"properties":{"Region":"Sagaing","District":"Kawlin","Township":"Kawlin","People exposed":12123,"Flooded area (km²)":153.2,"Flooded cropland (km²)":126.7,"Observed area (km²)":1204.3,"Observed":"2026-08-08"}},{"type":"Feature","geometry":{"type":"Point","coordinates":[95.66337,21.08928]},"properties":{"Region":"Mandalay","District":"Meiktila","Township":"Mahlaing","People exposed":357,"Flooded area (km²)":5.5,"Flooded cropland (km²)":2.6,"Observed area (km²)":1280.0,"Observed":"2026-08-08"}},{"type":"Feature","geometry":{"type":"Point","coordinates":[95.3921,21.221]},"properties":{"Region":"Mandalay","District":"Myingyan","Township":"Taungtha","People exposed":1267,"Flooded area (km²)":8.6,"Flooded cropland (km²)":7.0,"Observed area (km²)":1495.8,"Observed":"2026-08-08"}},{"type":"Feature","geometry":{"type":"Point","coordinates":[96.27686,18.5269]},"properties":{"Region":"Bago (East)","District":"Taungoo","Township":"Phyu","People exposed":1462,"Flooded area (km²)":18.4,"Flooded cropland (km²)":2.9,"Observed area (km²)":2483.9,"Observed":"2026-08-08"}},{"type":"Feature","geometry":{"type":"Point","coordinates":[96.49961,21.2842]},"properties":{"Region":"Shan (South)","District":"Danu Self-Administered Zone","Township":"Ywangan","People exposed":0,"Flooded area (km²)":0,"Flooded cropland (km²)":0,"Observed area (km²)":104.8,"Observed":"2026-08-08"}},{"type":"Feature","geometry":{"type":"Point","coordinates":[96.20314,18.79893]},"properties":{"Region":"Bago (East)","District":"Taungoo","Township":"Oktwin","People exposed":2759,"Flooded area (km²)":20.8,"Flooded cropland (km²)":11.0,"Observed area (km²)":3463.2,"Observed":"2026-08-08"}},{"type":"Feature","geometry":{"type":"Point","coordinates":[96.83731,18.39395]},"properties":{"Region":"Bago (East)","District":"Taungoo","Township":"Kyaukkyi","People exposed":2479,"Flooded area (km²)":23.3,"Flooded cropland (km²)":16.0,"Observed area (km²)":787.7,"Observed":"2026-08-08"}},{"type":"Feature","geometry":{"type":"Point","coordinates":[96.53811,18.74327]},"properties":{"Region":"Bago (East)","District":"Taungoo","Township":"Htantabin","People exposed":1672,"Flooded area (km²)":10.3,"Flooded cropland (km²)":9.0,"Observed area (km²)":600.3,"Observed":"2026-08-08"}},{"type":"Feature","geometry":{"type":"Point","coordinates":[96.16504,21.35239]},"properties":{"Region":"Mandalay","District":"Kyaukse","Township":"Myittha","People exposed":945,"Flooded area (km²)":5.9,"Flooded cropland (km²)":4.6,"Observed area (km²)":631.5,"Observed":"2026-08-08"}},{"type":"Feature","geometry":{"type":"Point","coordinates":[95.2014,18.57607]},"properties":{"Region":"Bago (West)","District":"Pyay","Township":"Shwedaung","People exposed":1142,"Flooded area (km²)":8.2,"Flooded cropland (km²)":7.1,"Observed area (km²)":694.5,"Observed":"2026-08-08"}},{"type":"Feature","geometry":{"type":"Point","coordinates":[95.76509,17.95407]},"properties":{"Region":"Bago (West)","District":"Thayarwady","Township":"Minhla","People exposed":541,"Flooded area (km²)":4.9,"Flooded cropland (km²)":4.1,"Observed area (km²)":671.3,"Observed":"2026-08-08"}},{"type":"Feature","geometry":{"type":"Point","coordinates":[95.60244,18.20501]},"properties":{"Region":"Bago (West)","District":"Thayarwady","Township":"Gyobingauk","People exposed":248,"Flooded area (km²)":2.2,"Flooded cropland (km²)":1.6,"Observed area (km²)":833.1,"Observed":"2026-08-08"}},{"type":"Feature","geometry":{"type":"Point","coordinates":[95.83292,17.69156]},"properties":{"Region":"Bago (West)","District":"Thayarwady","Township":"Thayarwady","People exposed":2104,"Flooded area (km²)":28.8,"Flooded cropland (km²)":23.4,"Observed area (km²)":1020.4,"Observed":"2026-08-08"}},{"type":"Feature","geometry":{"type":"Point","coordinates":[95.66343,18.34535]},"properties":{"Region":"Bago (West)","District":"Thayarwady","Township":"Zigon","People exposed":175,"Flooded area (km²)":0.8,"Flooded cropland (km²)":0.8,"Observed area (km²)":284.3,"Observed":"2026-08-08"}},{"type":"Feature","geometry":{"type":"Point","coordinates":[95.43254,20.49879]},"properties":{"Region":"Magway","District":"Magway","Township":"Natmauk","People exposed":435,"Flooded area (km²)":3.6,"Flooded cropland (km²)":1.4,"Observed area (km²)":2622.4,"Observed":"2026-08-08"}},{"type":"Feature","geometry":{"type":"Point","coordinates":[94.61417,21.99524]},"properties":{"Region":"Sagaing","District":"Yinmarbin","Township":"Pale","People exposed":682,"Flooded area (km²)":6.2,"Flooded cropland (km²)":5.0,"Observed area (km²)":1844.2,"Observed":"2026-08-08"}},{"type":"Feature","geometry":{"type":"Point","coordinates":[95.45113,21.55514]},"properties":{"Region":"Mandalay","District":"Myingyan","Township":"Myingyan","People exposed":609,"Flooded area (km²)":3.7,"Flooded cropland (km²)":2.9,"Observed area (km²)":926.9,"Observed":"2026-08-08"}},{"type":"Feature","geometry":{"type":"Point","coordinates":[95.319,21.75267]},"properties":{"Region":"Sagaing","District":"Sagaing","Township":"Myaung","People exposed":4330,"Flooded area (km²)":28.6,"Flooded cropland (km²)":23.8,"Observed area (km²)":276.4,"Observed":"2026-08-08"}},{"type":"Feature","geometry":{"type":"Point","coordinates":[95.7245,21.43528]},"properties":{"Region":"Mandalay","District":"Myingyan","Township":"Natogyi","People exposed":257,"Flooded area (km²)":3.0,"Flooded cropland (km²)":2.1,"Observed area (km²)":1446.5,"Observed":"2026-08-08"}},{"type":"Feature","geometry":{"type":"Point","coordinates":[96.12289,22.54078]},"properties":{"Region":"Mandalay","District":"Pyinoolwin","Township":"Singu","People exposed":463,"Flooded area (km²)":2.9,"Flooded cropland (km²)":2.4,"Observed area (km²)":62.5,"Observed":"2026-08-08"}},{"type":"Feature","geometry":{"type":"Point","coordinates":[94.59819,23.69932]},"properties":{"Region":"Sagaing","District":"Mawlaik","Township":"Mawlaik","People exposed":744,"Flooded area (km²)":14.3,"Flooded cropland (km²)":9.7,"Observed area (km²)":4108.7,"Observed":"2026-08-08"}},{"type":"Feature","geometry":{"type":"Point","coordinates":[94.38271,23.30139]},"properties":{"Region":"Sagaing","District":"Kale","Township":"Kalewa","People exposed":1178,"Flooded area (km²)":17.2,"Flooded cropland (km²)":13.6,"Observed area (km²)":2748.4,"Observed":"2026-08-08"}},{"type":"Feature","geometry":{"type":"Point","coordinates":[94.18927,21.20386]},"properties":{"Region":"Magway","District":"Gangaw","Township":"Saw","People exposed":230,"Flooded area (km²)":2.3,"Flooded cropland (km²)":2.1,"Observed area (km²)":2047.4,"Observed":"2026-08-08"}},{"type":"Feature","geometry":{"type":"Point","coordinates":[95.18905,23.47933]},"properties":{"Region":"Sagaing","District":"Kanbalu","Township":"Kyunhla","People exposed":3179,"Flooded area (km²)":160.5,"Flooded cropland (km²)":90.8,"Observed area (km²)":3054.5,"Observed":"2026-08-08"}},{"type":"Feature","geometry":{"type":"Point","coordinates":[94.87075,24.19732]},"properties":{"Region":"Sagaing","District":"Mawlaik","Township":"Paungbyin","People exposed":3891,"Flooded area (km²)":60.0,"Flooded cropland (km²)":47.3,"Observed area (km²)":4800.3,"Observed":"2026-08-08"}},{"type":"Feature","geometry":{"type":"Point","coordinates":[94.52143,22.88857]},"properties":{"Region":"Sagaing","District":"Kale","Township":"Mingin","People exposed":2936,"Flooded area (km²)":45.5,"Flooded cropland (km²)":30.9,"Observed area (km²)":4557.5,"Observed":"2026-08-08"}},{"type":"Feature","geometry":{"type":"Point","coordinates":[94.17667,21.76717]},"properties":{"Region":"Magway","District":"Gangaw","Township":"Tilin","People exposed":86,"Flooded area (km²)":1.5,"Flooded cropland (km²)":1.4,"Observed area (km²)":1544.9,"Observed":"2026-08-08"}},{"type":"Feature","geometry":{"type":"Point","coordinates":[93.77782,21.46619]},"properties":{"Region":"Chin","District":"Mindat","Township":"Mindat","People exposed":0,"Flooded area (km²)":0.0,"Flooded cropland (km²)":0,"Observed area (km²)":2105.7,"Observed":"2026-08-08"}},{"type":"Feature","geometry":{"type":"Point","coordinates":[95.64122,21.78626]},"properties":{"Region":"Mandalay","District":"Myingyan","Township":"Ngazun","People exposed":240,"Flooded area (km²)":2.1,"Flooded cropland (km²)":1.6,"Observed area (km²)":947.1,"Observed":"2026-08-08"}},{"type":"Feature","geometry":{"type":"Point","coordinates":[95.29204,24.95209]},"properties":{"Region":"Sagaing","District":"Hkamti","Township":"Homalin","People exposed":10909,"Flooded area (km²)":190.1,"Flooded cropland (km²)":124.4,"Observed area (km²)":8943.6,"Observed":"2026-08-08"}},{"type":"Feature","geometry":{"type":"Point","coordinates":[95.72085,24.52486]},"properties":{"Region":"Sagaing","District":"Katha","Township":"Banmauk","People exposed":40,"Flooded area (km²)":1.7,"Flooded cropland (km²)":0.4,"Observed area (km²)":936.6,"Observed":"2026-08-08"}},{"type":"Feature","geometry":{"type":"Point","coordinates":[95.13079,20.0854]},"properties":{"Region":"Magway","District":"Magway","Township":"Magway","People exposed":905,"Flooded area (km²)":9.7,"Flooded cropland (km²)":3.2,"Observed area (km²)":1883.9,"Observed":"2026-08-08"}},{"type":"Feature","geometry":{"type":"Point","coordinates":[95.49507,20.17834]},"properties":{"Region":"Magway","District":"Magway","Township":"Myothit","People exposed":1447,"Flooded area (km²)":11.6,"Flooded cropland (km²)":8.1,"Observed area (km²)":1803.5,"Observed":"2026-08-08"}},{"type":"Feature","geometry":{"type":"Point","coordinates":[95.19491,23.08688]},"properties":{"Region":"Sagaing","District":"Shwebo","Township":"Taze","People exposed":13006,"Flooded area (km²)":127.9,"Flooded cropland (km²)":103.4,"Observed area (km²)":2188.4,"Observed":"2026-08-08"}},{"type":"Feature","geometry":{"type":"Point","coordinates":[95.25673,20.84301]},"properties":{"Region":"Mandalay","District":"Nyaung-U","Township":"Kyaukpadaung","People exposed":628,"Flooded area (km²)":6.9,"Flooded cropland (km²)":5.2,"Observed area (km²)":2239.5,"Observed":"2026-08-08"}},{"type":"Feature","geometry":{"type":"Point","coordinates":[95.99912,21.1699]},"properties":{"Region":"Mandalay","District":"Meiktila","Township":"Wundwin","People exposed":3012,"Flooded area (km²)":22.0,"Flooded cropland (km²)":16.7,"Observed area (km²)":1596.7,"Observed":"2026-08-08"}},{"type":"Feature","geometry":{"type":"Point","coordinates":[94.74236,20.09558]},"properties":{"Region":"Magway","District":"Minbu","Township":"Minbu","People exposed":903,"Flooded area (km²)":7.2,"Flooded cropland (km²)":6.2,"Observed area (km²)":1798.9,"Observed":"2026-08-08"}},{"type":"Feature","geometry":{"type":"Point","coordinates":[94.12223,23.15757]},"properties":{"Region":"Sagaing","District":"Kale","Township":"Kale","People exposed":4945,"Flooded area (km²)":35.7,"Flooded cropland (km²)":30.0,"Observed area (km²)":2717.7,"Observed":"2026-08-08"}},{"type":"Feature","geometry":{"type":"Point","coordinates":[94.53845,21.06281]},"properties":{"Region":"Magway","District":"Pakokku","Township":"Seikphyu","People exposed":240,"Flooded area (km²)":2.1,"Flooded cropland (km²)":1.2,"Observed area (km²)":1731.3,"Observed":"2026-08-08"}}],"bbox":[93.26541,15.99563,97.26213,26.30116]}
