{
"type": "FeatureCollection",
"name": "inputarea",
"crs": { "type": "name", "properties": { "name": "urn:ogc:def:crs:OGC:1.3:CRS84" } },
"features": [
{ "type": "Feature", "properties": { "Shape_Leng": 0.0, "Shape_Area": 0.0 }, "geometry": { "type": "Polygon", "coordinates": [ [ [ 140.2987392980001, 35.520336135000036 ], [ 140.300784928000098, 35.523316704000081 ], [ 140.304504262000023, 35.528253028000051 ], [ 140.306621415, 35.532164617000035 ], [ 140.306678637, 35.532211185000051 ], [ 140.307765828000015, 35.534772239000063 ], [ 140.308051928000054, 35.536448521000068 ], [ 140.308681351000018, 35.538031644000057 ], [ 140.31079851100003, 35.53663477200007 ], [ 140.311771257000032, 35.535610384000051 ], [ 140.313258992000101, 35.534446291000052 ], [ 140.31446062100008, 35.533421873000066 ], [ 140.316806659, 35.532444010000063 ], [ 140.317035542000099, 35.532397445000072 ], [ 140.318752156000073, 35.531186738000088 ], [ 140.319839341000034, 35.529556914000068 ], [ 140.320125447, 35.528113325000049 ], [ 140.318823679000047, 35.526762851000058 ], [ 140.31636319800009, 35.524900086000059 ], [ 140.315676553, 35.52280442600005 ], [ 140.315733775000012, 35.521686718000069 ], [ 140.314474923000034, 35.521127858000057 ], [ 140.313273294000055, 35.520103271000039 ], [ 140.311957224000025, 35.519497830000034 ], [ 140.309897288, 35.51777461800009 ], [ 140.30800901300006, 35.518007485000055 ], [ 140.304633007, 35.519358111000088 ], [ 140.302344187000017, 35.520196418000069 ], [ 140.300684796000041, 35.520382707000067 ], [ 140.2987392980001, 35.520336135000036 ] ] ] } }
]
}
