{
"type": "FeatureCollection",
"name": "inputarea",
"crs": { "type": "name", "properties": { "name": "urn:ogc:def:crs:OGC:1.3:CRS84" } },
"bbox": [ 140.298739, 35.517775, 140.320125, 35.538032 ],                                                                          
"features": [
{ "type": "Feature", "properties": { "Shape_Leng": 0.0, "Shape_Area": 0.0 }, "bbox": [ 140.298739, 35.517775, 140.320125, 35.538032 ], "geometry": { "type": "Polygon", "coordinates": [ [ [ 140.298739, 35.520336 ], [ 140.300785, 35.523317 ], [ 140.304504, 35.528253 ], [ 140.306621, 35.532165 ], [ 140.306679, 35.532211 ], [ 140.307766, 35.534772 ], [ 140.308052, 35.536449 ], [ 140.308681, 35.538032 ], [ 140.310799, 35.536635 ], [ 140.311771, 35.53561 ], [ 140.313259, 35.534446 ], [ 140.314461, 35.533422 ], [ 140.316807, 35.532444 ], [ 140.317036, 35.532397 ], [ 140.318752, 35.531187 ], [ 140.319839, 35.529557 ], [ 140.320125, 35.528113 ], [ 140.318824, 35.526763 ], [ 140.316363, 35.5249 ], [ 140.315677, 35.522804 ], [ 140.315734, 35.521687 ], [ 140.314475, 35.521128 ], [ 140.313273, 35.520103 ], [ 140.311957, 35.519498 ], [ 140.309897, 35.517775 ], [ 140.308009, 35.518007 ], [ 140.304633, 35.519358 ], [ 140.302344, 35.520196 ], [ 140.300685, 35.520383 ], [ 140.298739, 35.520336 ] ] ] } }
]
}
